datetime,temperature_2m,relative_humidity_2m,dewpoint_2m,precipitation,wind_speed_10m,apparent_temperature,pressure_msl,cloud_cover,soil_temperature_0cm,evapotranspiration,visibility,is_day,state,latitude,longitude,region,data_type
2025-11-12 06:00:00+00:00,11.0265,43.6704,-0.8735,0.0,14.082628,6.717827,1022.1,8.0,,,,0.0,Guanajuato,21.019,-101.2574,Bajio_Agricola,hourly
2025-11-12 07:00:00+00:00,9.8265,46.963654,-0.9735,0.0,7.327127,6.488476,1021.9,17.0,,,,0.0,Guanajuato,21.019,-101.2574,Bajio_Agricola,hourly
2025-11-12 08:00:00+00:00,8.9265,48.80946,-1.2735,0.0,5.3939967,5.8273525,1022.0,34.0,,,,0.0,Guanajuato,21.019,-101.2574,Bajio_Agricola,hourly
2025-11-12 09:00:00+00:00,8.0265,50.933773,-1.5235,0.0,2.97953,5.244211,1022.0,95.0,,,,0.0,Guanajuato,21.019,-101.2574,Bajio_Agricola,hourly
2025-11-12 10:00:00+00:00,7.7265,51.414234,-1.6735,0.0,2.0124612,5.064373,1022.3,88.0,,,,0.0,Guanajuato,21.019,-101.2574,Bajio_Agricola,hourly
2025-11-12 11:00:00+00:00,7.6765003,50.46277,-1.9735,0.0,1.8532133,4.996498,1022.7,29.0,,,,0.0,Guanajuato,21.019,-101.2574,Bajio_Agricola,hourly
2025-11-12 12:00:00+00:00,7.0265,53.340492,-1.8235,0.0,3.3481934,4.148881,1023.7,94.0,,,,0.0,Guanajuato,21.019,-101.2574,Bajio_Agricola,hourly
2025-11-12 13:00:00+00:00,7.1265,50.68178,-2.4235,0.0,1.5484185,4.4307604,1024.4,97.0,,,,1.0,Guanajuato,21.019,-101.2574,Bajio_Agricola,hourly
2025-11-12 14:00:00+00:00,10.4265,44.462276,-1.1735,0.0,3.4152596,7.6301937,1024.2,80.0,,,,1.0,Guanajuato,21.019,-101.2574,Bajio_Agricola,hourly
2025-11-12 15:00:00+00:00,14.4765005,32.73639,-1.7235,0.0,4.669604,11.419896,1024.3,48.0,,,,1.0,Guanajuato,21.019,-101.2574,Bajio_Agricola,hourly
2025-11-12 16:00:00+00:00,16.426498,33.54874,0.3265,0.0,8.461915,13.118931,1023.7,57.0,,,,1.0,Guanajuato,21.019,-101.2574,Bajio_Agricola,hourly
2025-11-12 17:00:00+00:00,18.5765,30.698385,0.97650003,0.0,9.97986,16.073109,1022.2,41.0,,,,1.0,Guanajuato,21.019,-101.2574,Bajio_Agricola,hourly
2025-11-12 18:00:00+00:00,20.5765,27.603825,1.2265,0.0,10.548061,18.624805,1020.6,63.0,,,,1.0,Guanajuato,21.019,-101.2574,Bajio_Agricola,hourly
2025-11-12 19:00:00+00:00,22.0765,24.819942,1.0265,0.0,9.292255,20.489468,1018.5,88.0,,,,1.0,Guanajuato,21.019,-101.2574,Bajio_Agricola,hourly
2025-11-12 20:00:00+00:00,23.026499,23.010742,0.7765,0.0,8.0599,21.184622,1016.9,100.0,,,,1.0,Guanajuato,21.019,-101.2574,Bajio_Agricola,hourly
2025-11-12 21:00:00+00:00,23.176498,22.395428,0.5265,0.0,6.601363,20.558239,1016.0,100.0,,,,1.0,Guanajuato,21.019,-101.2574,Bajio_Agricola,hourly
2025-11-12 22:00:00+00:00,22.926498,22.008501,0.0765,0.0,3.462369,20.307713,1015.6,95.0,,,,1.0,Guanajuato,21.019,-101.2574,Bajio_Agricola,hourly
2025-11-12 23:00:00+00:00,22.0765,22.10562,-0.5735,0.0,4.942631,19.143494,1015.8,0.0,,,,1.0,Guanajuato,21.019,-101.2574,Bajio_Agricola,hourly
2025-11-13 00:00:00+00:00,19.676498,24.343948,-1.2735,0.0,8.777654,16.083082,1016.7,0.0,,,,1.0,Guanajuato,21.019,-101.2574,Bajio_Agricola,hourly
2025-11-13 01:00:00+00:00,17.4765,27.733553,-1.3735,0.0,17.1,12.655611,1018.1,9.0,,,,0.0,Guanajuato,21.019,-101.2574,Bajio_Agricola,hourly
2025-11-13 02:00:00+00:00,16.1265,29.992743,-1.4735,0.0,19.513195,10.939796,1019.5,0.0,,,,0.0,Guanajuato,21.019,-101.2574,Bajio_Agricola,hourly
2025-11-13 03:00:00+00:00,15.0765,30.355116,-2.2235,0.0,21.047688,9.563553,1020.3,0.0,,,,0.0,Guanajuato,21.019,-101.2574,Bajio_Agricola,hourly
2025-11-13 04:00:00+00:00,14.7265005,26.649673,-4.2735,0.0,22.589102,8.732929,1020.3,0.0,,,,0.0,Guanajuato,21.019,-101.2574,Bajio_Agricola,hourly
2025-11-13 05:00:00+00:00,14.6265,22.962431,-6.3234997,0.0,23.801556,8.23298,1020.1,4.0,,,,0.0,Guanajuato,21.019,-101.2574,Bajio_Agricola,hourly
2025-11-13 06:00:00+00:00,14.0765,21.447931,-7.6735,0.0,21.407139,7.901312,1020.0,36.0,,,,0.0,Guanajuato,21.019,-101.2574,Bajio_Agricola,hourly
2025-11-13 07:00:00+00:00,13.5265,22.05648,-7.7735,0.0,11.738705,8.752094,1019.9,98.0,,,,0.0,Guanajuato,21.019,-101.2574,Bajio_Agricola,hourly
2025-11-13 08:00:00+00:00,11.5765,26.660282,-6.9735,0.0,5.896202,7.7297573,1020.2,5.0,,,,0.0,Guanajuato,21.019,-101.2574,Bajio_Agricola,hourly
2025-11-13 09:00:00+00:00,10.6265,29.730808,-6.3735,0.0,6.452441,6.758113,1020.2,95.0,,,,0.0,Guanajuato,21.019,-101.2574,Bajio_Agricola,hourly
2025-11-13 10:00:00+00:00,10.1265,32.178715,-5.7735,0.0,8.338489,6.045006,1019.7,94.0,,,,0.0,Guanajuato,21.019,-101.2574,Bajio_Agricola,hourly
2025-11-13 11:00:00+00:00,9.9265,32.119118,-5.9735,0.0,9.7565975,5.6172676,1019.4,90.0,,,,0.0,Guanajuato,21.019,-101.2574,Bajio_Agricola,hourly
2025-11-13 12:00:00+00:00,10.4765005,28.350225,-7.1235,0.0,10.8792095,5.888588,1020.0,95.0,,,,0.0,Guanajuato,21.019,-101.2574,Bajio_Agricola,hourly
2025-11-13 13:00:00+00:00,10.0765,28.2332,-7.5235,0.0,8.587338,5.7848997,1020.5,63.0,,,,1.0,Guanajuato,21.019,-101.2574,Bajio_Agricola,hourly
2025-11-13 14:00:00+00:00,12.8765,27.03396,-5.6735,0.0,7.193247,8.97255,1021.4,41.0,,,,1.0,Guanajuato,21.019,-101.2574,Bajio_Agricola,hourly
2025-11-13 15:00:00+00:00,16.7265,21.094597,-5.6735,0.0,2.3469129,13.529062,1022.2,18.0,,,,1.0,Guanajuato,21.019,-101.2574,Bajio_Agricola,hourly
2025-11-13 16:00:00+00:00,19.0765,19.042559,-5.0734997,0.0,5.293959,15.513956,1021.6,87.0,,,,1.0,Guanajuato,21.019,-101.2574,Bajio_Agricola,hourly
2025-11-13 17:00:00+00:00,21.1265,18.086826,-4.0735,0.0,5.414979,18.578577,1020.3,89.0,,,,1.0,Guanajuato,21.019,-101.2574,Bajio_Agricola,hourly
2025-11-13 18:00:00+00:00,22.676498,17.209974,-3.4735,0.0,3.710795,21.194073,1018.8,40.0,,,,1.0,Guanajuato,21.019,-101.2574,Bajio_Agricola,hourly
2025-11-13 19:00:00+00:00,23.926498,16.198563,-3.2735002,0.0,5.9427266,22.360748,1017.5,60.0,,,,1.0,Guanajuato,21.019,-101.2574,Bajio_Agricola,hourly
2025-11-13 20:00:00+00:00,24.526499,16.460257,-2.5735002,0.0,8.225035,22.40749,1016.0,39.0,,,,1.0,Guanajuato,21.019,-101.2574,Bajio_Agricola,hourly
2025-11-13 21:00:00+00:00,24.6265,16.422804,-2.5235002,0.0,10.948973,21.422842,1015.3,2.0,,,,1.0,Guanajuato,21.019,-101.2574,Bajio_Agricola,hourly
2025-11-13 22:00:00+00:00,23.7265,16.702536,-3.0235002,0.0,15.543706,18.910908,1015.1,0.0,,,,1.0,Guanajuato,21.019,-101.2574,Bajio_Agricola,hourly
2025-11-13 23:00:00+00:00,22.026499,17.70449,-3.6235,0.0,18.445389,16.713667,1015.7,2.0,,,,1.0,Guanajuato,21.019,-101.2574,Bajio_Agricola,hourly
2025-11-14 00:00:00+00:00,20.026499,20.472271,-3.3235002,0.0,14.98331,15.255745,1016.4,1.0,,,,1.0,Guanajuato,21.019,-101.2574,Bajio_Agricola,hourly
2025-11-14 01:00:00+00:00,17.776499,24.362005,-2.8735,0.0,20.972897,12.189262,1017.3,0.0,,,,0.0,Guanajuato,21.019,-101.2574,Bajio_Agricola,hourly
2025-11-14 02:00:00+00:00,16.426498,28.677582,-1.8235,0.0,21.79487,10.858528,1018.2,24.0,,,,0.0,Guanajuato,21.019,-101.2574,Bajio_Agricola,hourly
2025-11-14 03:00:00+00:00,15.4265,29.029291,-2.5235002,0.0,22.783335,9.620767,1018.8,0.0,,,,0.0,Guanajuato,21.019,-101.2574,Bajio_Agricola,hourly
2025-11-14 04:00:00+00:00,15.0265,25.556427,-4.5734997,0.0,22.91026,8.951466,1018.9,0.0,,,,0.0,Guanajuato,21.019,-101.2574,Bajio_Agricola,hourly
2025-11-14 05:00:00+00:00,14.4265,22.995514,-6.4735,0.0,20.765635,8.460584,1018.4,0.0,,,,0.0,Guanajuato,21.019,-101.2574,Bajio_Agricola,hourly
2025-11-14 06:00:00+00:00,14.2265005,19.500849,-8.7734995,0.0,16.985933,8.598048,1018.6,0.0,,,,0.0,Guanajuato,21.019,-101.2574,Bajio_Agricola,hourly
2025-11-14 07:00:00+00:00,12.8265,19.441635,-9.9735,0.0,7.458606,8.488781,1018.7,0.0,,,,0.0,Guanajuato,21.019,-101.2574,Bajio_Agricola,hourly
2025-11-14 08:00:00+00:00,11.5265,21.344486,-9.8735,0.0,6.7205353,7.3043537,1018.9,0.0,,,,0.0,Guanajuato,21.019,-101.2574,Bajio_Agricola,hourly
2025-11-14 09:00:00+00:00,10.9265,23.557657,-9.1235,0.0,6.5248446,6.794051,1018.7,20.0,,,,0.0,Guanajuato,21.019,-101.2574,Bajio_Agricola,hourly
2025-11-14 10:00:00+00:00,9.6765,27.898964,-8.0235,0.0,3.4763772,6.0842905,1019.0,59.0,,,,0.0,Guanajuato,21.019,-101.2574,Bajio_Agricola,hourly
2025-11-14 11:00:00+00:00,9.3765,29.248814,-7.6735,0.0,2.0124612,6.0297756,1019.2,51.0,,,,0.0,Guanajuato,21.019,-101.2574,Bajio_Agricola,hourly
2025-11-14 12:00:00+00:00,8.9265,31.943102,-6.9235,0.0,6.2379804,5.034767,1019.8,40.0,,,,0.0,Guanajuato,21.019,-101.2574,Bajio_Agricola,hourly
2025-11-14 13:00:00+00:00,8.5765,33.98571,-6.4235,0.0,3.745557,5.097788,1020.7,53.0,,,,1.0,Guanajuato,21.019,-101.2574,Bajio_Agricola,hourly
2025-11-14 14:00:00+00:00,11.8265,31.955637,-4.3735,0.0,2.2553935,8.786782,1021.5,95.0,,,,1.0,Guanajuato,21.019,-101.2574,Bajio_Agricola,hourly
2025-11-14 15:00:00+00:00,16.176498,21.434006,-5.9235,0.0,3.693291,12.756474,1021.9,13.0,,,,1.0,Guanajuato,21.019,-101.2574,Bajio_Agricola,hourly
2025-11-14 16:00:00+00:00,18.426498,20.44033,-4.6735,0.0,7.5363917,14.581776,1021.4,20.0,,,,1.0,Guanajuato,21.019,-101.2574,Bajio_Agricola,hourly
2025-11-14 17:00:00+00:00,20.6265,18.304756,-4.3234997,0.0,8.4963045,17.609419,1020.1,34.0,,,,1.0,Guanajuato,21.019,-101.2574,Bajio_Agricola,hourly
2025-11-14 18:00:00+00:00,22.676498,16.454426,-4.0735,0.0,9.1958685,20.209408,1018.2,91.0,,,,1.0,Guanajuato,21.019,-101.2574,Bajio_Agricola,hourly
2025-11-14 19:00:00+00:00,24.3765,14.796059,-4.1235,0.0,8.209263,22.27155,1015.9,95.0,,,,1.0,Guanajuato,21.019,-101.2574,Bajio_Agricola,hourly
2025-11-14 20:00:00+00:00,25.4765,14.065656,-3.9235,0.0,6.945761,23.314312,1014.2,100.0,,,,1.0,Guanajuato,21.019,-101.2574,Bajio_Agricola,hourly
2025-11-14 21:00:00+00:00,25.8765,13.787363,-3.8735,0.0,4.7521367,23.37679,1012.9,84.0,,,,1.0,Guanajuato,21.019,-101.2574,Bajio_Agricola,hourly
2025-11-14 22:00:00+00:00,25.676498,14.16215,-3.6735,0.0,1.659518,22.804775,1012.3,100.0,,,,1.0,Guanajuato,21.019,-101.2574,Bajio_Agricola,hourly
2025-11-14 23:00:00+00:00,24.7265,16.204453,-2.6235,0.0,3.9518096,21.652435,1012.5,99.0,,,,1.0,Guanajuato,21.019,-101.2574,Bajio_Agricola,hourly
2025-11-15 00:00:00+00:00,21.426498,23.001125,-0.5735,0.0,3.0652893,18.767418,1013.7,100.0,,,,1.0,Guanajuato,21.019,-101.2574,Bajio_Agricola,hourly
2025-11-15 01:00:00+00:00,19.176498,27.211025,-0.1735,0.0,12.932471,15.139088,1015.0,98.0,,,,0.0,Guanajuato,21.019,-101.2574,Bajio_Agricola,hourly
2025-11-15 02:00:00+00:00,17.8765,27.948952,-0.9235,0.0,17.123669,13.116501,1016.3,98.0,,,,0.0,Guanajuato,21.019,-101.2574,Bajio_Agricola,hourly
2025-11-15 03:00:00+00:00,16.426498,34.03714,0.5265,0.0,19.706507,11.51078,1016.8,95.0,,,,0.0,Guanajuato,21.019,-101.2574,Bajio_Agricola,hourly
2025-11-15 04:00:00+00:00,15.8765,34.99825,0.42650002,0.0,21.384424,10.700265,1016.9,92.0,,,,0.0,Guanajuato,21.019,-101.2574,Bajio_Agricola,hourly
2025-11-15 05:00:00+00:00,15.8265,29.252249,-2.0735002,0.0,19.914215,10.498894,1016.7,100.0,,,,0.0,Guanajuato,21.019,-101.2574,Bajio_Agricola,hourly
2025-11-15 06:00:00+00:00,14.5265,25.319765,-5.1235,0.0,12.9625,9.8405485,1017.2,92.0,,,,0.0,Guanajuato,21.019,-101.2574,Bajio_Agricola,hourly
2025-11-15 07:00:00+00:00,13.2765,23.845448,-6.9735,0.0,7.5213294,9.192716,1017.1,88.0,,,,0.0,Guanajuato,21.019,-101.2574,Bajio_Agricola,hourly
2025-11-15 08:00:00+00:00,12.2265005,24.9593,-7.2735,0.0,5.7204895,8.376541,1017.0,83.0,,,,0.0,Guanajuato,21.019,-101.2574,Bajio_Agricola,hourly
2025-11-15 09:00:00+00:00,11.2765,27.509827,-6.8234997,0.0,1.8532133,8.034003,1017.0,77.0,,,,0.0,Guanajuato,21.019,-101.2574,Bajio_Agricola,hourly
2025-11-15 10:00:00+00:00,11.5265,27.266958,-6.7235,0.0,1.3708391,8.364189,1017.5,80.0,,,,0.0,Guanajuato,21.019,-101.2574,Bajio_Agricola,hourly
2025-11-15 11:00:00+00:00,11.7265005,27.852345,-6.2735,0.0,1.7076298,8.5602045,1017.6,50.0,,,,0.0,Guanajuato,21.019,-101.2574,Bajio_Agricola,hourly
2025-11-15 12:00:00+00:00,10.5765,27.306768,-7.5235,0.0,1.659518,7.295208,1018.0,8.0,,,,0.0,Guanajuato,21.019,-101.2574,Bajio_Agricola,hourly
2025-11-15 13:00:00+00:00,10.1265,30.974964,-6.2735,0.0,0.6489992,7.1145964,1019.0,0.0,,,,1.0,Guanajuato,21.019,-101.2574,Bajio_Agricola,hourly
2025-11-15 14:00:00+00:00,13.7265005,25.674139,-5.6235,0.0,1.8089776,10.613033,1019.7,0.0,,,,1.0,Guanajuato,21.019,-101.2574,Bajio_Agricola,hourly
2025-11-15 15:00:00+00:00,15.9765005,22.550383,-5.4235,0.0,4.1125174,12.54838,1020.3,0.0,,,,1.0,Guanajuato,21.019,-101.2574,Bajio_Agricola,hourly
2025-11-15 16:00:00+00:00,18.276499,21.184336,-4.3234997,0.0,6.269067,14.656776,1019.7,0.0,,,,1.0,Guanajuato,21.019,-101.2574,Bajio_Agricola,hourly
2025-11-15 17:00:00+00:00,20.526499,20.297874,-3.0235002,0.0,8.574123,17.666306,1018.5,0.0,,,,1.0,Guanajuato,21.019,-101.2574,Bajio_Agricola,hourly
2025-11-15 18:00:00+00:00,22.3765,20.774857,-1.1735,0.0,11.032987,19.98756,1016.8,0.0,,,,1.0,Guanajuato,21.019,-101.2574,Bajio_Agricola,hourly
2025-11-15 19:00:00+00:00,23.9765,19.490463,-0.7235,0.0,11.183201,21.836674,1014.6,0.0,,,,1.0,Guanajuato,21.019,-101.2574,Bajio_Agricola,hourly
2025-11-15 20:00:00+00:00,24.9765,18.763775,-0.4235,0.0,11.952054,22.528101,1012.9,0.0,,,,1.0,Guanajuato,21.019,-101.2574,Bajio_Agricola,hourly
2025-11-15 21:00:00+00:00,25.3265,18.713747,-0.1735,0.0,11.870451,22.306747,1011.6,0.0,,,,1.0,Guanajuato,21.019,-101.2574,Bajio_Agricola,hourly
2025-11-15 22:00:00+00:00,25.176498,18.950218,-0.123500004,0.0,11.844492,21.303938,1010.9,0.0,,,,1.0,Guanajuato,21.019,-101.2574,Bajio_Agricola,hourly
2025-11-15 23:00:00+00:00,24.3765,19.733757,-0.22350001,0.0,11.384199,20.556063,1011.1,0.0,,,,1.0,Guanajuato,21.019,-101.2574,Bajio_Agricola,hourly
2025-11-16 00:00:00+00:00,21.9765,22.980726,-0.123500004,0.0,4.5891175,19.162865,1011.8,0.0,,,,1.0,Guanajuato,21.019,-101.2574,Bajio_Agricola,hourly
2025-11-16 01:00:00+00:00,20.5765,22.524517,-1.5735,0.0,5.5916004,17.405388,1012.1,0.0,,,,0.0,Guanajuato,21.019,-101.2574,Bajio_Agricola,hourly
2025-11-16 02:00:00+00:00,19.6265,23.625988,-1.7235,0.0,5.6060677,16.432674,1012.9,0.0,,,,0.0,Guanajuato,21.019,-101.2574,Bajio_Agricola,hourly
2025-11-16 03:00:00+00:00,17.8265,27.934765,-0.9735,0.0,2.5959969,15.177881,1014.0,0.0,,,,0.0,Guanajuato,21.019,-101.2574,Bajio_Agricola,hourly
2025-11-16 04:00:00+00:00,16.676498,32.076714,-0.07350001,0.0,4.7110505,13.853735,1014.3,0.0,,,,0.0,Guanajuato,21.019,-101.2574,Bajio_Agricola,hourly
2025-11-16 05:00:00+00:00,15.2765,36.23813,0.3765,0.0,3.745557,12.664761,1014.6,0.0,,,,0.0,Guanajuato,21.019,-101.2574,Bajio_Agricola,hourly
2025-11-16 06:00:00+00:00,16.1265,32.033295,-0.5735,0.0,2.5455842,13.544117,1015.3,0.0,,,,0.0,Guanajuato,21.019,-101.2574,Bajio_Agricola,hourly
2025-11-16 07:00:00+00:00,16.526499,31.22769,-0.5735,0.0,0.9,14.184048,1015.7,0.0,,,,0.0,Guanajuato,21.019,-101.2574,Bajio_Agricola,hourly
2025-11-16 08:00:00+00:00,15.926499,32.563206,-0.5235,0.0,0.40249225,13.664116,1016.0,0.0,,,,0.0,Guanajuato,21.019,-101.2574,Bajio_Agricola,hourly
2025-11-16 09:00:00+00:00,14.5765,35.771236,-0.4235,0.0,1.4058449,12.182884,1015.9,0.0,,,,0.0,Guanajuato,21.019,-101.2574,Bajio_Agricola,hourly
2025-11-16 10:00:00+00:00,13.7765,38.78376,-0.023500003,0.0,2.8460498,11.233707,1015.8,0.0,,,,0.0,Guanajuato,21.019,-101.2574,Bajio_Agricola,hourly
2025-11-16 11:00:00+00:00,12.9265,40.844112,-0.07350001,0.0,3.9518096,10.214822,1015.9,0.0,,,,0.0,Guanajuato,21.019,-101.2574,Bajio_Agricola,hourly
2025-11-16 12:00:00+00:00,12.6765,42.893333,0.3765,0.0,3.244996,10.13797,1017.2,0.0,,,,0.0,Guanajuato,21.019,-101.2574,Bajio_Agricola,hourly
2025-11-16 13:00:00+00:00,11.8765,46.03223,0.6265,0.0,3.745557,9.304808,1017.9,0.0,,,,1.0,Guanajuato,21.019,-101.2574,Bajio_Agricola,hourly
2025-11-16 14:00:00+00:00,15.0765,40.73825,1.8265,0.0,2.3469129,12.908674,1018.4,0.0,,,,1.0,Guanajuato,21.019,-101.2574,Bajio_Agricola,hourly
2025-11-16 15:00:00+00:00,17.276499,34.904465,1.6265,0.0,2.1749482,15.099016,1018.6,0.0,,,,1.0,Guanajuato,21.019,-101.2574,Bajio_Agricola,hourly
2025-11-16 16:00:00+00:00,19.7265,30.47964,1.8765,0.0,6.8919086,16.903732,1018.2,0.0,,,,1.0,Guanajuato,21.019,-101.2574,Bajio_Agricola,hourly
2025-11-16 17:00:00+00:00,21.526499,28.069017,2.2765,0.0,10.062305,19.179323,1016.7,0.0,,,,1.0,Guanajuato,21.019,-101.2574,Bajio_Agricola,hourly
2025-11-16 18:00:00+00:00,23.3765,26.92692,3.2765,0.0,11.7,21.563389,1015.1,0.0,,,,1.0,Guanajuato,21.019,-101.2574,Bajio_Agricola,hourly
2025-11-16 19:00:00+00:00,24.8765,24.783155,3.3765,0.0,12.399113,23.15219,1012.9,0.0,,,,1.0,Guanajuato,21.019,-101.2574,Bajio_Agricola,hourly
2025-11-16 20:00:00+00:00,25.676498,23.053986,3.0265,0.0,12.870944,23.583618,1011.3,2.0,,,,1.0,Guanajuato,21.019,-101.2574,Bajio_Agricola,hourly
2025-11-16 21:00:00+00:00,25.8265,22.60852,2.8765,0.0,12.4811535,22.904902,1010.2,2.0,,,,1.0,Guanajuato,21.019,-101.2574,Bajio_Agricola,hourly
2025-11-16 22:00:00+00:00,25.676498,22.25115,2.5265,0.0,13.141232,22.05582,1009.8,13.0,,,,1.0,Guanajuato,21.019,-101.2574,Bajio_Agricola,hourly
2025-11-16 23:00:00+00:00,24.926498,22.134638,1.8265,0.0,10.172787,21.615139,1010.0,42.0,,,,1.0,Guanajuato,21.019,-101.2574,Bajio_Agricola,hourly
2025-11-17 00:00:00+00:00,22.926498,24.431957,1.5265,0.0,2.36753,20.702599,1010.4,34.0,,,,1.0,Guanajuato,21.019,-101.2574,Bajio_Agricola,hourly
2025-11-17 01:00:00+00:00,21.3765,24.540443,0.2765,0.0,3.8773184,18.728746,1011.2,35.0,,,,0.0,Guanajuato,21.019,-101.2574,Bajio_Agricola,hourly
2025-11-17 02:00:00+00:00,20.676498,24.88672,-0.123500004,0.0,0.40249225,18.473707,1012.1,49.0,,,,0.0,Guanajuato,21.019,-101.2574,Bajio_Agricola,hourly
2025-11-17 03:00:00+00:00,18.776499,29.13809,0.42650002,0.0,4.913044,16.00189,1012.9,44.0,,,,0.0,Guanajuato,21.019,-101.2574,Bajio_Agricola,hourly
2025-11-17 04:00:00+00:00,17.776499,33.820568,1.6265,0.0,5.7431,15.078575,1013.6,17.0,,,,0.0,Guanajuato,21.019,-101.2574,Bajio_Agricola,hourly
2025-11-17 05:00:00+00:00,16.3765,38.43514,2.1764998,0.0,4.978554,13.886011,1013.9,1.0,,,,0.0,Guanajuato,21.019,-101.2574,Bajio_Agricola,hourly
2025-11-17 06:00:00+00:00,15.6765,39.200134,1.8265,0.0,4.198285,13.238609,1014.7,5.0,,,,0.0,Guanajuato,21.019,-101.2574,Bajio_Agricola,hourly
2025-11-17 07:00:00+00:00,16.1265,36.749992,1.3265,0.0,1.0495713,14.062492,1014.9,0.0,,,,0.0,Guanajuato,21.019,-101.2574,Bajio_Agricola,hourly
2025-11-17 08:00:00+00:00,15.5765,38.201496,1.3765,0.0,0.5091169,13.599787,1015.1,0.0,,,,0.0,Guanajuato,21.019,-101.2574,Bajio_Agricola,hourly
2025-11-17 09:00:00+00:00,14.5265,40.87005,1.3765,0.0,1.9134263,12.345108,1014.6,0.0,,,,0.0,Guanajuato,21.019,-101.2574,Bajio_Agricola,hourly
2025-11-17 10:00:00+00:00,13.7765,43.52325,1.5765,0.0,2.7475805,11.507413,1014.9,0.0,,,,0.0,Guanajuato,21.019,-101.2574,Bajio_Agricola,hourly
2025-11-17 11:00:00+00:00,13.2765,45.610504,1.7765,0.0,2.3051248,11.106292,1015.2,0.0,,,,0.0,Guanajuato,21.019,-101.2574,Bajio_Agricola,hourly
2025-11-17 12:00:00+00:00,12.5765,48.954067,2.1265,0.0,3.8141315,10.247382,1016.6,0.0,,,,0.0,Guanajuato,21.019,-101.2574,Bajio_Agricola,hourly
2025-11-17 13:00:00+00:00,12.1265,50.96399,2.2765,0.0,3.096837,9.928617,1017.4,0.0,,,,1.0,Guanajuato,21.019,-101.2574,Bajio_Agricola,hourly
2025-11-17 14:00:00+00:00,14.9765005,44.337605,2.9264998,0.0,2.4482648,12.991196,1018.1,0.0,,,,1.0,Guanajuato,21.019,-101.2574,Bajio_Agricola,hourly
2025-11-17 15:00:00+00:00,16.9765,40.855232,3.5765,0.0,0.9,15.339813,1018.6,0.0,,,,1.0,Guanajuato,21.019,-101.2574,Bajio_Agricola,hourly
2025-11-17 16:00:00+00:00,19.176498,37.636646,4.3765,0.0,5.4744864,17.030756,1018.3,0.0,,,,1.0,Guanajuato,21.019,-101.2574,Bajio_Agricola,hourly
2025-11-17 17:00:00+00:00,21.0765,34.29217,4.7265,0.0,8.400428,19.421326,1017.2,2.0,,,,1.0,Guanajuato,21.019,-101.2574,Bajio_Agricola,hourly
2025-11-17 18:00:00+00:00,22.5765,30.641897,4.4265003,0.0,9.5416975,21.271547,1015.6,38.0,,,,1.0,Guanajuato,21.019,-101.2574,Bajio_Agricola,hourly
2025-11-17 19:00:00+00:00,24.1265,25.738562,3.2765,0.0,9.1958685,22.924246,1014.0,73.0,,,,1.0,Guanajuato,21.019,-101.2574,Bajio_Agricola,hourly
2025-11-17 20:00:00+00:00,24.776499,23.475637,2.5265,0.0,8.14587,23.356798,1012.5,87.0,,,,1.0,Guanajuato,21.019,-101.2574,Bajio_Agricola,hourly
2025-11-17 21:00:00+00:00,24.776499,24.15112,2.9264998,0.0,6.7757506,22.78338,1011.6,86.0,,,,1.0,Guanajuato,21.019,-101.2574,Bajio_Agricola,hourly
2025-11-17 22:00:00+00:00,24.6265,24.454971,2.9764998,0.0,6.114703,22.113445,1011.0,70.0,,,,1.0,Guanajuato,21.019,-101.2574,Bajio_Agricola,hourly
2025-11-17 23:00:00+00:00,24.0765,23.96373,2.2264998,0.0,8.0599,21.143656,1011.2,28.0,,,,1.0,Guanajuato,21.019,-101.2574,Bajio_Agricola,hourly
2025-11-18 00:00:00+00:00,21.676498,27.911818,2.3265,0.0,5.991594,19.063812,1012.3,23.0,,,,1.0,Guanajuato,21.019,-101.2574,Bajio_Agricola,hourly
2025-11-18 01:00:00+00:00,19.776499,32.625015,2.8765,0.0,6.439876,17.198929,1013.0,6.0,,,,0.0,Guanajuato,21.019,-101.2574,Bajio_Agricola,hourly
2025-11-18 02:00:00+00:00,19.676498,34.370647,3.5265,0.0,1.3708391,17.960907,1013.7,7.0,,,,0.0,Guanajuato,21.019,-101.2574,Bajio_Agricola,hourly
2025-11-18 03:00:00+00:00,17.776499,37.894955,3.2264998,0.0,5.1575575,15.451845,1015.3,2.0,,,,0.0,Guanajuato,21.019,-101.2574,Bajio_Agricola,hourly
2025-11-18 04:00:00+00:00,16.8265,42.125267,3.8765,0.0,6.424764,14.442682,1016.2,1.0,,,,0.0,Guanajuato,21.019,-101.2574,Bajio_Agricola,hourly
2025-11-18 05:00:00+00:00,16.4765,44.922215,4.4765,0.0,7.5685663,14.046341,1016.5,0.0,,,,0.0,Guanajuato,21.019,-101.2574,Bajio_Agricola,hourly
2025-11-18 06:00:00+00:00,15.7265005,49.13753,5.0765,0.0,4.2366967,13.907322,1016.7,0.0,,,,0.0,Guanajuato,21.019,-101.2574,Bajio_Agricola,hourly
2025-11-18 07:00:00+00:00,15.1765,50.37219,4.9265003,0.0,1.2727921,13.757971,1016.7,0.0,,,,0.0,Guanajuato,21.019,-101.2574,Bajio_Agricola,hourly
2025-11-18 08:00:00+00:00,14.3265,52.655544,4.7765,0.0,1.2979984,12.873026,1017.0,0.0,,,,0.0,Guanajuato,21.019,-101.2574,Bajio_Agricola,hourly
2025-11-18 09:00:00+00:00,14.0265,53.12918,4.6265,0.0,2.19718,12.410835,1016.9,0.0,,,,0.0,Guanajuato,21.019,-101.2574,Bajio_Agricola,hourly
2025-11-18 10:00:00+00:00,13.6265,53.958412,4.4765,0.0,2.3400002,11.95924,1017.0,0.0,,,,0.0,Guanajuato,21.019,-101.2574,Bajio_Agricola,hourly
2025-11-18 11:00:00+00:00,12.9765005,55.901493,4.3765,0.0,3.143565,11.171728,1017.2,0.0,,,,0.0,Guanajuato,21.019,-101.2574,Bajio_Agricola,hourly
2025-11-18 12:00:00+00:00,13.1265,55.940235,4.5265,0.0,2.4216523,11.457616,1018.3,0.0,,,,0.0,Guanajuato,21.019,-101.2574,Bajio_Agricola,hourly
2025-11-18 13:00:00+00:00,12.5765,57.585552,4.4265003,0.0,3.096837,10.788747,1019.0,0.0,,,,1.0,Guanajuato,21.019,-101.2574,Bajio_Agricola,hourly
2025-11-18 14:00:00+00:00,15.6765,47.939735,4.6765003,0.0,2.5959969,14.012783,1019.5,0.0,,,,1.0,Guanajuato,21.019,-101.2574,Bajio_Agricola,hourly
2025-11-18 15:00:00+00:00,18.026499,41.446182,4.7265,0.0,2.0991426,16.44514,1019.7,0.0,,,,1.0,Guanajuato,21.019,-101.2574,Bajio_Agricola,hourly
2025-11-18 16:00:00+00:00,20.1265,37.257458,5.0765,0.0,5.8409934,18.072338,1019.3,0.0,,,,1.0,Guanajuato,21.019,-101.2574,Bajio_Agricola,hourly
2025-11-18 17:00:00+00:00,22.0765,33.633003,5.3265,0.0,8.099999,20.548256,1018.4,0.0,,,,1.0,Guanajuato,21.019,-101.2574,Bajio_Agricola,hourly
2025-11-18 18:00:00+00:00,23.526499,31.12556,5.4765,0.0,8.92408,22.535837,1017.0,0.0,,,,1.0,Guanajuato,21.019,-101.2574,Bajio_Agricola,hourly
2025-11-18 19:00:00+00:00,24.776499,26.839972,4.4265003,0.0,8.587338,23.71113,1015.5,5.0,,,,1.0,Guanajuato,21.019,-101.2574,Bajio_Agricola,hourly
2025-11-18 20:00:00+00:00,25.276499,23.52503,2.9764998,0.0,10.304114,23.24144,1014.2,2.0,,,,1.0,Guanajuato,21.019,-101.2574,Bajio_Agricola,hourly
2025-11-18 21:00:00+00:00,25.426498,20.804396,1.3765,0.0,9.741642,22.811003,1013.4,7.0,,,,1.0,Guanajuato,21.019,-101.2574,Bajio_Agricola,hourly
2025-11-18 22:00:00+00:00,25.2265,19.239552,0.1265,0.0,7.256032,22.06158,1012.7,5.0,,,,1.0,Guanajuato,21.019,-101.2574,Bajio_Agricola,hourly
2025-11-18 23:00:00+00:00,24.3765,20.910717,0.5765,0.0,7.056826,21.311775,1013.0,13.0,,,,1.0,Guanajuato,21.019,-101.2574,Bajio_Agricola,hourly
2025-11-19 00:00:00+00:00,21.6265,28.197102,2.4264998,0.0,5.315336,19.130371,1013.8,41.0,,,,1.0,Guanajuato,21.019,-101.2574,Bajio_Agricola,hourly
2025-11-19 01:00:00+00:00,19.8765,34.186913,3.6265,0.1,2.8460498,17.965048,1014.9,77.0,,,,0.0,Guanajuato,21.019,-101.2574,Bajio_Agricola,hourly
2025-11-19 02:00:00+00:00,18.276499,39.8149,4.3765,0.0,1.6981165,16.681694,1016.7,42.0,,,,0.0,Guanajuato,21.019,-101.2574,Bajio_Agricola,hourly
2025-11-19 03:00:00+00:00,18.026499,43.81774,5.5265,0.0,5.7515564,16.082716,1017.6,2.0,,,,0.0,Guanajuato,21.019,-101.2574,Bajio_Agricola,hourly
2025-11-19 04:00:00+00:00,16.9765,43.21542,4.3765,0.0,6.0721655,14.744091,1017.6,5.0,,,,0.0,Guanajuato,21.019,-101.2574,Bajio_Agricola,hourly
2025-11-19 05:00:00+00:00,15.926499,47.015156,4.6265,0.0,6.76618,13.644257,1018.0,62.0,,,,0.0,Guanajuato,21.019,-101.2574,Bajio_Agricola,hourly
2025-11-19 06:00:00+00:00,14.9765005,58.990005,7.0265,0.0,5.904439,13.353584,1018.2,72.0,,,,0.0,Guanajuato,21.019,-101.2574,Bajio_Agricola,hourly
2025-11-19 07:00:00+00:00,15.1765,56.465412,6.5765,0.0,3.9518096,13.732239,1018.6,42.0,,,,0.0,Guanajuato,21.019,-101.2574,Bajio_Agricola,hourly
2025-11-19 08:00:00+00:00,15.6765,54.496136,6.5265,0.0,2.4482646,14.439812,1018.6,3.0,,,,0.0,Guanajuato,21.019,-101.2574,Bajio_Agricola,hourly
2025-11-19 09:00:00+00:00,15.5265,54.833176,6.4765,0.0,1.4512063,14.42367,1018.0,18.0,,,,0.0,Guanajuato,21.019,-101.2574,Bajio_Agricola,hourly
2025-11-19 10:00:00+00:00,14.8765,56.001644,6.1765003,0.0,1.9469976,13.632774,1018.0,41.0,,,,0.0,Guanajuato,21.019,-101.2574,Bajio_Agricola,hourly
2025-11-19 11:00:00+00:00,14.1265,56.784523,5.6765003,0.0,3.0652893,12.608044,1018.2,42.0,,,,0.0,Guanajuato,21.019,-101.2574,Bajio_Agricola,hourly
2025-11-19 12:00:00+00:00,13.9265,54.41566,4.8765,0.0,2.50064,12.318577,1018.7,35.0,,,,0.0,Guanajuato,21.019,-101.2574,Bajio_Agricola,hourly
2025-11-19 13:00:00+00:00,13.5765,53.56903,4.3265,0.0,0.76367533,12.108601,1019.6,36.0,,,,1.0,Guanajuato,21.019,-101.2574,Bajio_Agricola,hourly
2025-11-19 14:00:00+00:00,15.926499,46.851246,4.5765,0.0,2.657668,14.233114,1020.2,48.0,,,,1.0,Guanajuato,21.019,-101.2574,Bajio_Agricola,hourly
2025-11-19 15:00:00+00:00,18.8765,38.213547,4.3265,0.0,4.991553,16.79112,1020.1,32.0,,,,1.0,Guanajuato,21.019,-101.2574,Bajio_Agricola,hourly
2025-11-19 16:00:00+00:00,21.0765,32.76765,4.0765,0.0,8.2584505,18.463871,1019.9,37.0,,,,1.0,Guanajuato,21.019,-101.2574,Bajio_Agricola,hourly
2025-11-19 17:00:00+00:00,23.026499,27.599747,3.3265,0.0,10.560341,20.69462,1018.8,91.0,,,,1.0,Guanajuato,21.019,-101.2574,Bajio_Agricola,hourly
2025-11-19 18:00:00+00:00,24.776499,21.089108,1.0265,0.0,12.13499,22.390623,1017.2,77.0,,,,1.0,Guanajuato,21.019,-101.2574,Bajio_Agricola,hourly
2025-11-19 19:00:00+00:00,25.526499,20.755423,1.4265,0.0,12.348051,23.388325,1015.9,93.0,,,,1.0,Guanajuato,21.019,-101.2574,Bajio_Agricola,hourly
2025-11-19 20:00:00+00:00,25.9765,20.944824,1.9265,0.0,9.840914,24.130514,1014.2,93.0,,,,1.0,Guanajuato,21.019,-101.2574,Bajio_Agricola,hourly
2025-11-19 21:00:00+00:00,26.2265,19.210028,0.92649996,0.0,7.327127,23.967823,1013.1,85.0,,,,1.0,Guanajuato,21.019,-101.2574,Bajio_Agricola,hourly
2025-11-19 22:00:00+00:00,26.176498,17.729513,-0.22350001,0.0,5.4744864,23.217367,1012.5,22.0,,,,1.0,Guanajuato,21.019,-101.2574,Bajio_Agricola,hourly
2025-11-19 23:00:00+00:00,25.526499,17.83184,-0.6735,0.0,6.320538,22.376852,1012.5,66.0,,,,1.0,Guanajuato,21.019,-101.2574,Bajio_Agricola,hourly
2025-11-20 00:00:00+00:00,22.676498,23.251095,0.6265,0.0,2.4149535,20.297195,1013.3,48.0,,,,1.0,Guanajuato,21.019,-101.2574,Bajio_Agricola,hourly
2025-11-20 01:00:00+00:00,20.676498,27.140238,1.0765,0.0,8.281956,17.515312,1014.7,23.0,,,,0.0,Guanajuato,21.019,-101.2574,Bajio_Agricola,hourly
2025-11-20 02:00:00+00:00,17.926498,49.73981,7.2765,0.0,12.601285,15.3864975,1016.5,21.0,,,,0.0,Guanajuato,21.019,-101.2574,Bajio_Agricola,hourly
2025-11-20 03:00:00+00:00,16.526499,59.56894,8.6265,0.0,14.396625,14.066137,1017.2,91.0,,,,0.0,Guanajuato,21.019,-101.2574,Bajio_Agricola,hourly
2025-11-20 04:00:00+00:00,15.4265,66.54318,9.2265005,0.0,12.961249,13.336395,1017.6,52.0,,,,0.0,Guanajuato,21.019,-101.2574,Bajio_Agricola,hourly
2025-11-20 05:00:00+00:00,14.7765,67.30876,8.7765,0.0,8.099999,13.274403,1017.7,5.0,,,,0.0,Guanajuato,21.019,-101.2574,Bajio_Agricola,hourly
2025-11-12 06:00:00+00:00,25.651,46.846184,13.451,0.0,6.384293,25.82154,1015.2,0.0,,,,0.0,Sinaloa,24.8069,-107.394,Pacifico_Intensivo,hourly
2025-11-12 07:00:00+00:00,24.751,49.263973,13.401,0.0,2.7059932,25.441233,1015.3,0.0,,,,0.0,Sinaloa,24.8069,-107.394,Pacifico_Intensivo,hourly
2025-11-12 08:00:00+00:00,24.051,50.873356,13.250999,0.0,3.3092597,24.601849,1015.2,0.0,,,,0.0,Sinaloa,24.8069,-107.394,Pacifico_Intensivo,hourly
2025-11-12 09:00:00+00:00,23.101,55.292217,13.651,0.0,6.623413,23.308601,1014.8,0.0,,,,0.0,Sinaloa,24.8069,-107.394,Pacifico_Intensivo,hourly
2025-11-12 10:00:00+00:00,22.551,59.051205,14.151,0.0,8.641874,22.643448,1014.7,0.0,,,,0.0,Sinaloa,24.8069,-107.394,Pacifico_Intensivo,hourly
2025-11-12 11:00:00+00:00,22.101,61.4805,14.351,0.0,8.707237,22.25719,1014.6,0.0,,,,0.0,Sinaloa,24.8069,-107.394,Pacifico_Intensivo,hourly
2025-11-12 12:00:00+00:00,22.251,60.921444,14.351,0.0,2.4014995,23.326681,1014.5,0.0,,,,0.0,Sinaloa,24.8069,-107.394,Pacifico_Intensivo,hourly
2025-11-12 13:00:00+00:00,21.601,64.003456,14.500999,0.0,2.0124612,22.789118,1015.2,0.0,,,,0.0,Sinaloa,24.8069,-107.394,Pacifico_Intensivo,hourly
2025-11-12 14:00:00+00:00,21.801,63.225872,14.500999,0.0,4.8965297,22.568398,1015.8,0.0,,,,1.0,Sinaloa,24.8069,-107.394,Pacifico_Intensivo,hourly
2025-11-12 15:00:00+00:00,24.701,50.058754,13.601,0.0,4.599695,25.185003,1016.3,0.0,,,,1.0,Sinaloa,24.8069,-107.394,Pacifico_Intensivo,hourly
2025-11-12 16:00:00+00:00,28.551,35.580788,11.851,0.0,3.536439,28.602077,1016.5,0.0,,,,1.0,Sinaloa,24.8069,-107.394,Pacifico_Intensivo,hourly
2025-11-12 17:00:00+00:00,31.301,29.585695,11.451,0.0,4.2136917,31.170532,1016.1,0.0,,,,1.0,Sinaloa,24.8069,-107.394,Pacifico_Intensivo,hourly
2025-11-12 18:00:00+00:00,33.351,26.96657,11.801,0.0,5.414979,33.944695,1015.7,0.0,,,,1.0,Sinaloa,24.8069,-107.394,Pacifico_Intensivo,hourly
2025-11-12 19:00:00+00:00,35.501003,21.877354,10.451,0.0,7.555712,35.706524,1014.4,0.0,,,,1.0,Sinaloa,24.8069,-107.394,Pacifico_Intensivo,hourly
2025-11-12 20:00:00+00:00,36.751003,18.099703,8.651,0.0,11.090103,35.83669,1013.2,0.0,,,,1.0,Sinaloa,24.8069,-107.394,Pacifico_Intensivo,hourly
2025-11-12 21:00:00+00:00,37.101,17.107138,8.101,0.0,13.210087,35.28641,1012.2,0.0,,,,1.0,Sinaloa,24.8069,-107.394,Pacifico_Intensivo,hourly
2025-11-12 22:00:00+00:00,36.701,17.604406,8.201,0.0,14.182355,34.150154,1011.6,0.0,,,,1.0,Sinaloa,24.8069,-107.394,Pacifico_Intensivo,hourly
2025-11-12 23:00:00+00:00,35.801003,19.263128,8.801,0.0,14.01806,33.431065,1011.5,0.0,,,,1.0,Sinaloa,24.8069,-107.394,Pacifico_Intensivo,hourly
2025-11-13 00:00:00+00:00,34.051003,22.475567,9.651,0.0,13.926464,31.927017,1011.7,0.0,,,,1.0,Sinaloa,24.8069,-107.394,Pacifico_Intensivo,hourly
2025-11-13 01:00:00+00:00,31.551,28.311262,11.000999,0.0,14.2336645,29.77629,1012.2,0.0,,,,0.0,Sinaloa,24.8069,-107.394,Pacifico_Intensivo,hourly
2025-11-13 02:00:00+00:00,29.451,34.789993,12.301,0.0,12.257194,28.374344,1012.8,0.0,,,,0.0,Sinaloa,24.8069,-107.394,Pacifico_Intensivo,hourly
2025-11-13 03:00:00+00:00,28.151,40.973083,13.651,0.0,10.484903,27.791557,1013.4,0.0,,,,0.0,Sinaloa,24.8069,-107.394,Pacifico_Intensivo,hourly
2025-11-13 04:00:00+00:00,27.451,44.090057,14.151,0.0,10.134495,27.321991,1013.9,0.0,,,,0.0,Sinaloa,24.8069,-107.394,Pacifico_Intensivo,hourly
2025-11-13 05:00:00+00:00,27.101,45.14996,14.201,0.0,8.936778,27.16512,1014.1,0.0,,,,0.0,Sinaloa,24.8069,-107.394,Pacifico_Intensivo,hourly
2025-11-13 06:00:00+00:00,26.001,49.75571,14.701,0.0,9.278297,26.200699,1014.4,0.0,,,,0.0,Sinaloa,24.8069,-107.394,Pacifico_Intensivo,hourly
2025-11-13 07:00:00+00:00,25.101,54.029594,15.151,0.0,7.538541,25.725723,1014.4,0.0,,,,0.0,Sinaloa,24.8069,-107.394,Pacifico_Intensivo,hourly
2025-11-13 08:00:00+00:00,24.201,57.56788,15.301,0.0,6.122647,25.090769,1014.4,0.0,,,,0.0,Sinaloa,24.8069,-107.394,Pacifico_Intensivo,hourly
2025-11-13 09:00:00+00:00,22.901,61.071297,15.000999,0.0,6.792466,23.578878,1013.9,0.0,,,,0.0,Sinaloa,24.8069,-107.394,Pacifico_Intensivo,hourly
2025-11-13 10:00:00+00:00,22.101,62.079327,14.500999,0.0,7.029225,22.557186,1013.7,0.0,,,,0.0,Sinaloa,24.8069,-107.394,Pacifico_Intensivo,hourly
2025-11-13 11:00:00+00:00,21.751,61.599564,14.051,0.0,7.0843205,22.03492,1013.7,0.0,,,,0.0,Sinaloa,24.8069,-107.394,Pacifico_Intensivo,hourly
2025-11-13 12:00:00+00:00,21.751,62.60475,14.301,0.0,2.8856194,22.738073,1013.7,0.0,,,,0.0,Sinaloa,24.8069,-107.394,Pacifico_Intensivo,hourly
2025-11-13 13:00:00+00:00,21.101,64.51787,14.151,0.0,4.846648,21.747826,1014.1,0.0,,,,0.0,Sinaloa,24.8069,-107.394,Pacifico_Intensivo,hourly
2025-11-13 14:00:00+00:00,21.551,61.354282,13.801,0.0,6.341009,21.853884,1014.8,0.0,,,,1.0,Sinaloa,24.8069,-107.394,Pacifico_Intensivo,hourly
2025-11-13 15:00:00+00:00,24.451,49.992626,13.351,0.0,4.5820518,24.850506,1015.2,0.0,,,,1.0,Sinaloa,24.8069,-107.394,Pacifico_Intensivo,hourly
2025-11-13 16:00:00+00:00,28.601,34.78199,11.551,0.0,3.096837,28.6217,1015.4,0.0,,,,1.0,Sinaloa,24.8069,-107.394,Pacifico_Intensivo,hourly
2025-11-13 17:00:00+00:00,31.751,26.896244,10.401,0.0,2.5264204,31.53859,1015.2,15.0,,,,1.0,Sinaloa,24.8069,-107.394,Pacifico_Intensivo,hourly
2025-11-13 18:00:00+00:00,33.751003,24.926928,10.951,0.0,5.4656014,34.04236,1014.3,2.0,,,,1.0,Sinaloa,24.8069,-107.394,Pacifico_Intensivo,hourly
2025-11-13 19:00:00+00:00,35.401,21.275972,9.951,0.0,9.734988,35.100513,1013.3,2.0,,,,1.0,Sinaloa,24.8069,-107.394,Pacifico_Intensivo,hourly
2025-11-13 20:00:00+00:00,36.351,17.703255,8.001,0.0,12.431734,35.04463,1012.0,0.0,,,,1.0,Sinaloa,24.8069,-107.394,Pacifico_Intensivo,hourly
2025-11-13 21:00:00+00:00,36.751003,14.945812,5.851,0.0,13.934604,34.278248,1011.2,0.0,,,,1.0,Sinaloa,24.8069,-107.394,Pacifico_Intensivo,hourly
2025-11-13 22:00:00+00:00,36.301003,14.6949625,5.251,0.0,15.629972,32.848476,1010.8,0.0,,,,1.0,Sinaloa,24.8069,-107.394,Pacifico_Intensivo,hourly
2025-11-13 23:00:00+00:00,34.701,18.42487,7.251,0.0,15.861461,31.670708,1010.8,0.0,,,,1.0,Sinaloa,24.8069,-107.394,Pacifico_Intensivo,hourly
2025-11-14 00:00:00+00:00,32.601,25.54856,10.351,0.0,13.556282,30.731552,1011.1,0.0,,,,1.0,Sinaloa,24.8069,-107.394,Pacifico_Intensivo,hourly
2025-11-14 01:00:00+00:00,30.301,31.74171,11.651,0.0,13.842457,28.784542,1011.6,0.0,,,,0.0,Sinaloa,24.8069,-107.394,Pacifico_Intensivo,hourly
2025-11-14 02:00:00+00:00,28.551,38.748146,13.151,0.0,11.7,27.840347,1012.3,0.0,,,,0.0,Sinaloa,24.8069,-107.394,Pacifico_Intensivo,hourly
2025-11-14 03:00:00+00:00,27.301,44.335358,14.101,0.0,10.897063,27.04281,1012.8,0.0,,,,0.0,Sinaloa,24.8069,-107.394,Pacifico_Intensivo,hourly
2025-11-14 04:00:00+00:00,26.551,47.547848,14.500999,0.0,9.984729,26.572798,1013.0,0.0,,,,0.0,Sinaloa,24.8069,-107.394,Pacifico_Intensivo,hourly
2025-11-14 05:00:00+00:00,26.201,48.22758,14.401,0.0,10.1887,26.156464,1013.0,0.0,,,,0.0,Sinaloa,24.8069,-107.394,Pacifico_Intensivo,hourly
2025-11-14 06:00:00+00:00,25.501,49.945724,14.301,0.0,9.1641035,25.569775,1013.1,0.0,,,,0.0,Sinaloa,24.8069,-107.394,Pacifico_Intensivo,hourly
2025-11-14 07:00:00+00:00,24.351,51.284607,13.651,0.0,5.8631387,24.66861,1012.9,0.0,,,,0.0,Sinaloa,24.8069,-107.394,Pacifico_Intensivo,hourly
2025-11-14 08:00:00+00:00,23.201,54.958965,13.651,0.0,5.637765,23.552273,1012.8,0.0,,,,0.0,Sinaloa,24.8069,-107.394,Pacifico_Intensivo,hourly
2025-11-14 09:00:00+00:00,22.201,60.713173,14.250999,0.0,5.983477,22.717745,1012.8,0.0,,,,0.0,Sinaloa,24.8069,-107.394,Pacifico_Intensivo,hourly
2025-11-14 10:00:00+00:00,21.601,65.464645,14.851,0.0,6.269067,22.299213,1012.8,0.0,,,,0.0,Sinaloa,24.8069,-107.394,Pacifico_Intensivo,hourly
2025-11-14 11:00:00+00:00,21.201,67.95761,15.051,0.0,6.384293,21.958612,1012.6,0.0,,,,0.0,Sinaloa,24.8069,-107.394,Pacifico_Intensivo,hourly
2025-11-14 12:00:00+00:00,20.701,67.638145,14.500999,0.0,2.5264204,21.81471,1012.9,0.0,,,,0.0,Sinaloa,24.8069,-107.394,Pacifico_Intensivo,hourly
2025-11-14 13:00:00+00:00,19.951,72.229034,14.801,0.0,3.7064266,21.005068,1013.2,0.0,,,,0.0,Sinaloa,24.8069,-107.394,Pacifico_Intensivo,hourly
2025-11-14 14:00:00+00:00,20.251,70.900925,14.801,0.0,6.444905,20.905537,1013.5,0.0,,,,1.0,Sinaloa,24.8069,-107.394,Pacifico_Intensivo,hourly
2025-11-14 15:00:00+00:00,23.751,53.51259,13.750999,0.0,4.39436,24.318586,1013.9,1.0,,,,1.0,Sinaloa,24.8069,-107.394,Pacifico_Intensivo,hourly
2025-11-14 16:00:00+00:00,28.351,35.290928,11.551,0.0,2.4014995,28.473293,1014.0,18.0,,,,1.0,Sinaloa,24.8069,-107.394,Pacifico_Intensivo,hourly
2025-11-14 17:00:00+00:00,31.101,26.90169,9.851,0.0,3.2048087,30.612217,1013.7,46.0,,,,1.0,Sinaloa,24.8069,-107.394,Pacifico_Intensivo,hourly
2025-11-14 18:00:00+00:00,32.601,24.298046,9.601,0.0,8.019601,32.05744,1013.4,0.0,,,,1.0,Sinaloa,24.8069,-107.394,Pacifico_Intensivo,hourly
2025-11-14 19:00:00+00:00,34.351,18.21664,6.8009996,0.0,9.914717,33.18326,1012.5,5.0,,,,1.0,Sinaloa,24.8069,-107.394,Pacifico_Intensivo,hourly
2025-11-14 20:00:00+00:00,35.451,14.11184,4.001,0.0,10.644379,33.523067,1011.4,12.0,,,,1.0,Sinaloa,24.8069,-107.394,Pacifico_Intensivo,hourly
2025-11-14 21:00:00+00:00,35.901,12.920287,3.101,0.0,11.431063,33.235558,1010.4,19.0,,,,1.0,Sinaloa,24.8069,-107.394,Pacifico_Intensivo,hourly
2025-11-14 22:00:00+00:00,35.601,12.905311,2.851,0.0,11.45513,32.280865,1010.0,3.0,,,,1.0,Sinaloa,24.8069,-107.394,Pacifico_Intensivo,hourly
2025-11-14 23:00:00+00:00,34.551003,13.824038,3.0010002,0.0,10.920824,31.337124,1010.0,0.0,,,,1.0,Sinaloa,24.8069,-107.394,Pacifico_Intensivo,hourly
2025-11-15 00:00:00+00:00,32.501003,18.029934,5.151,0.0,12.371645,29.504715,1010.4,0.0,,,,1.0,Sinaloa,24.8069,-107.394,Pacifico_Intensivo,hourly
2025-11-15 01:00:00+00:00,29.901,26.579199,8.651,0.0,13.350371,27.593319,1011.4,2.0,,,,0.0,Sinaloa,24.8069,-107.394,Pacifico_Intensivo,hourly
2025-11-15 02:00:00+00:00,27.901,40.770706,13.351,0.0,11.837651,27.239698,1012.1,1.0,,,,0.0,Sinaloa,24.8069,-107.394,Pacifico_Intensivo,hourly
2025-11-15 03:00:00+00:00,26.651,50.571136,15.551,0.0,10.7894945,26.955547,1012.7,2.0,,,,0.0,Sinaloa,24.8069,-107.394,Pacifico_Intensivo,hourly
2025-11-15 04:00:00+00:00,25.751,58.494415,17.001,0.0,9.97986,26.767508,1013.1,2.0,,,,0.0,Sinaloa,24.8069,-107.394,Pacifico_Intensivo,hourly
2025-11-15 05:00:00+00:00,25.351,60.66348,17.201,0.0,9.3340025,26.54772,1013.1,7.0,,,,0.0,Sinaloa,24.8069,-107.394,Pacifico_Intensivo,hourly
2025-11-15 06:00:00+00:00,24.601,59.535534,16.201,0.0,7.8149853,25.601084,1013.0,13.0,,,,0.0,Sinaloa,24.8069,-107.394,Pacifico_Intensivo,hourly
2025-11-15 07:00:00+00:00,23.351,63.163357,15.951,0.0,2.8799999,24.97068,1012.9,0.0,,,,0.0,Sinaloa,24.8069,-107.394,Pacifico_Intensivo,hourly
2025-11-15 08:00:00+00:00,22.451,66.48931,15.901,0.0,4.4274144,23.825642,1012.4,17.0,,,,0.0,Sinaloa,24.8069,-107.394,Pacifico_Intensivo,hourly
2025-11-15 09:00:00+00:00,21.901,68.097946,15.750999,0.0,5.8631387,23.00682,1012.1,0.0,,,,0.0,Sinaloa,24.8069,-107.394,Pacifico_Intensivo,hourly
2025-11-15 10:00:00+00:00,21.651,68.26625,15.551,0.0,5.8852015,22.674767,1012.0,0.0,,,,0.0,Sinaloa,24.8069,-107.394,Pacifico_Intensivo,hourly
2025-11-15 11:00:00+00:00,21.201,68.83662,15.250999,0.0,5.692099,22.136374,1012.0,0.0,,,,0.0,Sinaloa,24.8069,-107.394,Pacifico_Intensivo,hourly
2025-11-15 12:00:00+00:00,20.401,71.84713,15.151,0.0,3.143565,21.670008,1012.7,0.0,,,,0.0,Sinaloa,24.8069,-107.394,Pacifico_Intensivo,hourly
2025-11-15 13:00:00+00:00,19.951,73.874146,15.151,0.0,0.40249225,21.620008,1013.4,0.0,,,,0.0,Sinaloa,24.8069,-107.394,Pacifico_Intensivo,hourly
2025-11-15 14:00:00+00:00,20.251,67.11014,13.951,0.0,1.2727921,21.347326,1013.9,0.0,,,,1.0,Sinaloa,24.8069,-107.394,Pacifico_Intensivo,hourly
2025-11-15 15:00:00+00:00,23.001,55.62774,13.651,0.0,3.4623692,23.669651,1014.2,0.0,,,,1.0,Sinaloa,24.8069,-107.394,Pacifico_Intensivo,hourly
2025-11-15 16:00:00+00:00,26.901,40.09522,12.201,0.0,1.7727944,27.32286,1014.4,0.0,,,,1.0,Sinaloa,24.8069,-107.394,Pacifico_Intensivo,hourly
2025-11-15 17:00:00+00:00,29.651,30.733751,10.601,0.0,1.8089776,29.570312,1014.2,0.0,,,,1.0,Sinaloa,24.8069,-107.394,Pacifico_Intensivo,hourly
2025-11-15 18:00:00+00:00,31.301,25.205053,9.051,0.0,6.1437774,30.937859,1013.6,0.0,,,,1.0,Sinaloa,24.8069,-107.394,Pacifico_Intensivo,hourly
2025-11-15 19:00:00+00:00,33.301003,18.345566,6.0509996,0.0,8.477216,32.199276,1012.5,0.0,,,,1.0,Sinaloa,24.8069,-107.394,Pacifico_Intensivo,hourly
2025-11-15 20:00:00+00:00,34.401,13.841523,2.901,0.0,10.094454,32.364937,1011.4,0.0,,,,1.0,Sinaloa,24.8069,-107.394,Pacifico_Intensivo,hourly
2025-11-15 21:00:00+00:00,35.051003,12.346036,1.8010001,0.0,10.51576,32.329792,1010.4,0.0,,,,1.0,Sinaloa,24.8069,-107.394,Pacifico_Intensivo,hourly
2025-11-15 22:00:00+00:00,34.801003,12.789257,2.101,0.0,12.049249,31.259666,1010.1,0.0,,,,1.0,Sinaloa,24.8069,-107.394,Pacifico_Intensivo,hourly
2025-11-15 23:00:00+00:00,34.101,14.632557,3.451,0.0,11.612441,30.871407,1010.0,0.0,,,,1.0,Sinaloa,24.8069,-107.394,Pacifico_Intensivo,hourly
2025-11-16 00:00:00+00:00,32.151,21.769575,7.601,0.0,13.358861,29.572956,1010.7,0.0,,,,1.0,Sinaloa,24.8069,-107.394,Pacifico_Intensivo,hourly
2025-11-16 01:00:00+00:00,29.001,35.124264,12.051,0.0,13.883356,27.606672,1011.5,0.0,,,,0.0,Sinaloa,24.8069,-107.394,Pacifico_Intensivo,hourly
2025-11-16 02:00:00+00:00,27.601,40.290424,12.901,0.0,11.39842,26.850143,1012.2,0.0,,,,0.0,Sinaloa,24.8069,-107.394,Pacifico_Intensivo,hourly
2025-11-16 03:00:00+00:00,26.351,48.58014,14.651,0.0,10.070353,26.41621,1012.7,0.0,,,,0.0,Sinaloa,24.8069,-107.394,Pacifico_Intensivo,hourly
2025-11-16 04:00:00+00:00,25.551,53.9701,15.551,0.0,8.891343,26.13335,1013.0,1.0,,,,0.0,Sinaloa,24.8069,-107.394,Pacifico_Intensivo,hourly
2025-11-16 05:00:00+00:00,25.201,53.708775,15.151,0.0,7.491114,25.832556,1013.0,6.0,,,,0.0,Sinaloa,24.8069,-107.394,Pacifico_Intensivo,hourly
2025-11-16 06:00:00+00:00,24.201,56.83307,15.101,0.0,3.5455887,25.389585,1013.1,32.0,,,,0.0,Sinaloa,24.8069,-107.394,Pacifico_Intensivo,hourly
2025-11-16 07:00:00+00:00,23.201,59.015102,14.750999,0.0,1.9386592,24.491995,1013.1,2.0,,,,0.0,Sinaloa,24.8069,-107.394,Pacifico_Intensivo,hourly
2025-11-16 08:00:00+00:00,21.951,63.463478,14.701,0.0,2.1674871,23.190739,1012.8,59.0,,,,0.0,Sinaloa,24.8069,-107.394,Pacifico_Intensivo,hourly
2025-11-16 09:00:00+00:00,21.301,68.19643,15.201,0.0,3.381893,22.553928,1012.5,97.0,,,,0.0,Sinaloa,24.8069,-107.394,Pacifico_Intensivo,hourly
2025-11-16 10:00:00+00:00,20.851,70.332664,15.250999,0.0,6.162207,21.718033,1012.1,95.0,,,,0.0,Sinaloa,24.8069,-107.394,Pacifico_Intensivo,hourly
2025-11-16 11:00:00+00:00,20.401,71.84713,15.151,0.0,5.223103,21.366743,1012.3,98.0,,,,0.0,Sinaloa,24.8069,-107.394,Pacifico_Intensivo,hourly
2025-11-16 12:00:00+00:00,20.501,68.9205,14.601,0.0,3.5864744,21.49736,1012.6,99.0,,,,0.0,Sinaloa,24.8069,-107.394,Pacifico_Intensivo,hourly
2025-11-16 13:00:00+00:00,18.751,76.83089,14.601,0.0,1.484318,20.054855,1013.4,100.0,,,,0.0,Sinaloa,24.8069,-107.394,Pacifico_Intensivo,hourly
2025-11-16 14:00:00+00:00,19.301,72.5797,14.250999,0.0,4.452954,20.042618,1014.0,100.0,,,,1.0,Sinaloa,24.8069,-107.394,Pacifico_Intensivo,hourly
2025-11-16 15:00:00+00:00,22.301,54.374416,12.651,0.0,4.9785542,22.406298,1014.4,83.0,,,,1.0,Sinaloa,24.8069,-107.394,Pacifico_Intensivo,hourly
2025-11-16 16:00:00+00:00,26.451,34.99139,9.750999,0.0,2.1674871,26.075468,1014.5,28.0,,,,1.0,Sinaloa,24.8069,-107.394,Pacifico_Intensivo,hourly
2025-11-16 17:00:00+00:00,29.451,27.554995,8.801,0.0,0.9,29.07452,1014.1,66.0,,,,1.0,Sinaloa,24.8069,-107.394,Pacifico_Intensivo,hourly
2025-11-16 18:00:00+00:00,30.851,29.462812,11.000999,0.0,4.952453,31.280659,1013.5,40.0,,,,1.0,Sinaloa,24.8069,-107.394,Pacifico_Intensivo,hourly
2025-11-16 19:00:00+00:00,32.701,24.56989,9.851,0.0,6.489992,32.91499,1012.3,100.0,,,,1.0,Sinaloa,24.8069,-107.394,Pacifico_Intensivo,hourly
2025-11-16 20:00:00+00:00,33.851,19.92074,7.7009997,0.0,7.458606,33.253555,1010.7,100.0,,,,1.0,Sinaloa,24.8069,-107.394,Pacifico_Intensivo,hourly
2025-11-16 21:00:00+00:00,34.451,17.4431,6.251,0.0,8.688613,32.534805,1009.6,99.0,,,,1.0,Sinaloa,24.8069,-107.394,Pacifico_Intensivo,hourly
2025-11-16 22:00:00+00:00,34.851,16.253994,5.5509996,0.0,10.564942,32.202824,1009.1,100.0,,,,1.0,Sinaloa,24.8069,-107.394,Pacifico_Intensivo,hourly
2025-11-16 23:00:00+00:00,34.401,17.252022,6.0509996,0.0,12.10157,31.639633,1009.0,84.0,,,,1.0,Sinaloa,24.8069,-107.394,Pacifico_Intensivo,hourly
2025-11-17 00:00:00+00:00,32.901,22.258837,8.551,0.0,13.845967,30.49268,1009.1,100.0,,,,1.0,Sinaloa,24.8069,-107.394,Pacifico_Intensivo,hourly
2025-11-17 01:00:00+00:00,30.101,36.366394,13.551,0.0,14.455019,29.125671,1009.9,100.0,,,,0.0,Sinaloa,24.8069,-107.394,Pacifico_Intensivo,hourly
2025-11-17 02:00:00+00:00,28.551,46.872086,16.101,0.0,11.334284,28.993473,1010.3,47.0,,,,0.0,Sinaloa,24.8069,-107.394,Pacifico_Intensivo,hourly
2025-11-17 03:00:00+00:00,28.101,46.008522,15.401,0.0,13.032298,28.018463,1010.7,74.0,,,,0.0,Sinaloa,24.8069,-107.394,Pacifico_Intensivo,hourly
2025-11-17 04:00:00+00:00,28.101,33.50956,10.551,0.0,12.738099,26.412891,1011.0,83.0,,,,0.0,Sinaloa,24.8069,-107.394,Pacifico_Intensivo,hourly
2025-11-17 05:00:00+00:00,27.351,34.662357,10.401,0.0,11.599879,25.785442,1011.2,5.0,,,,0.0,Sinaloa,24.8069,-107.394,Pacifico_Intensivo,hourly
2025-11-17 06:00:00+00:00,26.201,40.430054,11.701,0.0,11.345712,25.067549,1011.4,0.0,,,,0.0,Sinaloa,24.8069,-107.394,Pacifico_Intensivo,hourly
2025-11-17 07:00:00+00:00,25.101,44.748947,12.250999,0.0,10.134495,24.320978,1011.4,0.0,,,,0.0,Sinaloa,24.8069,-107.394,Pacifico_Intensivo,hourly
2025-11-17 08:00:00+00:00,24.151,48.14816,12.500999,0.0,7.415038,23.850101,1011.2,0.0,,,,0.0,Sinaloa,24.8069,-107.394,Pacifico_Intensivo,hourly
2025-11-17 09:00:00+00:00,22.851,50.556705,12.051,0.0,6.1437774,22.589716,1010.9,0.0,,,,0.0,Sinaloa,24.8069,-107.394,Pacifico_Intensivo,hourly
2025-11-17 10:00:00+00:00,21.551,51.905285,11.250999,0.0,5.1919937,21.177858,1011.1,0.0,,,,0.0,Sinaloa,24.8069,-107.394,Pacifico_Intensivo,hourly
2025-11-17 11:00:00+00:00,20.451,54.260128,10.901,0.0,5.004518,19.999367,1011.2,0.0,,,,0.0,Sinaloa,24.8069,-107.394,Pacifico_Intensivo,hourly
2025-11-17 12:00:00+00:00,20.401,54.79041,11.000999,0.0,0.54,20.63063,1011.6,0.0,,,,0.0,Sinaloa,24.8069,-107.394,Pacifico_Intensivo,hourly
2025-11-17 13:00:00+00:00,19.551,57.56008,10.951,0.0,2.2768397,19.512606,1012.2,0.0,,,,0.0,Sinaloa,24.8069,-107.394,Pacifico_Intensivo,hourly
2025-11-17 14:00:00+00:00,19.351,59.05876,11.151,0.0,6.489992,18.758965,1012.7,0.0,,,,1.0,Sinaloa,24.8069,-107.394,Pacifico_Intensivo,hourly
2025-11-17 15:00:00+00:00,22.801,48.100704,11.250999,0.0,3.8773184,22.618916,1013.4,0.0,,,,1.0,Sinaloa,24.8069,-107.394,Pacifico_Intensivo,hourly
2025-11-17 16:00:00+00:00,26.901,33.96234,9.701,0.0,1.4058449,26.622232,1013.6,0.0,,,,1.0,Sinaloa,24.8069,-107.394,Pacifico_Intensivo,hourly
2025-11-17 17:00:00+00:00,29.901,26.044819,8.351,0.0,1.4512063,29.25042,1013.7,0.0,,,,1.0,Sinaloa,24.8069,-107.394,Pacifico_Intensivo,hourly
2025-11-17 18:00:00+00:00,31.801,24.747974,9.201,0.0,5.020677,31.645863,1013.3,0.0,,,,1.0,Sinaloa,24.8069,-107.394,Pacifico_Intensivo,hourly
2025-11-17 19:00:00+00:00,33.701,21.938927,9.000999,0.0,8.431228,33.314293,1012.3,0.0,,,,1.0,Sinaloa,24.8069,-107.394,Pacifico_Intensivo,hourly
2025-11-17 20:00:00+00:00,34.751003,19.272055,7.9509997,0.0,9.867218,33.812702,1011.1,26.0,,,,1.0,Sinaloa,24.8069,-107.394,Pacifico_Intensivo,hourly
2025-11-17 21:00:00+00:00,35.151,18.21814,7.4509997,0.0,11.402683,33.407475,1010.2,66.0,,,,1.0,Sinaloa,24.8069,-107.394,Pacifico_Intensivo,hourly
2025-11-17 22:00:00+00:00,34.901,18.472218,7.4509997,0.0,13.31635,32.29033,1009.7,93.0,,,,1.0,Sinaloa,24.8069,-107.394,Pacifico_Intensivo,hourly
2025-11-17 23:00:00+00:00,33.901,20.622019,8.251,0.0,15.281989,31.204823,1009.9,77.0,,,,1.0,Sinaloa,24.8069,-107.394,Pacifico_Intensivo,hourly
2025-11-18 00:00:00+00:00,31.951,27.129793,10.701,0.0,15.182015,29.947826,1010.2,85.0,,,,1.0,Sinaloa,24.8069,-107.394,Pacifico_Intensivo,hourly
2025-11-18 01:00:00+00:00,29.351,36.87363,13.101,0.0,12.585848,28.493362,1010.9,98.0,,,,0.0,Sinaloa,24.8069,-107.394,Pacifico_Intensivo,hourly
2025-11-18 02:00:00+00:00,27.651,45.739445,14.901,0.0,11.364259,27.620281,1011.4,11.0,,,,0.0,Sinaloa,24.8069,-107.394,Pacifico_Intensivo,hourly
2025-11-18 03:00:00+00:00,26.301,55.202637,16.601,0.0,11.545284,26.920248,1012.2,38.0,,,,0.0,Sinaloa,24.8069,-107.394,Pacifico_Intensivo,hourly
2025-11-18 04:00:00+00:00,25.351,61.435143,17.401,0.0,11.196232,26.362745,1012.6,1.0,,,,0.0,Sinaloa,24.8069,-107.394,Pacifico_Intensivo,hourly
2025-11-18 05:00:00+00:00,24.851,61.127605,16.851,0.0,9.504272,25.8741,1013.0,0.0,,,,0.0,Sinaloa,24.8069,-107.394,Pacifico_Intensivo,hourly
2025-11-18 06:00:00+00:00,24.501,58.569675,15.851,0.0,7.5363917,25.400639,1013.1,3.0,,,,0.0,Sinaloa,24.8069,-107.394,Pacifico_Intensivo,hourly
2025-11-18 07:00:00+00:00,23.751,61.070595,15.801,0.0,6.7757506,24.742237,1012.9,0.0,,,,0.0,Sinaloa,24.8069,-107.394,Pacifico_Intensivo,hourly
2025-11-18 08:00:00+00:00,22.801,64.88418,15.851,0.0,6.3231,23.878927,1013.1,6.0,,,,0.0,Sinaloa,24.8069,-107.394,Pacifico_Intensivo,hourly
2025-11-18 09:00:00+00:00,21.751,68.50503,15.701,0.0,6.989936,22.672766,1013.1,0.0,,,,0.0,Sinaloa,24.8069,-107.394,Pacifico_Intensivo,hourly
2025-11-18 10:00:00+00:00,21.151,67.72931,14.951,0.0,7.7420926,21.67255,1013.2,0.0,,,,0.0,Sinaloa,24.8069,-107.394,Pacifico_Intensivo,hourly
2025-11-18 11:00:00+00:00,20.651,66.54342,14.201,0.0,7.388775,20.945528,1013.2,0.0,,,,0.0,Sinaloa,24.8069,-107.394,Pacifico_Intensivo,hourly
2025-11-18 12:00:00+00:00,20.751,65.0722,13.951,0.0,3.964089,21.454567,1013.6,0.0,,,,0.0,Sinaloa,24.8069,-107.394,Pacifico_Intensivo,hourly
2025-11-18 13:00:00+00:00,20.101,65.56988,13.451,0.0,7.968939,20.044025,1013.9,0.0,,,,0.0,Sinaloa,24.8069,-107.394,Pacifico_Intensivo,hourly
2025-11-18 14:00:00+00:00,20.551,59.541687,12.401,0.0,9.028754,19.983955,1014.3,0.0,,,,1.0,Sinaloa,24.8069,-107.394,Pacifico_Intensivo,hourly
2025-11-18 15:00:00+00:00,23.351,46.066513,11.101,0.0,6.2405767,22.778126,1014.9,3.0,,,,1.0,Sinaloa,24.8069,-107.394,Pacifico_Intensivo,hourly
2025-11-18 16:00:00+00:00,27.601,31.30813,9.101,0.0,3.8183763,26.804886,1015.4,5.0,,,,1.0,Sinaloa,24.8069,-107.394,Pacifico_Intensivo,hourly
2025-11-18 17:00:00+00:00,30.701,23.16135,7.3009996,0.0,3.0811036,29.549358,1015.1,72.0,,,,1.0,Sinaloa,24.8069,-107.394,Pacifico_Intensivo,hourly
2025-11-18 18:00:00+00:00,32.451,21.994545,8.001,0.0,5.6521144,31.816772,1014.7,92.0,,,,1.0,Sinaloa,24.8069,-107.394,Pacifico_Intensivo,hourly
2025-11-18 19:00:00+00:00,34.101,19.778917,7.8009996,0.0,6.297428,33.677746,1013.6,100.0,,,,1.0,Sinaloa,24.8069,-107.394,Pacifico_Intensivo,hourly
2025-11-18 20:00:00+00:00,34.751003,18.754126,7.5509996,0.0,8.338489,33.86303,1012.4,100.0,,,,1.0,Sinaloa,24.8069,-107.394,Pacifico_Intensivo,hourly
2025-11-18 21:00:00+00:00,34.901,18.66224,7.601,0.0,10.004178,33.2794,1011.4,100.0,,,,1.0,Sinaloa,24.8069,-107.394,Pacifico_Intensivo,hourly
2025-11-18 22:00:00+00:00,34.751003,19.46951,8.101,0.0,11.481968,32.57003,1010.9,100.0,,,,1.0,Sinaloa,24.8069,-107.394,Pacifico_Intensivo,hourly
2025-11-18 23:00:00+00:00,33.251003,23.347248,9.551,0.0,16.635155,30.704857,1010.8,100.0,,,,1.0,Sinaloa,24.8069,-107.394,Pacifico_Intensivo,hourly
2025-11-19 00:00:00+00:00,29.951,35.971294,13.250999,0.0,17.020235,28.497555,1011.8,100.0,,,,1.0,Sinaloa,24.8069,-107.394,Pacifico_Intensivo,hourly
2025-11-19 01:00:00+00:00,27.901,47.299816,15.651,0.0,13.672893,27.82322,1012.5,100.0,,,,0.0,Sinaloa,24.8069,-107.394,Pacifico_Intensivo,hourly
2025-11-19 02:00:00+00:00,26.651,55.289375,16.951,0.0,12.140329,27.330286,1013.2,98.0,,,,0.0,Sinaloa,24.8069,-107.394,Pacifico_Intensivo,hourly
2025-11-19 03:00:00+00:00,25.701,61.127922,17.651,0.0,11.503113,26.77725,1014.0,100.0,,,,0.0,Sinaloa,24.8069,-107.394,Pacifico_Intensivo,hourly
2025-11-19 04:00:00+00:00,24.951,66.79182,18.351,0.0,11.923557,26.281782,1014.6,100.0,,,,0.0,Sinaloa,24.8069,-107.394,Pacifico_Intensivo,hourly
2025-11-19 05:00:00+00:00,24.651,66.73063,18.051,0.0,11.48761,25.909113,1014.9,98.0,,,,0.0,Sinaloa,24.8069,-107.394,Pacifico_Intensivo,hourly
2025-11-19 06:00:00+00:00,24.151,68.75909,18.051,0.0,10.685391,25.52658,1014.9,23.0,,,,0.0,Sinaloa,24.8069,-107.394,Pacifico_Intensivo,hourly
2025-11-19 07:00:00+00:00,23.601,68.86847,17.551,0.0,8.528657,25.068977,1014.7,100.0,,,,0.0,Sinaloa,24.8069,-107.394,Pacifico_Intensivo,hourly
2025-11-19 08:00:00+00:00,23.251,69.018036,17.251,0.0,6.452441,24.891405,1014.7,100.0,,,,0.0,Sinaloa,24.8069,-107.394,Pacifico_Intensivo,hourly
2025-11-19 09:00:00+00:00,22.551,71.779785,17.201,0.0,3.7842832,24.55952,1014.3,100.0,,,,0.0,Sinaloa,24.8069,-107.394,Pacifico_Intensivo,hourly
2025-11-19 10:00:00+00:00,21.601,76.05832,17.201,0.0,3.219938,23.692558,1014.2,100.0,,,,0.0,Sinaloa,24.8069,-107.394,Pacifico_Intensivo,hourly
2025-11-19 11:00:00+00:00,20.951,79.401436,17.251,0.0,2.7416782,23.134348,1014.2,98.0,,,,0.0,Sinaloa,24.8069,-107.394,Pacifico_Intensivo,hourly
2025-11-19 12:00:00+00:00,21.151,76.95673,16.951,0.0,1.3708391,23.405586,1014.3,98.0,,,,0.0,Sinaloa,24.8069,-107.394,Pacifico_Intensivo,hourly
2025-11-19 13:00:00+00:00,20.401,80.84805,17.001,0.0,4.1556225,22.271263,1014.6,100.0,,,,0.0,Sinaloa,24.8069,-107.394,Pacifico_Intensivo,hourly
2025-11-19 14:00:00+00:00,20.301,78.80778,16.501,0.0,7.8149853,21.427568,1014.8,100.0,,,,1.0,Sinaloa,24.8069,-107.394,Pacifico_Intensivo,hourly
2025-11-19 15:00:00+00:00,22.851,61.453857,15.051,0.0,4.896529,23.824467,1015.2,100.0,,,,1.0,Sinaloa,24.8069,-107.394,Pacifico_Intensivo,hourly
2025-11-19 16:00:00+00:00,26.151,43.73282,12.851,0.0,1.0948973,26.887028,1015.7,100.0,,,,1.0,Sinaloa,24.8069,-107.394,Pacifico_Intensivo,hourly
2025-11-19 17:00:00+00:00,28.151,35.118507,11.301,0.0,2.8116899,28.13617,1015.8,98.0,,,,1.0,Sinaloa,24.8069,-107.394,Pacifico_Intensivo,hourly
2025-11-19 18:00:00+00:00,29.901,29.497265,10.201,0.0,2.1068459,29.659992,1015.2,100.0,,,,1.0,Sinaloa,24.8069,-107.394,Pacifico_Intensivo,hourly
2025-11-19 19:00:00+00:00,31.101,26.365896,9.551,0.0,1.2727921,30.79689,1014.4,100.0,,,,1.0,Sinaloa,24.8069,-107.394,Pacifico_Intensivo,hourly
2025-11-19 20:00:00+00:00,30.851,27.015173,9.701,0.0,4.293669,30.14833,1013.9,100.0,,,,1.0,Sinaloa,24.8069,-107.394,Pacifico_Intensivo,hourly
2025-11-19 21:00:00+00:00,31.051,27.80252,10.301,0.0,4.0249224,30.558296,1013.4,100.0,,,,1.0,Sinaloa,24.8069,-107.394,Pacifico_Intensivo,hourly
2025-11-19 22:00:00+00:00,30.851,28.49921,10.500999,0.0,2.4216523,30.650597,1013.2,100.0,,,,1.0,Sinaloa,24.8069,-107.394,Pacifico_Intensivo,hourly
2025-11-19 23:00:00+00:00,30.251,30.390985,10.951,0.0,1.2979984,30.348728,1013.1,100.0,,,,1.0,Sinaloa,24.8069,-107.394,Pacifico_Intensivo,hourly
2025-11-20 00:00:00+00:00,29.201,33.59393,11.551,0.0,2.4482646,29.315807,1013.3,100.0,,,,1.0,Sinaloa,24.8069,-107.394,Pacifico_Intensivo,hourly
2025-11-20 01:00:00+00:00,27.951,41.588463,13.701,0.0,6.4624763,28.19598,1013.6,100.0,,,,0.0,Sinaloa,24.8069,-107.394,Pacifico_Intensivo,hourly
2025-11-20 02:00:00+00:00,26.701,56.36152,17.301,0.0,8.217153,28.10242,1014.4,100.0,,,,0.0,Sinaloa,24.8069,-107.394,Pacifico_Intensivo,hourly
2025-11-20 03:00:00+00:00,26.051,59.12305,17.451,0.0,8.707238,27.446827,1014.8,100.0,,,,0.0,Sinaloa,24.8069,-107.394,Pacifico_Intensivo,hourly
2025-11-20 04:00:00+00:00,25.151,67.67386,18.751,0.0,8.641874,27.14574,1015.2,97.0,,,,0.0,Sinaloa,24.8069,-107.394,Pacifico_Intensivo,hourly
2025-11-20 05:00:00+00:00,24.601,70.81093,18.951,0.0,8.557102,26.703009,1015.5,98.0,,,,0.0,Sinaloa,24.8069,-107.394,Pacifico_Intensivo,hourly
2025-11-12 06:00:00+00:00,17.8105,81.28718,14.560499,0.0,7.120815,18.277733,1021.8,52.0,,,,0.0,Chiapas,16.7569,-93.1292,Sur_Tropical,hourly
2025-11-12 07:00:00+00:00,17.8605,79.47581,14.2605,0.0,5.637765,18.433472,1021.0,59.0,,,,0.0,Chiapas,16.7569,-93.1292,Sur_Tropical,hourly
2025-11-12 08:00:00+00:00,17.7605,79.20482,14.1105,0.0,3.536439,18.585403,1020.7,97.0,,,,0.0,Chiapas,16.7569,-93.1292,Sur_Tropical,hourly
2025-11-12 09:00:00+00:00,17.6605,79.7054,14.1105,0.0,3.9312592,18.427864,1020.4,87.0,,,,0.0,Chiapas,16.7569,-93.1292,Sur_Tropical,hourly
2025-11-12 10:00:00+00:00,17.5605,81.517815,14.3605,0.0,5.318383,18.216808,1020.0,70.0,,,,0.0,Chiapas,16.7569,-93.1292,Sur_Tropical,hourly
2025-11-12 11:00:00+00:00,17.2105,85.79579,14.810499,0.0,6.279395,17.894243,1020.1,59.0,,,,0.0,Chiapas,16.7569,-93.1292,Sur_Tropical,hourly
2025-11-12 12:00:00+00:00,16.8605,92.04853,15.560499,0.0,7.1684303,17.703466,1020.3,95.0,,,,0.0,Chiapas,16.7569,-93.1292,Sur_Tropical,hourly
2025-11-12 13:00:00+00:00,17.1605,91.18735,15.710501,0.0,7.1684303,18.06257,1021.0,100.0,,,,1.0,Chiapas,16.7569,-93.1292,Sur_Tropical,hourly
2025-11-12 14:00:00+00:00,18.3605,82.6751,15.3605,0.0,7.989242,19.004904,1021.3,100.0,,,,1.0,Chiapas,16.7569,-93.1292,Sur_Tropical,hourly
2025-11-12 15:00:00+00:00,20.1105,72.25781,14.960501,0.0,6.6087217,20.801563,1021.1,99.0,,,,1.0,Chiapas,16.7569,-93.1292,Sur_Tropical,hourly
2025-11-12 16:00:00+00:00,22.5605,61.18988,14.710501,0.0,6.8919086,23.114408,1020.5,96.0,,,,1.0,Chiapas,16.7569,-93.1292,Sur_Tropical,hourly
2025-11-12 17:00:00+00:00,24.8605,53.277767,14.710501,0.0,9.144637,26.007315,1019.0,100.0,,,,1.0,Chiapas,16.7569,-93.1292,Sur_Tropical,hourly
2025-11-12 18:00:00+00:00,26.210499,49.65084,14.8605,0.0,14.926983,27.029137,1017.6,100.0,,,,1.0,Chiapas,16.7569,-93.1292,Sur_Tropical,hourly
2025-11-12 19:00:00+00:00,27.2605,46.67529,14.8605,0.0,15.9134655,27.986603,1016.3,98.0,,,,1.0,Chiapas,16.7569,-93.1292,Sur_Tropical,hourly
2025-11-12 20:00:00+00:00,27.2605,45.929092,14.6105,0.0,17.035456,27.41002,1015.2,50.0,,,,1.0,Chiapas,16.7569,-93.1292,Sur_Tropical,hourly
2025-11-12 21:00:00+00:00,27.6605,42.74041,13.8605,0.0,17.581125,26.689276,1014.6,66.0,,,,1.0,Chiapas,16.7569,-93.1292,Sur_Tropical,hourly
2025-11-12 22:00:00+00:00,26.0105,46.791214,13.7605,0.0,18.745079,24.48695,1014.4,61.0,,,,1.0,Chiapas,16.7569,-93.1292,Sur_Tropical,hourly
2025-11-12 23:00:00+00:00,24.1105,53.258144,14.0105,0.0,16.423458,23.016283,1014.9,71.0,,,,1.0,Chiapas,16.7569,-93.1292,Sur_Tropical,hourly
2025-11-13 00:00:00+00:00,21.960499,62.854362,14.560499,0.0,11.480557,21.789682,1016.5,100.0,,,,0.0,Chiapas,16.7569,-93.1292,Sur_Tropical,hourly
2025-11-13 01:00:00+00:00,20.960499,67.47293,14.710501,0.0,9.835975,21.086098,1017.4,100.0,,,,0.0,Chiapas,16.7569,-93.1292,Sur_Tropical,hourly
2025-11-13 02:00:00+00:00,20.0105,72.007484,14.810499,0.0,9.741642,20.187975,1018.5,100.0,,,,0.0,Chiapas,16.7569,-93.1292,Sur_Tropical,hourly
2025-11-13 03:00:00+00:00,19.1105,76.393456,14.8605,0.0,8.854829,19.436655,1019.1,100.0,,,,0.0,Chiapas,16.7569,-93.1292,Sur_Tropical,hourly
2025-11-13 04:00:00+00:00,18.3105,80.83035,14.960501,0.0,8.0599,18.79087,1019.5,5.0,,,,0.0,Chiapas,16.7569,-93.1292,Sur_Tropical,hourly
2025-11-13 05:00:00+00:00,17.5105,84.72908,14.9105,0.0,8.37532,17.926256,1019.7,56.0,,,,0.0,Chiapas,16.7569,-93.1292,Sur_Tropical,hourly
2025-11-13 06:00:00+00:00,16.7105,89.129776,14.9105,0.0,8.225035,17.148497,1019.8,100.0,,,,0.0,Chiapas,16.7569,-93.1292,Sur_Tropical,hourly
2025-11-13 07:00:00+00:00,16.4605,89.975784,14.810499,0.0,8.29173,16.851065,1019.4,99.0,,,,0.0,Chiapas,16.7569,-93.1292,Sur_Tropical,hourly
2025-11-13 08:00:00+00:00,16.0605,92.001274,14.7605,0.0,8.0599,16.466198,1018.8,100.0,,,,0.0,Chiapas,16.7569,-93.1292,Sur_Tropical,hourly
2025-11-13 09:00:00+00:00,15.8605,93.786064,14.8605,0.0,7.353611,16.406956,1018.5,100.0,,,,0.0,Chiapas,16.7569,-93.1292,Sur_Tropical,hourly
2025-11-13 10:00:00+00:00,15.6105,95.91344,14.960501,0.0,6.5520988,16.311827,1018.5,100.0,,,,0.0,Chiapas,16.7569,-93.1292,Sur_Tropical,hourly
2025-11-13 11:00:00+00:00,15.5105,95.60192,14.810499,0.0,5.8631387,16.255554,1018.5,100.0,,,,0.0,Chiapas,16.7569,-93.1292,Sur_Tropical,hourly
2025-11-13 12:00:00+00:00,15.710501,94.08184,14.7605,0.0,6.854195,16.292145,1019.4,100.0,,,,0.0,Chiapas,16.7569,-93.1292,Sur_Tropical,hourly
2025-11-13 13:00:00+00:00,16.3605,91.723595,15.0105,0.0,6.698806,17.059208,1020.0,100.0,,,,1.0,Chiapas,16.7569,-93.1292,Sur_Tropical,hourly
2025-11-13 14:00:00+00:00,18.2605,82.13378,15.1605,0.0,4.952453,19.270508,1020.3,100.0,,,,1.0,Chiapas,16.7569,-93.1292,Sur_Tropical,hourly
2025-11-13 15:00:00+00:00,21.0605,69.4752,15.2605,0.0,2.1674871,22.513636,1020.5,99.0,,,,1.0,Chiapas,16.7569,-93.1292,Sur_Tropical,hourly
2025-11-13 16:00:00+00:00,24.0605,57.165237,15.060499,0.0,3.096837,25.766027,1019.8,100.0,,,,1.0,Chiapas,16.7569,-93.1292,Sur_Tropical,hourly
2025-11-13 17:00:00+00:00,26.5105,48.77945,14.8605,0.0,9.080639,27.958157,1018.1,100.0,,,,1.0,Chiapas,16.7569,-93.1292,Sur_Tropical,hourly
2025-11-13 18:00:00+00:00,26.710499,50.42495,15.560499,0.0,16.904673,27.4056,1017.2,100.0,,,,1.0,Chiapas,16.7569,-93.1292,Sur_Tropical,hourly
2025-11-13 19:00:00+00:00,27.6105,46.023808,14.960501,0.0,18.396141,27.047516,1015.7,98.0,,,,1.0,Chiapas,16.7569,-93.1292,Sur_Tropical,hourly
2025-11-13 20:00:00+00:00,28.3105,44.0406,14.9105,0.0,18.59845,27.227762,1014.3,99.0,,,,1.0,Chiapas,16.7569,-93.1292,Sur_Tropical,hourly
2025-11-13 21:00:00+00:00,28.4105,44.0679,15.0105,0.0,18.917133,27.31915,1013.7,99.0,,,,1.0,Chiapas,16.7569,-93.1292,Sur_Tropical,hourly
2025-11-13 22:00:00+00:00,26.7605,49.160686,15.210501,0.0,19.121557,25.717466,1014.0,20.0,,,,1.0,Chiapas,16.7569,-93.1292,Sur_Tropical,hourly
2025-11-13 23:00:00+00:00,24.9105,55.209335,15.310499,0.0,17.447933,24.151766,1014.7,58.0,,,,1.0,Chiapas,16.7569,-93.1292,Sur_Tropical,hourly
2025-11-14 00:00:00+00:00,22.9105,64.28849,15.810499,0.0,15.2947035,22.663824,1016.0,95.0,,,,0.0,Chiapas,16.7569,-93.1292,Sur_Tropical,hourly
2025-11-14 01:00:00+00:00,22.1605,67.71595,15.9105,0.0,12.303366,22.390581,1017.1,72.0,,,,0.0,Chiapas,16.7569,-93.1292,Sur_Tropical,hourly
2025-11-14 02:00:00+00:00,21.3105,72.012146,16.0605,0.0,9.927779,21.947992,1017.8,77.0,,,,0.0,Chiapas,16.7569,-93.1292,Sur_Tropical,hourly
2025-11-14 03:00:00+00:00,20.5605,75.89246,16.1605,0.0,8.225035,21.487345,1018.6,84.0,,,,0.0,Chiapas,16.7569,-93.1292,Sur_Tropical,hourly
2025-11-14 04:00:00+00:00,19.8105,79.494255,16.1605,0.0,7.4932766,20.844524,1018.9,55.0,,,,0.0,Chiapas,16.7569,-93.1292,Sur_Tropical,hourly
2025-11-14 05:00:00+00:00,19.0605,82.759544,16.0605,0.0,6.76618,20.160446,1018.8,45.0,,,,0.0,Chiapas,16.7569,-93.1292,Sur_Tropical,hourly
2025-11-14 06:00:00+00:00,18.210499,85.07651,15.6605,0.0,8.0899935,18.957895,1019.1,25.0,,,,0.0,Chiapas,16.7569,-93.1292,Sur_Tropical,hourly
2025-11-14 07:00:00+00:00,17.960499,86.14705,15.6105,0.0,8.863972,18.575405,1018.4,76.0,,,,0.0,Chiapas,16.7569,-93.1292,Sur_Tropical,hourly
2025-11-14 08:00:00+00:00,17.5605,89.48249,15.810499,0.0,8.723967,18.275309,1017.6,95.0,,,,0.0,Chiapas,16.7569,-93.1292,Sur_Tropical,hourly
2025-11-14 09:00:00+00:00,17.4105,90.33361,15.810499,0.0,7.8954163,18.246204,1017.2,98.0,,,,0.0,Chiapas,16.7569,-93.1292,Sur_Tropical,hourly
2025-11-14 10:00:00+00:00,17.3605,91.49201,15.960501,0.0,6.763786,18.421322,1017.2,98.0,,,,0.0,Chiapas,16.7569,-93.1292,Sur_Tropical,hourly
2025-11-14 11:00:00+00:00,17.2605,92.957695,16.1105,0.0,6.5248446,18.416786,1017.2,99.0,,,,0.0,Chiapas,16.7569,-93.1292,Sur_Tropical,hourly
2025-11-14 12:00:00+00:00,17.1105,93.8439,16.1105,0.0,6.76618,18.231657,1018.2,100.0,,,,0.0,Chiapas,16.7569,-93.1292,Sur_Tropical,hourly
2025-11-14 13:00:00+00:00,18.1105,89.23989,16.3105,0.0,5.5567255,19.48912,1018.8,100.0,,,,1.0,Chiapas,16.7569,-93.1292,Sur_Tropical,hourly
2025-11-14 14:00:00+00:00,20.1105,80.29822,16.6105,0.0,5.4833565,21.622732,1019.0,100.0,,,,1.0,Chiapas,16.7569,-93.1292,Sur_Tropical,hourly
2025-11-14 15:00:00+00:00,23.0105,68.10232,16.8105,0.0,5.509882,24.60061,1018.9,100.0,,,,1.0,Chiapas,16.7569,-93.1292,Sur_Tropical,hourly
2025-11-14 16:00:00+00:00,25.210499,60.057755,16.9105,0.0,6.489992,26.698017,1018.5,100.0,,,,1.0,Chiapas,16.7569,-93.1292,Sur_Tropical,hourly
2025-11-14 17:00:00+00:00,26.460499,56.481297,17.1105,0.0,10.075177,27.746378,1017.3,99.0,,,,1.0,Chiapas,16.7569,-93.1292,Sur_Tropical,hourly
2025-11-14 18:00:00+00:00,26.710499,57.260525,17.5605,0.0,14.512064,28.253048,1016.6,98.0,,,,1.0,Chiapas,16.7569,-93.1292,Sur_Tropical,hourly
2025-11-14 19:00:00+00:00,27.3105,56.509884,17.9105,0.0,15.03835,27.984863,1015.1,100.0,,,,1.0,Chiapas,16.7569,-93.1292,Sur_Tropical,hourly
2025-11-14 20:00:00+00:00,28.0105,52.727642,17.460499,0.0,15.281989,28.449574,1013.7,99.0,,,,1.0,Chiapas,16.7569,-93.1292,Sur_Tropical,hourly
2025-11-14 21:00:00+00:00,28.4105,48.65936,16.5605,0.0,15.7908325,28.39161,1012.6,97.0,,,,1.0,Chiapas,16.7569,-93.1292,Sur_Tropical,hourly
2025-11-14 22:00:00+00:00,27.8605,48.98031,16.1605,0.0,15.561413,27.711351,1012.6,97.0,,,,1.0,Chiapas,16.7569,-93.1292,Sur_Tropical,hourly
2025-11-14 23:00:00+00:00,25.960499,57.807667,17.0105,0.0,15.580141,26.16414,1012.9,100.0,,,,1.0,Chiapas,16.7569,-93.1292,Sur_Tropical,hourly
2025-11-15 00:00:00+00:00,23.4105,74.92599,18.710499,0.0,12.097553,24.884035,1014.4,100.0,,,,0.0,Chiapas,16.7569,-93.1292,Sur_Tropical,hourly
2025-11-15 01:00:00+00:00,23.0105,76.280464,18.6105,0.0,11.19189,24.569792,1015.3,98.0,,,,0.0,Chiapas,16.7569,-93.1292,Sur_Tropical,hourly
2025-11-15 02:00:00+00:00,22.6105,78.39716,18.6605,0.0,9.904906,24.381145,1016.4,97.0,,,,0.0,Chiapas,16.7569,-93.1292,Sur_Tropical,hourly
2025-11-15 03:00:00+00:00,21.8105,85.184746,19.210499,0.0,8.155807,24.097647,1017.0,99.0,,,,0.0,Chiapas,16.7569,-93.1292,Sur_Tropical,hourly
2025-11-15 04:00:00+00:00,21.460499,87.29887,19.2605,0.0,6.1226463,24.068542,1017.3,95.0,,,,0.0,Chiapas,16.7569,-93.1292,Sur_Tropical,hourly
2025-11-15 05:00:00+00:00,20.960499,90.018005,19.2605,0.0,6.12,23.569338,1017.1,95.0,,,,0.0,Chiapas,16.7569,-93.1292,Sur_Tropical,hourly
2025-11-15 06:00:00+00:00,20.6605,93.13213,19.5105,0.0,7.0911775,23.24943,1016.9,100.0,,,,0.0,Chiapas,16.7569,-93.1292,Sur_Tropical,hourly
2025-11-15 07:00:00+00:00,20.5105,93.7055,19.460499,0.0,6.830519,23.113132,1016.3,100.0,,,,0.0,Chiapas,16.7569,-93.1292,Sur_Tropical,hourly
2025-11-15 08:00:00+00:00,20.460499,93.41222,19.3605,0.0,7.172949,22.964573,1015.5,100.0,,,,0.0,Chiapas,16.7569,-93.1292,Sur_Tropical,hourly
2025-11-15 09:00:00+00:00,20.210499,94.27693,19.2605,0.0,5.5450516,22.90377,1015.2,100.0,,,,0.0,Chiapas,16.7569,-93.1292,Sur_Tropical,hourly
2025-11-15 10:00:00+00:00,19.960499,95.152016,19.1605,0.0,4.353619,22.779575,1015.0,100.0,,,,0.0,Chiapas,16.7569,-93.1292,Sur_Tropical,hourly
2025-11-15 11:00:00+00:00,19.9105,94.55876,19.0105,0.0,3.9966488,22.709965,1015.1,100.0,,,,0.0,Chiapas,16.7569,-93.1292,Sur_Tropical,hourly
2025-11-15 12:00:00+00:00,19.8105,96.04055,19.1605,0.0,4.278551,22.640635,1015.9,100.0,,,,0.0,Chiapas,16.7569,-93.1292,Sur_Tropical,hourly
2025-11-15 13:00:00+00:00,20.1105,94.2727,19.1605,0.0,4.5891175,22.895123,1016.3,100.0,,,,1.0,Chiapas,16.7569,-93.1292,Sur_Tropical,hourly
2025-11-15 14:00:00+00:00,21.6105,85.696686,19.1105,0.0,4.3498964,24.404856,1016.8,100.0,,,,1.0,Chiapas,16.7569,-93.1292,Sur_Tropical,hourly
2025-11-15 15:00:00+00:00,23.9105,72.02447,18.5605,0.0,2.907989,26.653774,1016.9,100.0,,,,1.0,Chiapas,16.7569,-93.1292,Sur_Tropical,hourly
2025-11-15 16:00:00+00:00,26.2605,58.985992,17.6105,0.0,2.7475805,28.59517,1016.2,100.0,,,,1.0,Chiapas,16.7569,-93.1292,Sur_Tropical,hourly
2025-11-15 17:00:00+00:00,28.0605,51.261345,17.0605,0.0,6.424764,29.7481,1015.0,100.0,,,,1.0,Chiapas,16.7569,-93.1292,Sur_Tropical,hourly
2025-11-15 18:00:00+00:00,28.4105,53.666042,18.1105,0.0,10.387107,30.789959,1013.9,100.0,,,,1.0,Chiapas,16.7569,-93.1292,Sur_Tropical,hourly
2025-11-15 19:00:00+00:00,28.7605,55.80773,19.0605,0.0,12.241323,31.281654,1012.6,100.0,,,,1.0,Chiapas,16.7569,-93.1292,Sur_Tropical,hourly
2025-11-15 20:00:00+00:00,27.1605,60.88568,18.960499,0.0,14.174356,28.445015,1012.2,100.0,,,,1.0,Chiapas,16.7569,-93.1292,Sur_Tropical,hourly
2025-11-15 21:00:00+00:00,27.210499,60.5182,18.9105,0.0,12.221457,28.75607,1011.5,97.0,,,,1.0,Chiapas,16.7569,-93.1292,Sur_Tropical,hourly
2025-11-15 22:00:00+00:00,26.1105,65.58292,19.1605,0.0,11.919479,27.820465,1011.5,100.0,,,,1.0,Chiapas,16.7569,-93.1292,Sur_Tropical,hourly
2025-11-15 23:00:00+00:00,24.460499,73.48238,19.4105,0.0,10.717182,26.468344,1012.2,98.0,,,,1.0,Chiapas,16.7569,-93.1292,Sur_Tropical,hourly
2025-11-16 00:00:00+00:00,22.6605,84.48417,19.9105,0.0,10.1456785,25.000048,1013.3,100.0,,,,0.0,Chiapas,16.7569,-93.1292,Sur_Tropical,hourly
2025-11-16 01:00:00+00:00,22.210499,87.90847,20.1105,0.0,8.6193495,24.873592,1014.2,100.0,,,,0.0,Chiapas,16.7569,-93.1292,Sur_Tropical,hourly
2025-11-16 02:00:00+00:00,21.960499,89.811646,20.210499,0.0,7.5942082,24.824003,1015.0,78.0,,,,0.0,Chiapas,16.7569,-93.1292,Sur_Tropical,hourly
2025-11-16 03:00:00+00:00,21.9105,90.64436,20.3105,0.0,6.391901,25.00034,1015.3,98.0,,,,0.0,Chiapas,16.7569,-93.1292,Sur_Tropical,hourly
2025-11-16 04:00:00+00:00,21.7605,91.478325,20.3105,0.0,5.7431,24.945093,1015.2,100.0,,,,0.0,Chiapas,16.7569,-93.1292,Sur_Tropical,hourly
2025-11-16 05:00:00+00:00,21.5605,93.177246,20.4105,0.0,5.09435,24.891119,1015.1,100.0,,,,0.0,Chiapas,16.7569,-93.1292,Sur_Tropical,hourly
2025-11-16 06:00:00+00:00,21.460499,94.6207,20.5605,0.0,4.1085763,25.012337,1014.8,100.0,,,,0.0,Chiapas,16.7569,-93.1292,Sur_Tropical,hourly
2025-11-16 07:00:00+00:00,21.6105,93.75613,20.5605,0.0,4.3498964,25.127008,1014.5,100.0,,,,0.0,Chiapas,16.7569,-93.1292,Sur_Tropical,hourly
2025-11-16 08:00:00+00:00,21.6105,93.17972,20.460499,0.0,4.510787,25.051897,1014.0,100.0,,,,0.0,Chiapas,16.7569,-93.1292,Sur_Tropical,hourly
2025-11-16 09:00:00+00:00,21.3105,94.61477,20.4105,0.0,4.2671766,24.761972,1013.4,100.0,,,,0.0,Chiapas,16.7569,-93.1292,Sur_Tropical,hourly
2025-11-16 10:00:00+00:00,21.0105,96.37278,20.4105,0.0,4.3536186,24.44963,1013.3,100.0,,,,0.0,Chiapas,16.7569,-93.1292,Sur_Tropical,hourly
2025-11-16 11:00:00+00:00,20.710499,97.26246,20.2605,0.0,3.6447225,24.176517,1013.5,98.0,,,,0.0,Chiapas,16.7569,-93.1292,Sur_Tropical,hourly
2025-11-16 12:00:00+00:00,20.7605,99.080444,20.6105,0.0,1.484318,24.721596,1014.5,100.0,,,,0.0,Chiapas,16.7569,-93.1292,Sur_Tropical,hourly
2025-11-16 13:00:00+00:00,21.0105,98.47435,20.7605,0.0,2.4216523,24.912895,1014.9,100.0,,,,1.0,Chiapas,16.7569,-93.1292,Sur_Tropical,hourly
2025-11-16 14:00:00+00:00,23.1105,82.979454,20.0605,0.0,1.8,26.741974,1015.2,95.0,,,,1.0,Chiapas,16.7569,-93.1292,Sur_Tropical,hourly
2025-11-16 15:00:00+00:00,25.6105,67.55458,19.1605,0.0,7.16617,28.014214,1015.2,27.0,,,,1.0,Chiapas,16.7569,-93.1292,Sur_Tropical,hourly
2025-11-16 16:00:00+00:00,27.3105,59.789867,18.8105,0.0,9.504273,29.438755,1014.9,38.0,,,,1.0,Chiapas,16.7569,-93.1292,Sur_Tropical,hourly
2025-11-16 17:00:00+00:00,28.5105,54.539375,18.460499,0.0,9.860649,30.676346,1014.1,18.0,,,,1.0,Chiapas,16.7569,-93.1292,Sur_Tropical,hourly
2025-11-16 18:00:00+00:00,30.0105,47.112545,17.5105,0.0,8.604301,32.547012,1012.7,16.0,,,,1.0,Chiapas,16.7569,-93.1292,Sur_Tropical,hourly
2025-11-16 19:00:00+00:00,31.1605,43.696766,17.3605,0.0,8.260411,33.794605,1010.8,37.0,,,,1.0,Chiapas,16.7569,-93.1292,Sur_Tropical,hourly
2025-11-16 20:00:00+00:00,31.5105,42.030075,17.0605,0.0,7.5942073,33.75208,1009.7,28.0,,,,1.0,Chiapas,16.7569,-93.1292,Sur_Tropical,hourly
2025-11-16 21:00:00+00:00,31.8605,41.59637,17.2105,0.0,9.430695,33.30316,1009.1,63.0,,,,1.0,Chiapas,16.7569,-93.1292,Sur_Tropical,hourly
2025-11-16 22:00:00+00:00,29.9105,47.985416,17.710499,0.1,10.304114,31.183197,1009.5,64.0,,,,1.0,Chiapas,16.7569,-93.1292,Sur_Tropical,hourly
2025-11-16 23:00:00+00:00,27.6605,61.379246,19.5605,0.2,9.567131,29.90562,1010.9,65.0,,,,1.0,Chiapas,16.7569,-93.1292,Sur_Tropical,hourly
2025-11-17 00:00:00+00:00,26.1605,72.42299,20.8105,0.0,9.449572,29.058659,1011.7,50.0,,,,0.0,Chiapas,16.7569,-93.1292,Sur_Tropical,hourly
2025-11-17 01:00:00+00:00,25.0605,78.50629,21.0605,0.1,5.728979,28.634647,1013.2,50.0,,,,0.0,Chiapas,16.7569,-93.1292,Sur_Tropical,hourly
2025-11-17 02:00:00+00:00,23.6105,87.22273,21.3605,1.0,4.7521367,27.489643,1014.2,55.0,,,,0.0,Chiapas,16.7569,-93.1292,Sur_Tropical,hourly
2025-11-17 03:00:00+00:00,23.1605,89.07613,21.2605,0.1,6.5049515,26.730604,1014.7,52.0,,,,0.0,Chiapas,16.7569,-93.1292,Sur_Tropical,hourly
2025-11-17 04:00:00+00:00,23.0105,85.30838,20.4105,0.0,5.4744864,26.284286,1014.9,73.0,,,,0.0,Chiapas,16.7569,-93.1292,Sur_Tropical,hourly
2025-11-17 05:00:00+00:00,22.4105,88.74353,20.460499,0.0,5.068846,25.769758,1014.7,89.0,,,,0.0,Chiapas,16.7569,-93.1292,Sur_Tropical,hourly
2025-11-17 06:00:00+00:00,21.960499,94.93148,21.1105,0.0,1.8792552,26.126081,1014.8,96.0,,,,0.0,Chiapas,16.7569,-93.1292,Sur_Tropical,hourly
2025-11-17 07:00:00+00:00,21.8105,96.39428,21.210499,0.0,1.8532133,26.033516,1014.3,85.0,,,,0.0,Chiapas,16.7569,-93.1292,Sur_Tropical,hourly
2025-11-17 08:00:00+00:00,21.5105,97.5779,21.1105,0.0,2.8116899,25.540537,1013.7,94.0,,,,0.0,Chiapas,16.7569,-93.1292,Sur_Tropical,hourly
2025-11-17 09:00:00+00:00,21.460499,96.38491,20.8605,0.0,3.096837,25.31652,1013.2,100.0,,,,0.0,Chiapas,16.7569,-93.1292,Sur_Tropical,hourly
2025-11-17 10:00:00+00:00,21.3605,96.085976,20.710499,0.0,2.1749482,25.272419,1013.0,100.0,,,,0.0,Chiapas,16.7569,-93.1292,Sur_Tropical,hourly
2025-11-17 11:00:00+00:00,21.4105,95.497574,20.6605,0.0,0.9178235,25.479633,1013.3,100.0,,,,0.0,Chiapas,16.7569,-93.1292,Sur_Tropical,hourly
2025-11-17 12:00:00+00:00,20.6605,97.86424,20.3105,0.0,0.56920993,24.600586,1014.3,97.0,,,,0.0,Chiapas,16.7569,-93.1292,Sur_Tropical,hourly
2025-11-17 13:00:00+00:00,21.2605,94.3211,20.3105,0.0,0.25455844,25.245958,1014.9,100.0,,,,1.0,Chiapas,16.7569,-93.1292,Sur_Tropical,hourly
2025-11-17 14:00:00+00:00,23.3605,83.78087,20.460499,0.0,2.5264204,27.089571,1015.5,100.0,,,,1.0,Chiapas,16.7569,-93.1292,Sur_Tropical,hourly
2025-11-17 15:00:00+00:00,25.460499,70.530205,19.710499,0.0,6.21717,28.27061,1015.5,100.0,,,,1.0,Chiapas,16.7569,-93.1292,Sur_Tropical,hourly
2025-11-17 16:00:00+00:00,27.460499,60.198864,19.0605,0.0,7.968939,29.949318,1015.3,19.0,,,,1.0,Chiapas,16.7569,-93.1292,Sur_Tropical,hourly
2025-11-17 17:00:00+00:00,29.1105,52.182312,18.3105,0.0,7.689603,32.067223,1014.1,46.0,,,,1.0,Chiapas,16.7569,-93.1292,Sur_Tropical,hourly
2025-11-17 18:00:00+00:00,30.4105,46.18918,17.5605,0.0,7.9526596,33.124367,1013.1,55.0,,,,1.0,Chiapas,16.7569,-93.1292,Sur_Tropical,hourly
2025-11-17 19:00:00+00:00,31.0605,45.211506,17.8105,0.0,8.163749,33.872795,1011.7,98.0,,,,1.0,Chiapas,16.7569,-93.1292,Sur_Tropical,hourly
2025-11-17 20:00:00+00:00,31.8105,42.51255,17.5105,0.1,6.7469993,34.745113,1010.6,42.0,,,,1.0,Chiapas,16.7569,-93.1292,Sur_Tropical,hourly
2025-11-17 21:00:00+00:00,31.6605,42.337784,17.3105,0.1,4.896529,33.54453,1010.0,78.0,,,,1.0,Chiapas,16.7569,-93.1292,Sur_Tropical,hourly
2025-11-17 22:00:00+00:00,31.460499,42.28332,17.1105,0.1,6.28713,33.055912,1009.6,95.0,,,,1.0,Chiapas,16.7569,-93.1292,Sur_Tropical,hourly
2025-11-17 23:00:00+00:00,30.1105,45.673466,17.1105,0.0,7.5363917,31.525383,1010.4,99.0,,,,1.0,Chiapas,16.7569,-93.1292,Sur_Tropical,hourly
2025-11-18 00:00:00+00:00,27.8605,59.54501,19.2605,0.0,9.801326,29.925377,1011.7,17.0,,,,0.0,Chiapas,16.7569,-93.1292,Sur_Tropical,hourly
2025-11-18 01:00:00+00:00,26.5605,66.49658,19.8105,0.0,8.139901,29.138489,1012.9,97.0,,,,0.0,Chiapas,16.7569,-93.1292,Sur_Tropical,hourly
2025-11-18 02:00:00+00:00,25.6605,71.22571,20.0605,0.0,8.225035,28.352226,1014.1,98.0,,,,0.0,Chiapas,16.7569,-93.1292,Sur_Tropical,hourly
2025-11-18 03:00:00+00:00,25.0105,75.88559,20.460499,0.0,8.225035,27.906712,1014.8,99.0,,,,0.0,Chiapas,16.7569,-93.1292,Sur_Tropical,hourly
2025-11-18 04:00:00+00:00,24.3105,81.10208,20.8605,0.0,7.570707,27.511143,1015.3,59.0,,,,0.0,Chiapas,16.7569,-93.1292,Sur_Tropical,hourly
2025-11-18 05:00:00+00:00,23.8605,84.094666,21.0105,0.0,5.6002855,27.42825,1015.3,17.0,,,,0.0,Chiapas,16.7569,-93.1292,Sur_Tropical,hourly
2025-11-18 06:00:00+00:00,23.210499,89.08001,21.3105,0.0,4.913044,27.039625,1015.0,98.0,,,,0.0,Chiapas,16.7569,-93.1292,Sur_Tropical,hourly
2025-11-18 07:00:00+00:00,22.8105,91.54278,21.3605,0.0,4.8965297,26.669458,1014.7,12.0,,,,0.0,Chiapas,16.7569,-93.1292,Sur_Tropical,hourly
2025-11-18 08:00:00+00:00,22.460499,93.79487,21.4105,0.0,3.8939953,26.493092,1014.3,38.0,,,,0.0,Chiapas,16.7569,-93.1292,Sur_Tropical,hourly
2025-11-18 09:00:00+00:00,22.4105,94.08035,21.4105,0.0,2.4216523,26.657864,1014.2,41.0,,,,0.0,Chiapas,16.7569,-93.1292,Sur_Tropical,hourly
2025-11-18 10:00:00+00:00,22.4105,94.08035,21.4105,0.0,2.0523157,26.711725,1014.4,100.0,,,,0.0,Chiapas,16.7569,-93.1292,Sur_Tropical,hourly
2025-11-18 11:00:00+00:00,22.210499,94.94079,21.3605,0.0,2.6758924,26.393919,1014.5,98.0,,,,0.0,Chiapas,16.7569,-93.1292,Sur_Tropical,hourly
2025-11-18 12:00:00+00:00,21.1605,99.69358,21.1105,0.0,4.198285,24.98865,1015.4,100.0,,,,0.0,Chiapas,16.7569,-93.1292,Sur_Tropical,hourly
2025-11-18 13:00:00+00:00,21.4105,98.1772,21.1105,0.0,4.829907,25.146309,1015.9,97.0,,,,1.0,Chiapas,16.7569,-93.1292,Sur_Tropical,hourly
2025-11-18 14:00:00+00:00,24.3605,81.108444,20.9105,0.0,1.8532133,28.42123,1016.2,1.0,,,,1.0,Chiapas,16.7569,-93.1292,Sur_Tropical,hourly
2025-11-18 15:00:00+00:00,27.1605,66.20855,20.3105,0.0,2.7238941,30.779438,1016.1,13.0,,,,1.0,Chiapas,16.7569,-93.1292,Sur_Tropical,hourly
2025-11-18 16:00:00+00:00,29.210499,55.39825,19.3605,0.0,5.195113,32.385345,1015.7,8.0,,,,1.0,Chiapas,16.7569,-93.1292,Sur_Tropical,hourly
2025-11-18 17:00:00+00:00,30.6605,48.63776,18.6105,0.0,6.7205353,33.575493,1014.7,12.0,,,,1.0,Chiapas,16.7569,-93.1292,Sur_Tropical,hourly
2025-11-18 18:00:00+00:00,31.0105,46.059143,18.0605,0.0,5.1919937,33.644844,1013.9,30.0,,,,1.0,Chiapas,16.7569,-93.1292,Sur_Tropical,hourly
2025-11-18 19:00:00+00:00,32.5105,40.34944,17.3105,0.0,6.638072,35.406258,1012.6,23.0,,,,1.0,Chiapas,16.7569,-93.1292,Sur_Tropical,hourly
2025-11-18 20:00:00+00:00,32.0105,42.299446,17.6105,0.1,7.989242,34.20409,1011.8,30.0,,,,1.0,Chiapas,16.7569,-93.1292,Sur_Tropical,hourly
2025-11-18 21:00:00+00:00,30.6605,50.494076,19.210499,0.2,12.606426,32.288548,1011.5,28.0,,,,1.0,Chiapas,16.7569,-93.1292,Sur_Tropical,hourly
2025-11-18 22:00:00+00:00,29.5105,55.471638,19.6605,0.0,13.493999,31.229668,1011.5,17.0,,,,1.0,Chiapas,16.7569,-93.1292,Sur_Tropical,hourly
2025-11-18 23:00:00+00:00,27.710499,65.10697,20.5605,0.0,14.618837,29.722542,1012.0,16.0,,,,1.0,Chiapas,16.7569,-93.1292,Sur_Tropical,hourly
2025-11-19 00:00:00+00:00,25.6105,75.514496,20.960499,0.0,12.98248,28.073143,1012.7,9.0,,,,0.0,Chiapas,16.7569,-93.1292,Sur_Tropical,hourly
2025-11-19 01:00:00+00:00,24.8605,79.20467,21.0105,0.0,10.692969,27.684418,1013.9,5.0,,,,0.0,Chiapas,16.7569,-93.1292,Sur_Tropical,hourly
2025-11-19 02:00:00+00:00,24.4105,82.36963,21.210499,0.0,8.6867485,27.634176,1015.1,3.0,,,,0.0,Chiapas,16.7569,-93.1292,Sur_Tropical,hourly
2025-11-19 03:00:00+00:00,23.8105,86.44326,21.4105,0.0,7.10031,27.374039,1016.0,8.0,,,,0.0,Chiapas,16.7569,-93.1292,Sur_Tropical,hourly
2025-11-19 04:00:00+00:00,23.4105,89.095535,21.5105,0.0,6.297428,27.145926,1016.4,11.0,,,,0.0,Chiapas,16.7569,-93.1292,Sur_Tropical,hourly
2025-11-19 05:00:00+00:00,23.1105,91.28153,21.6105,0.0,5.8409934,26.967466,1016.5,26.0,,,,0.0,Chiapas,16.7569,-93.1292,Sur_Tropical,hourly
2025-11-19 06:00:00+00:00,23.3105,96.14202,22.6605,0.0,4.510787,27.952976,1016.0,88.0,,,,0.0,Chiapas,16.7569,-93.1292,Sur_Tropical,hourly
2025-11-19 07:00:00+00:00,23.4105,92.702484,22.1605,0.0,2.5772078,28.04892,1015.7,63.0,,,,0.0,Chiapas,16.7569,-93.1292,Sur_Tropical,hourly
2025-11-19 08:00:00+00:00,22.6605,88.49061,20.6605,0.5,1.9134263,26.583242,1015.6,98.0,,,,0.0,Chiapas,16.7569,-93.1292,Sur_Tropical,hourly
2025-11-19 09:00:00+00:00,22.3605,95.52906,21.6105,0.2,2.7943513,26.662575,1015.2,71.0,,,,0.0,Chiapas,16.7569,-93.1292,Sur_Tropical,hourly
2025-11-19 10:00:00+00:00,21.7605,98.48294,21.5105,0.0,0.25455844,26.378916,1015.3,66.0,,,,0.0,Chiapas,16.7569,-93.1292,Sur_Tropical,hourly
2025-11-19 11:00:00+00:00,21.7605,98.78472,21.5605,0.0,1.835647,26.175629,1015.6,66.0,,,,0.0,Chiapas,16.7569,-93.1292,Sur_Tropical,hourly
2025-11-19 12:00:00+00:00,21.9105,93.481865,20.8105,0.0,3.96,25.613934,1016.3,83.0,,,,0.0,Chiapas,16.7569,-93.1292,Sur_Tropical,hourly
2025-11-19 13:00:00+00:00,22.3105,92.3599,21.0105,0.0,3.84796,26.13543,1017.0,91.0,,,,1.0,Chiapas,16.7569,-93.1292,Sur_Tropical,hourly
2025-11-19 14:00:00+00:00,24.8105,76.79651,20.460499,0.0,0.25455844,28.8693,1017.5,2.0,,,,1.0,Chiapas,16.7569,-93.1292,Sur_Tropical,hourly
2025-11-19 15:00:00+00:00,26.8105,65.52493,19.8105,0.0,2.7943513,30.167747,1017.7,9.0,,,,1.0,Chiapas,16.7569,-93.1292,Sur_Tropical,hourly
2025-11-19 16:00:00+00:00,28.8105,55.30017,18.960499,0.0,4.0449963,31.880081,1017.1,17.0,,,,1.0,Chiapas,16.7569,-93.1292,Sur_Tropical,hourly
2025-11-19 17:00:00+00:00,30.1605,49.119236,18.3105,0.0,4.514377,33.40459,1016.0,10.0,,,,1.0,Chiapas,16.7569,-93.1292,Sur_Tropical,hourly
2025-11-19 18:00:00+00:00,31.710499,42.0846,17.2605,0.0,4.829907,35.00722,1014.4,3.0,,,,1.0,Chiapas,16.7569,-93.1292,Sur_Tropical,hourly
2025-11-19 19:00:00+00:00,33.0605,36.481308,16.2105,0.0,6.6818557,35.683113,1012.7,11.0,,,,1.0,Chiapas,16.7569,-93.1292,Sur_Tropical,hourly
2025-11-19 20:00:00+00:00,32.4605,38.70786,16.6105,0.0,9.178235,34.397472,1011.7,39.0,,,,1.0,Chiapas,16.7569,-93.1292,Sur_Tropical,hourly
2025-11-19 21:00:00+00:00,29.6605,55.680595,19.8605,0.2,15.210799,31.228165,1012.1,44.0,,,,1.0,Chiapas,16.7569,-93.1292,Sur_Tropical,hourly
2025-11-19 22:00:00+00:00,28.6605,59.36118,19.960499,0.0,14.230248,30.42247,1012.2,28.0,,,,1.0,Chiapas,16.7569,-93.1292,Sur_Tropical,hourly
2025-11-19 23:00:00+00:00,26.9105,65.54572,19.9105,0.0,14.773164,28.570541,1012.7,28.0,,,,1.0,Chiapas,16.7569,-93.1292,Sur_Tropical,hourly
2025-11-20 00:00:00+00:00,25.3605,73.40848,20.2605,0.0,12.538134,27.524897,1013.3,8.0,,,,0.0,Chiapas,16.7569,-93.1292,Sur_Tropical,hourly
2025-11-20 01:00:00+00:00,24.7605,76.788864,20.4105,0.0,11.384198,27.170576,1014.0,6.0,,,,0.0,Chiapas,16.7569,-93.1292,Sur_Tropical,hourly
2025-11-20 02:00:00+00:00,24.210499,81.08926,20.7605,0.0,7.9932966,27.297148,1015.2,11.0,,,,0.0,Chiapas,16.7569,-93.1292,Sur_Tropical,hourly
2025-11-20 03:00:00+00:00,23.8105,84.34795,21.0105,0.0,7.8480825,27.050499,1016.0,34.0,,,,0.0,Chiapas,16.7569,-93.1292,Sur_Tropical,hourly
2025-11-20 04:00:00+00:00,23.2605,87.99803,21.1605,0.0,5.09435,26.982584,1016.5,30.0,,,,0.0,Chiapas,16.7569,-93.1292,Sur_Tropical,hourly
2025-11-20 05:00:00+00:00,22.9105,90.711426,21.3105,0.0,5.8769383,26.599379,1016.4,53.0,,,,0.0,Chiapas,16.7569,-93.1292,Sur_Tropical,hourly
2025-11-12 06:00:00+00:00,23.442999,45.033497,10.842999,0.0,5.3457265,22.92267,1015.5,0.0,,,,0.0,Sonora,29.0729,-110.9559,Norte_Arido,hourly
2025-11-12 07:00:00+00:00,22.093,55.219166,12.693,0.0,5.8048253,22.09192,1015.5,5.0,,,,0.0,Sonora,29.0729,-110.9559,Norte_Arido,hourly
2025-11-12 08:00:00+00:00,21.493,54.347115,11.893,0.0,6.9550843,21.06358,1015.4,0.0,,,,0.0,Sonora,29.0729,-110.9559,Norte_Arido,hourly
2025-11-12 09:00:00+00:00,21.143,49.43724,10.143,0.0,8.049845,20.023947,1015.5,2.0,,,,0.0,Sonora,29.0729,-110.9559,Norte_Arido,hourly
2025-11-12 10:00:00+00:00,21.043,42.30603,7.743,0.0,8.93859,19.150856,1015.1,0.0,,,,0.0,Sonora,29.0729,-110.9559,Norte_Arido,hourly
2025-11-12 11:00:00+00:00,20.692999,35.27378,4.793,0.0,8.6867485,18.164068,1015.4,0.0,,,,0.0,Sonora,29.0729,-110.9559,Norte_Arido,hourly
2025-11-12 12:00:00+00:00,19.643,31.449226,2.243,0.0,9.7880945,16.462292,1015.4,0.0,,,,0.0,Sonora,29.0729,-110.9559,Norte_Arido,hourly
2025-11-12 13:00:00+00:00,18.343,31.981684,1.343,0.0,11.334285,14.781549,1015.9,0.0,,,,0.0,Sonora,29.0729,-110.9559,Norte_Arido,hourly
2025-11-12 14:00:00+00:00,17.942999,34.601925,2.093,0.0,12.172312,14.388409,1016.3,0.0,,,,1.0,Sonora,29.0729,-110.9559,Norte_Arido,hourly
2025-11-12 15:00:00+00:00,19.743,33.19764,3.093,0.0,10.650465,16.591717,1016.9,0.0,,,,1.0,Sonora,29.0729,-110.9559,Norte_Arido,hourly
2025-11-12 16:00:00+00:00,23.192999,28.136913,3.743,0.0,8.55142,20.471178,1017.3,0.0,,,,1.0,Sonora,29.0729,-110.9559,Norte_Arido,hourly
2025-11-12 17:00:00+00:00,26.593,25.956385,5.493,0.0,7.1208143,24.439142,1017.1,0.0,,,,1.0,Sonora,29.0729,-110.9559,Norte_Arido,hourly
2025-11-12 18:00:00+00:00,28.893,24.907368,6.843,0.0,3.362677,28.030136,1016.8,0.0,,,,1.0,Sonora,29.0729,-110.9559,Norte_Arido,hourly
2025-11-12 19:00:00+00:00,30.843,22.495014,6.993,0.0,3.219938,30.535103,1015.8,0.0,,,,1.0,Sonora,29.0729,-110.9559,Norte_Arido,hourly
2025-11-12 20:00:00+00:00,31.793,21.165588,6.893,0.0,6.0721655,31.051258,1014.8,0.0,,,,1.0,Sonora,29.0729,-110.9559,Norte_Arido,hourly
2025-11-12 21:00:00+00:00,32.193,20.7626,6.9430003,0.0,6.1858225,31.084633,1013.9,0.0,,,,1.0,Sonora,29.0729,-110.9559,Norte_Arido,hourly
2025-11-12 22:00:00+00:00,32.293003,20.787508,7.043,0.0,4.278551,30.903625,1013.5,0.0,,,,1.0,Sonora,29.0729,-110.9559,Norte_Arido,hourly
2025-11-12 23:00:00+00:00,31.942999,21.275976,7.093,0.0,3.319036,30.705734,1013.4,0.0,,,,1.0,Sonora,29.0729,-110.9559,Norte_Arido,hourly
2025-11-13 00:00:00+00:00,31.493,21.677242,6.993,0.0,6.6624317,29.744583,1013.1,0.0,,,,1.0,Sonora,29.0729,-110.9559,Norte_Arido,hourly
2025-11-13 01:00:00+00:00,29.893,23.510532,6.843,0.0,9.54679,27.689405,1013.1,0.0,,,,0.0,Sonora,29.0729,-110.9559,Norte_Arido,hourly
2025-11-13 02:00:00+00:00,28.493,30.618752,9.542999,0.0,13.259049,26.440554,1013.9,0.0,,,,0.0,Sonora,29.0729,-110.9559,Norte_Arido,hourly
2025-11-13 03:00:00+00:00,25.743,54.71353,15.943,0.0,9.567131,26.38224,1014.7,0.0,,,,0.0,Sonora,29.0729,-110.9559,Norte_Arido,hourly
2025-11-13 04:00:00+00:00,24.793,60.72769,16.692999,0.0,8.2584505,25.9314,1015.1,0.0,,,,0.0,Sonora,29.0729,-110.9559,Norte_Arido,hourly
2025-11-13 05:00:00+00:00,24.043,62.914787,16.543,0.0,6.698806,25.34697,1015.5,0.0,,,,0.0,Sonora,29.0729,-110.9559,Norte_Arido,hourly
2025-11-13 06:00:00+00:00,23.143,61.126884,15.243,0.0,4.452954,24.254652,1015.8,9.0,,,,0.0,Sonora,29.0729,-110.9559,Norte_Arido,hourly
2025-11-13 07:00:00+00:00,22.093,62.681484,14.643,0.0,1.7076298,23.378029,1015.5,84.0,,,,0.0,Sonora,29.0729,-110.9559,Norte_Arido,hourly
2025-11-13 08:00:00+00:00,21.343,67.76809,15.143,0.0,5.6262593,22.246296,1015.2,45.0,,,,0.0,Sonora,29.0729,-110.9559,Norte_Arido,hourly
2025-11-13 09:00:00+00:00,20.493,73.49501,15.592999,0.0,7.0223074,21.36821,1015.1,95.0,,,,0.0,Sonora,29.0729,-110.9559,Norte_Arido,hourly
2025-11-13 10:00:00+00:00,20.093,74.13602,15.342999,0.0,6.2145634,20.988485,1014.9,98.0,,,,0.0,Sonora,29.0729,-110.9559,Norte_Arido,hourly
2025-11-13 11:00:00+00:00,19.793,70.81503,14.342999,0.0,7.0591216,20.187967,1014.9,95.0,,,,0.0,Sonora,29.0729,-110.9559,Norte_Arido,hourly
2025-11-13 12:00:00+00:00,19.393,68.92518,13.542999,0.0,7.4867883,19.438854,1015.2,45.0,,,,0.0,Sonora,29.0729,-110.9559,Norte_Arido,hourly
2025-11-13 13:00:00+00:00,18.243,69.60393,12.592999,0.0,7.729527,17.929846,1015.6,91.0,,,,0.0,Sonora,29.0729,-110.9559,Norte_Arido,hourly
2025-11-13 14:00:00+00:00,17.442999,66.30506,11.092999,0.0,8.373386,16.559334,1016.2,100.0,,,,1.0,Sonora,29.0729,-110.9559,Norte_Arido,hourly
2025-11-13 15:00:00+00:00,19.043,54.625534,9.693,0.0,9.278297,17.617893,1016.7,98.0,,,,1.0,Sonora,29.0729,-110.9559,Norte_Arido,hourly
2025-11-13 16:00:00+00:00,22.343,42.672638,9.042999,0.0,8.431228,20.861423,1017.0,100.0,,,,1.0,Sonora,29.0729,-110.9559,Norte_Arido,hourly
2025-11-13 17:00:00+00:00,25.442999,36.139473,9.342999,0.0,7.458606,24.183207,1017.0,100.0,,,,1.0,Sonora,29.0729,-110.9559,Norte_Arido,hourly
2025-11-13 18:00:00+00:00,27.743,33.85839,10.393,0.0,3.244996,27.393257,1016.4,100.0,,,,1.0,Sonora,29.0729,-110.9559,Norte_Arido,hourly
2025-11-13 19:00:00+00:00,29.843,28.319996,9.542999,0.0,2.968636,29.982483,1015.3,99.0,,,,1.0,Sonora,29.0729,-110.9559,Norte_Arido,hourly
2025-11-13 20:00:00+00:00,30.993,24.954344,8.643,0.0,6.341009,30.446636,1014.2,100.0,,,,1.0,Sonora,29.0729,-110.9559,Norte_Arido,hourly
2025-11-13 21:00:00+00:00,31.493,23.208284,7.993,0.0,8.2584505,30.145344,1013.2,74.0,,,,1.0,Sonora,29.0729,-110.9559,Norte_Arido,hourly
2025-11-13 22:00:00+00:00,31.493,22.894653,7.793,0.0,7.9220443,29.755947,1012.6,59.0,,,,1.0,Sonora,29.0729,-110.9559,Norte_Arido,hourly
2025-11-13 23:00:00+00:00,31.093,23.183764,7.643,0.0,8.2584505,29.269863,1012.6,100.0,,,,1.0,Sonora,29.0729,-110.9559,Norte_Arido,hourly
2025-11-14 00:00:00+00:00,30.543,22.495094,6.743,0.0,7.040739,28.680958,1012.3,24.0,,,,1.0,Sonora,29.0729,-110.9559,Norte_Arido,hourly
2025-11-14 01:00:00+00:00,28.793,25.660057,7.1930003,0.0,10.6261,26.516111,1012.5,41.0,,,,0.0,Sonora,29.0729,-110.9559,Norte_Arido,hourly
2025-11-14 02:00:00+00:00,27.643,27.814432,7.393,0.0,10.717182,25.401989,1012.8,98.0,,,,0.0,Sonora,29.0729,-110.9559,Norte_Arido,hourly
2025-11-14 03:00:00+00:00,26.593,29.683609,7.4430003,0.0,10.484902,24.398659,1013.2,44.0,,,,0.0,Sonora,29.0729,-110.9559,Norte_Arido,hourly
2025-11-14 04:00:00+00:00,25.093,33.795753,8.043,0.0,8.792405,23.29582,1013.3,5.0,,,,0.0,Sonora,29.0729,-110.9559,Norte_Arido,hourly
2025-11-14 05:00:00+00:00,24.243,37.410393,8.792999,0.0,5.1197267,23.176548,1013.4,2.0,,,,0.0,Sonora,29.0729,-110.9559,Norte_Arido,hourly
2025-11-14 06:00:00+00:00,23.243,40.955025,9.243,0.0,1.98,22.756012,1013.5,0.0,,,,0.0,Sonora,29.0729,-110.9559,Norte_Arido,hourly
2025-11-14 07:00:00+00:00,22.293,43.237373,9.193,0.0,0.54,22.002857,1013.4,0.0,,,,0.0,Sonora,29.0729,-110.9559,Norte_Arido,hourly
2025-11-14 08:00:00+00:00,21.493,45.095955,9.092999,0.0,2.5959969,20.876274,1013.2,0.0,,,,0.0,Sonora,29.0729,-110.9559,Norte_Arido,hourly
2025-11-14 09:00:00+00:00,19.993,50.46738,9.393,0.0,2.8460495,19.42226,1013.3,0.0,,,,0.0,Sonora,29.0729,-110.9559,Norte_Arido,hourly
2025-11-14 10:00:00+00:00,19.143,53.382607,9.443,0.0,2.1674871,18.68532,1013.2,0.0,,,,0.0,Sonora,29.0729,-110.9559,Norte_Arido,hourly
2025-11-14 11:00:00+00:00,18.743,53.098953,8.993,0.0,1.9386592,18.196241,1013.1,0.0,,,,0.0,Sonora,29.0729,-110.9559,Norte_Arido,hourly
2025-11-14 12:00:00+00:00,18.393,54.27501,8.993,0.0,4.5891175,17.459831,1013.6,0.0,,,,0.0,Sonora,29.0729,-110.9559,Norte_Arido,hourly
2025-11-14 13:00:00+00:00,17.243,56.602688,8.542999,0.0,7.989243,15.694958,1013.9,0.0,,,,0.0,Sonora,29.0729,-110.9559,Norte_Arido,hourly
2025-11-14 14:00:00+00:00,17.243,51.811844,7.243,0.0,10.636766,14.981554,1014.3,0.0,,,,1.0,Sonora,29.0729,-110.9559,Norte_Arido,hourly
2025-11-14 15:00:00+00:00,19.143,42.787697,6.1930003,0.0,10.636766,16.634813,1014.5,0.0,,,,1.0,Sonora,29.0729,-110.9559,Norte_Arido,hourly
2025-11-14 16:00:00+00:00,22.192999,35.58131,6.243,0.0,8.211235,20.048885,1014.8,0.0,,,,1.0,Sonora,29.0729,-110.9559,Norte_Arido,hourly
2025-11-14 17:00:00+00:00,25.192999,31.058748,6.893,0.0,5.3939967,23.609386,1014.7,0.0,,,,1.0,Sonora,29.0729,-110.9559,Norte_Arido,hourly
2025-11-14 18:00:00+00:00,27.093,29.020844,7.543,0.0,1.1384199,26.73042,1014.4,0.0,,,,1.0,Sonora,29.0729,-110.9559,Norte_Arido,hourly
2025-11-14 19:00:00+00:00,29.793,23.484444,6.743,0.0,3.143565,29.419518,1013.4,0.0,,,,1.0,Sonora,29.0729,-110.9559,Norte_Arido,hourly
2025-11-14 20:00:00+00:00,31.043,20.689629,5.9430003,0.0,7.596341,29.823109,1012.2,0.0,,,,1.0,Sonora,29.0729,-110.9559,Norte_Arido,hourly
2025-11-14 21:00:00+00:00,31.393,19.321043,5.243,0.0,10.360559,29.239937,1011.5,0.0,,,,1.0,Sonora,29.0729,-110.9559,Norte_Arido,hourly
2025-11-14 22:00:00+00:00,31.143,19.53,5.1930003,0.0,10.920824,28.36802,1011.3,0.0,,,,1.0,Sonora,29.0729,-110.9559,Norte_Arido,hourly
2025-11-14 23:00:00+00:00,30.643,19.543499,4.793,0.0,10.98,27.775402,1011.3,0.0,,,,1.0,Sonora,29.0729,-110.9559,Norte_Arido,hourly
2025-11-15 00:00:00+00:00,30.043,18.859335,3.7930002,0.0,8.149847,27.38665,1011.5,0.0,,,,1.0,Sonora,29.0729,-110.9559,Norte_Arido,hourly
2025-11-15 01:00:00+00:00,28.343,21.549463,4.293,0.0,8.699793,25.706621,1011.9,0.0,,,,0.0,Sonora,29.0729,-110.9559,Norte_Arido,hourly
2025-11-15 02:00:00+00:00,26.993,25.17741,5.393,0.0,11.013882,24.249542,1012.4,0.0,,,,0.0,Sonora,29.0729,-110.9559,Norte_Arido,hourly
2025-11-15 03:00:00+00:00,25.593,32.033607,7.6930003,0.0,11.712455,23.281824,1013.0,0.0,,,,0.0,Sonora,29.0729,-110.9559,Norte_Arido,hourly
2025-11-15 04:00:00+00:00,24.593,36.63448,8.792999,0.0,11.368535,22.61508,1013.5,0.0,,,,0.0,Sonora,29.0729,-110.9559,Norte_Arido,hourly
2025-11-15 05:00:00+00:00,23.993,39.145798,9.243,0.0,9.485504,22.411074,1013.7,0.0,,,,0.0,Sonora,29.0729,-110.9559,Norte_Arido,hourly
2025-11-15 06:00:00+00:00,23.143,37.86287,7.993,0.0,5.3426957,21.837183,1013.7,0.0,,,,0.0,Sonora,29.0729,-110.9559,Norte_Arido,hourly
2025-11-15 07:00:00+00:00,21.893,39.887947,7.643,0.0,1.8532133,21.008942,1013.6,0.0,,,,0.0,Sonora,29.0729,-110.9559,Norte_Arido,hourly
2025-11-15 08:00:00+00:00,21.243,40.804104,7.393,0.0,6.9550843,19.553673,1013.3,0.0,,,,0.0,Sonora,29.0729,-110.9559,Norte_Arido,hourly
2025-11-15 09:00:00+00:00,20.043,44.843525,7.6930003,0.0,6.424764,18.505371,1013.1,0.0,,,,0.0,Sonora,29.0729,-110.9559,Norte_Arido,hourly
2025-11-15 10:00:00+00:00,18.942999,47.69029,7.593,0.0,10.478722,16.789742,1012.7,0.0,,,,0.0,Sonora,29.0729,-110.9559,Norte_Arido,hourly
2025-11-15 11:00:00+00:00,18.442999,45.63393,6.493,0.0,10.8029995,15.979521,1012.5,0.0,,,,0.0,Sonora,29.0729,-110.9559,Norte_Arido,hourly
2025-11-15 12:00:00+00:00,18.043,47.932518,6.843,0.0,10.873251,15.651201,1013.1,0.0,,,,0.0,Sonora,29.0729,-110.9559,Norte_Arido,hourly
2025-11-15 13:00:00+00:00,17.393,49.93605,6.843,0.0,11.91812,14.8489895,1013.4,0.0,,,,0.0,Sonora,29.0729,-110.9559,Norte_Arido,hourly
2025-11-15 14:00:00+00:00,17.093,51.94927,7.143,0.0,11.364259,14.701366,1013.9,0.0,,,,1.0,Sonora,29.0729,-110.9559,Norte_Arido,hourly
2025-11-15 15:00:00+00:00,18.593,48.24855,7.4430003,0.0,7.823272,16.79019,1014.7,0.0,,,,1.0,Sonora,29.0729,-110.9559,Norte_Arido,hourly
2025-11-15 16:00:00+00:00,21.442999,40.169594,7.343,0.0,4.8466477,20.048885,1015.4,0.0,,,,1.0,Sonora,29.0729,-110.9559,Norte_Arido,hourly
2025-11-15 17:00:00+00:00,24.743,31.685421,6.793,0.0,6.5520988,22.967104,1015.4,31.0,,,,1.0,Sonora,29.0729,-110.9559,Norte_Arido,hourly
2025-11-15 18:00:00+00:00,27.293,27.341232,6.843,0.0,4.5891175,26.107779,1015.3,0.0,,,,1.0,Sonora,29.0729,-110.9559,Norte_Arido,hourly
2025-11-15 19:00:00+00:00,29.393,23.949722,6.6930003,0.0,5.2939587,28.53754,1014.6,0.0,,,,1.0,Sonora,29.0729,-110.9559,Norte_Arido,hourly
2025-11-15 20:00:00+00:00,30.442999,22.08633,6.393,0.0,7.538541,29.207664,1013.6,1.0,,,,1.0,Sonora,29.0729,-110.9559,Norte_Arido,hourly
2025-11-15 21:00:00+00:00,30.942999,22.830935,7.293,0.0,9.7565975,29.22298,1012.9,2.0,,,,1.0,Sonora,29.0729,-110.9559,Norte_Arido,hourly
2025-11-15 22:00:00+00:00,30.942999,23.623117,7.793,0.0,10.310403,28.858013,1012.9,26.0,,,,1.0,Sonora,29.0729,-110.9559,Norte_Arido,hourly
2025-11-15 23:00:00+00:00,30.543,25.345724,8.493,0.0,11.225132,28.50346,1012.9,29.0,,,,1.0,Sonora,29.0729,-110.9559,Norte_Arido,hourly
2025-11-16 00:00:00+00:00,29.942999,27.688461,9.292999,0.0,8.654986,28.492146,1012.7,0.0,,,,1.0,Sonora,29.0729,-110.9559,Norte_Arido,hourly
2025-11-16 01:00:00+00:00,28.442999,31.437,9.893,0.0,9.016185,27.10743,1013.0,0.0,,,,0.0,Sonora,29.0729,-110.9559,Norte_Arido,hourly
2025-11-16 02:00:00+00:00,27.243,33.83128,9.943,0.0,9.636307,25.831995,1013.8,2.0,,,,0.0,Sonora,29.0729,-110.9559,Norte_Arido,hourly
2025-11-16 03:00:00+00:00,25.942999,37.639244,10.393,0.0,8.825508,24.780632,1014.3,5.0,,,,0.0,Sonora,29.0729,-110.9559,Norte_Arido,hourly
2025-11-16 04:00:00+00:00,24.993,40.764084,10.743,0.0,4.2366967,24.603611,1014.8,11.0,,,,0.0,Sonora,29.0729,-110.9559,Norte_Arido,hourly
2025-11-16 05:00:00+00:00,23.942999,44.576912,11.143,0.0,3.0758414,23.844097,1015.0,11.0,,,,0.0,Sonora,29.0729,-110.9559,Norte_Arido,hourly
2025-11-16 06:00:00+00:00,23.692999,54.904488,14.092999,0.0,0.9693296,24.882566,1014.9,1.0,,,,0.0,Sonora,29.0729,-110.9559,Norte_Arido,hourly
2025-11-16 07:00:00+00:00,22.493,50.46178,11.693,0.0,0.76367533,22.90259,1014.9,0.0,,,,0.0,Sonora,29.0729,-110.9559,Norte_Arido,hourly
2025-11-16 08:00:00+00:00,21.493,55.0677,12.092999,0.0,1.5273507,21.91923,1014.4,0.0,,,,0.0,Sonora,29.0729,-110.9559,Norte_Arido,hourly
2025-11-16 09:00:00+00:00,20.743,58.233994,12.243,0.0,1.08,21.28343,1014.4,0.0,,,,0.0,Sonora,29.0729,-110.9559,Norte_Arido,hourly
2025-11-16 10:00:00+00:00,20.293,58.895878,11.993,0.0,4.143911,20.306107,1014.2,5.0,,,,0.0,Sonora,29.0729,-110.9559,Norte_Arido,hourly
2025-11-16 11:00:00+00:00,19.543,60.28905,11.643,0.0,3.7971036,19.495956,1014.0,9.0,,,,0.0,Sonora,29.0729,-110.9559,Norte_Arido,hourly
2025-11-16 12:00:00+00:00,19.143,60.194523,11.243,0.0,1.98,19.236916,1014.6,1.0,,,,0.0,Sonora,29.0729,-110.9559,Norte_Arido,hourly
2025-11-16 13:00:00+00:00,19.093,60.5827,11.292999,0.0,1.0948973,19.331383,1015.1,0.0,,,,0.0,Sonora,29.0729,-110.9559,Norte_Arido,hourly
2025-11-16 14:00:00+00:00,19.343,62.46882,11.993,0.0,1.8089776,19.697052,1015.7,1.0,,,,1.0,Sonora,29.0729,-110.9559,Norte_Arido,hourly
2025-11-16 15:00:00+00:00,21.143,58.906734,12.792999,0.0,3.4247334,21.523024,1016.3,2.0,,,,1.0,Sonora,29.0729,-110.9559,Norte_Arido,hourly
2025-11-16 16:00:00+00:00,23.493,58.70551,14.943,0.0,3.219938,24.669394,1016.4,2.0,,,,1.0,Sonora,29.0729,-110.9559,Norte_Arido,hourly
2025-11-16 17:00:00+00:00,25.093,52.14744,14.592999,0.0,8.863972,25.31358,1016.5,2.0,,,,1.0,Sonora,29.0729,-110.9559,Norte_Arido,hourly
2025-11-16 18:00:00+00:00,26.543,46.181385,14.042999,0.0,11.656998,26.277607,1016.0,26.0,,,,1.0,Sonora,29.0729,-110.9559,Norte_Arido,hourly
2025-11-16 19:00:00+00:00,27.393,42.114784,13.393,0.0,11.503113,26.902765,1015.0,34.0,,,,1.0,Sonora,29.0729,-110.9559,Norte_Arido,hourly
2025-11-16 20:00:00+00:00,27.442999,41.447693,13.193,0.0,15.725037,26.376875,1013.9,40.0,,,,1.0,Sonora,29.0729,-110.9559,Norte_Arido,hourly
2025-11-16 21:00:00+00:00,27.143,41.771923,13.042999,0.0,14.861722,25.935574,1012.9,2.0,,,,1.0,Sonora,29.0729,-110.9559,Norte_Arido,hourly
2025-11-16 22:00:00+00:00,27.543,38.21435,12.042999,0.0,15.865546,25.858196,1012.4,1.0,,,,1.0,Sonora,29.0729,-110.9559,Norte_Arido,hourly
2025-11-16 23:00:00+00:00,26.942999,38.807766,11.743,0.0,16.267857,25.104445,1012.5,0.0,,,,1.0,Sonora,29.0729,-110.9559,Norte_Arido,hourly
2025-11-17 00:00:00+00:00,26.043,38.812046,10.943,0.0,17.965767,23.7107,1012.6,0.0,,,,1.0,Sonora,29.0729,-110.9559,Norte_Arido,hourly
2025-11-17 01:00:00+00:00,24.593,40.65173,10.342999,0.0,13.661038,22.71171,1013.0,0.0,,,,0.0,Sonora,29.0729,-110.9559,Norte_Arido,hourly
2025-11-17 02:00:00+00:00,23.442999,47.328014,11.592999,0.0,11.39842,22.269737,1013.6,0.0,,,,0.0,Sonora,29.0729,-110.9559,Norte_Arido,hourly
2025-11-17 03:00:00+00:00,22.343,50.924,11.693,0.0,11.521406,21.183838,1013.8,0.0,,,,0.0,Sonora,29.0729,-110.9559,Norte_Arido,hourly
2025-11-17 04:00:00+00:00,21.293,52.70405,11.243,0.0,9.914717,20.2288,1014.1,0.0,,,,0.0,Sonora,29.0729,-110.9559,Norte_Arido,hourly
2025-11-17 05:00:00+00:00,20.442999,57.588806,11.792999,0.0,8.827344,19.709291,1014.2,0.0,,,,0.0,Sonora,29.0729,-110.9559,Norte_Arido,hourly
2025-11-17 06:00:00+00:00,19.643,61.51707,12.042999,0.0,6.725354,19.295998,1014.2,0.0,,,,0.0,Sonora,29.0729,-110.9559,Norte_Arido,hourly
2025-11-17 07:00:00+00:00,18.543,72.443504,13.493,0.0,2.8001428,19.255217,1013.8,0.0,,,,0.0,Sonora,29.0729,-110.9559,Norte_Arido,hourly
2025-11-17 08:00:00+00:00,18.192999,72.616844,13.193,0.0,3.0652893,18.76272,1013.3,0.0,,,,0.0,Sonora,29.0729,-110.9559,Norte_Arido,hourly
2025-11-17 09:00:00+00:00,18.343,66.27633,11.943,0.0,6.5520988,17.989754,1013.1,0.0,,,,0.0,Sonora,29.0729,-110.9559,Norte_Arido,hourly
2025-11-17 10:00:00+00:00,17.643,65.04078,10.993,0.0,5.6262593,17.129553,1013.1,0.0,,,,0.0,Sonora,29.0729,-110.9559,Norte_Arido,hourly
2025-11-17 11:00:00+00:00,16.692999,68.15814,10.792999,0.0,3.8856654,16.373539,1013.0,0.0,,,,0.0,Sonora,29.0729,-110.9559,Norte_Arido,hourly
2025-11-17 12:00:00+00:00,16.942999,63.38779,9.943,0.0,5.6521144,16.117964,1013.2,0.0,,,,0.0,Sonora,29.0729,-110.9559,Norte_Arido,hourly
2025-11-17 13:00:00+00:00,15.993,67.56188,9.993,0.0,5.5829024,15.192553,1013.6,0.0,,,,0.0,Sonora,29.0729,-110.9559,Norte_Arido,hourly
2025-11-17 14:00:00+00:00,15.393,70.67734,10.092999,0.0,7.689603,14.314074,1013.9,0.0,,,,1.0,Sonora,29.0729,-110.9559,Norte_Arido,hourly
2025-11-17 15:00:00+00:00,16.543,66.11373,10.193,0.0,7.823272,15.473078,1014.6,0.0,,,,1.0,Sonora,29.0729,-110.9559,Norte_Arido,hourly
2025-11-17 16:00:00+00:00,19.493,54.924038,10.193,0.0,5.5567255,18.752632,1014.8,0.0,,,,1.0,Sonora,29.0729,-110.9559,Norte_Arido,hourly
2025-11-17 17:00:00+00:00,22.343,46.09602,10.193,0.0,3.06,21.965462,1014.8,0.0,,,,1.0,Sonora,29.0729,-110.9559,Norte_Arido,hourly
2025-11-17 18:00:00+00:00,24.093,41.470627,10.193,0.0,4.278551,23.832472,1014.7,0.0,,,,1.0,Sonora,29.0729,-110.9559,Norte_Arido,hourly
2025-11-17 19:00:00+00:00,25.493,35.31176,9.042999,0.0,5.2478566,25.250183,1013.7,22.0,,,,1.0,Sonora,29.0729,-110.9559,Norte_Arido,hourly
2025-11-17 20:00:00+00:00,26.343,32.68368,8.643,0.0,7.562142,25.68991,1012.5,27.0,,,,1.0,Sonora,29.0729,-110.9559,Norte_Arido,hourly
2025-11-17 21:00:00+00:00,26.743,30.96366,8.193,0.0,9.726664,25.295092,1011.6,80.0,,,,1.0,Sonora,29.0729,-110.9559,Norte_Arido,hourly
2025-11-17 22:00:00+00:00,26.692999,30.844795,8.092999,0.0,11.545284,24.506195,1011.5,88.0,,,,1.0,Sonora,29.0729,-110.9559,Norte_Arido,hourly
2025-11-17 23:00:00+00:00,26.243,31.0347,7.793,0.0,11.132385,24.040995,1011.4,95.0,,,,1.0,Sonora,29.0729,-110.9559,Norte_Arido,hourly
2025-11-18 00:00:00+00:00,25.493,32.33434,7.743,0.0,9.059205,23.581251,1011.2,61.0,,,,1.0,Sonora,29.0729,-110.9559,Norte_Arido,hourly
2025-11-18 01:00:00+00:00,24.343,36.31685,8.443,0.0,8.373386,22.710058,1011.7,45.0,,,,0.0,Sonora,29.0729,-110.9559,Norte_Arido,hourly
2025-11-18 02:00:00+00:00,23.343,43.530952,10.243,0.0,12.431733,21.612675,1012.3,22.0,,,,0.0,Sonora,29.0729,-110.9559,Norte_Arido,hourly
2025-11-18 03:00:00+00:00,21.993,52.193096,11.743,0.0,8.2584505,21.32565,1012.7,94.0,,,,0.0,Sonora,29.0729,-110.9559,Norte_Arido,hourly
2025-11-18 04:00:00+00:00,21.093,56.620747,12.143,0.0,4.6452556,21.080889,1013.1,98.0,,,,0.0,Sonora,29.0729,-110.9559,Norte_Arido,hourly
2025-11-18 05:00:00+00:00,20.043,62.832863,12.743,0.0,2.6999998,20.51252,1013.3,99.0,,,,0.0,Sonora,29.0729,-110.9559,Norte_Arido,hourly
2025-11-18 06:00:00+00:00,19.793,66.58072,13.393,0.0,0.40249225,20.819427,1013.5,96.0,,,,0.0,Sonora,29.0729,-110.9559,Norte_Arido,hourly
2025-11-18 07:00:00+00:00,18.793,67.46847,12.643,0.0,2.0124612,19.329977,1013.5,100.0,,,,0.0,Sonora,29.0729,-110.9559,Norte_Arido,hourly
2025-11-18 08:00:00+00:00,18.343,70.08078,12.792999,0.0,2.6758924,18.833569,1013.6,100.0,,,,0.0,Sonora,29.0729,-110.9559,Norte_Arido,hourly
2025-11-18 09:00:00+00:00,17.942999,72.33503,12.893,0.0,3.96,18.28014,1013.7,98.0,,,,0.0,Sonora,29.0729,-110.9559,Norte_Arido,hourly
2025-11-18 10:00:00+00:00,17.593,73.46485,12.792999,0.0,5.4656014,17.677029,1013.5,98.0,,,,0.0,Sonora,29.0729,-110.9559,Norte_Arido,hourly
2025-11-18 11:00:00+00:00,17.192999,74.363846,12.592999,0.0,6.5049515,17.058823,1013.6,100.0,,,,0.0,Sonora,29.0729,-110.9559,Norte_Arido,hourly
2025-11-18 12:00:00+00:00,17.643,69.0302,11.893,0.0,7.0038276,17.208174,1013.7,100.0,,,,0.0,Sonora,29.0729,-110.9559,Norte_Arido,hourly
2025-11-18 13:00:00+00:00,17.393,69.20863,11.693,0.0,5.315336,17.141113,1014.1,100.0,,,,0.0,Sonora,29.0729,-110.9559,Norte_Arido,hourly
2025-11-18 14:00:00+00:00,17.093,70.06969,11.592999,0.0,5.12289,16.83786,1014.6,100.0,,,,1.0,Sonora,29.0729,-110.9559,Norte_Arido,hourly
2025-11-18 15:00:00+00:00,18.243,64.314804,11.393,0.0,5.4119864,17.883009,1015.2,100.0,,,,1.0,Sonora,29.0729,-110.9559,Norte_Arido,hourly
2025-11-18 16:00:00+00:00,20.293,55.494728,11.092999,0.0,3.84796,20.06818,1015.5,100.0,,,,1.0,Sonora,29.0729,-110.9559,Norte_Arido,hourly
2025-11-18 17:00:00+00:00,22.093,53.43663,12.193,0.0,2.5264204,22.405535,1015.6,100.0,,,,1.0,Sonora,29.0729,-110.9559,Norte_Arido,hourly
2025-11-18 18:00:00+00:00,23.143,56.390274,13.993,0.2,11.307095,22.789307,1015.6,100.0,,,,1.0,Sonora,29.0729,-110.9559,Norte_Arido,hourly
2025-11-18 19:00:00+00:00,23.093,60.529026,15.042999,0.7,13.88919,22.751812,1015.0,100.0,,,,1.0,Sonora,29.0729,-110.9559,Norte_Arido,hourly
2025-11-18 20:00:00+00:00,23.493,58.70551,14.943,0.3,14.169785,23.07254,1014.2,100.0,,,,1.0,Sonora,29.0729,-110.9559,Norte_Arido,hourly
2025-11-18 21:00:00+00:00,23.593,56.137234,14.342999,0.0,14.230248,22.939798,1013.5,100.0,,,,1.0,Sonora,29.0729,-110.9559,Norte_Arido,hourly
2025-11-18 22:00:00+00:00,23.692999,54.549793,13.993,0.0,15.053425,22.792582,1013.2,100.0,,,,1.0,Sonora,29.0729,-110.9559,Norte_Arido,hourly
2025-11-18 23:00:00+00:00,23.043,54.740692,13.443,0.0,13.493999,22.175774,1013.2,100.0,,,,1.0,Sonora,29.0729,-110.9559,Norte_Arido,hourly
2025-11-19 00:00:00+00:00,22.192999,58.015385,13.542999,0.0,12.473363,21.510098,1014.0,100.0,,,,1.0,Sonora,29.0729,-110.9559,Norte_Arido,hourly
2025-11-19 01:00:00+00:00,21.743,61.001442,13.893,0.0,10.993271,21.400122,1014.2,100.0,,,,0.0,Sonora,29.0729,-110.9559,Norte_Arido,hourly
2025-11-19 02:00:00+00:00,21.293,64.35107,14.292999,0.0,8.78872,21.416561,1014.7,100.0,,,,0.0,Sonora,29.0729,-110.9559,Norte_Arido,hourly
2025-11-19 03:00:00+00:00,20.993,67.47954,14.743,0.0,8.383054,21.34265,1015.4,100.0,,,,0.0,Sonora,29.0729,-110.9559,Norte_Arido,hourly
2025-11-19 04:00:00+00:00,20.543,70.72776,15.042999,0.0,7.9465466,21.070133,1016.0,100.0,,,,0.0,Sonora,29.0729,-110.9559,Norte_Arido,hourly
2025-11-19 05:00:00+00:00,20.293,72.29069,15.143,0.0,7.486788,20.925613,1016.2,100.0,,,,0.0,Sonora,29.0729,-110.9559,Norte_Arido,hourly
2025-11-19 06:00:00+00:00,18.393,82.15025,15.292999,0.0,11.351422,18.52088,1015.9,95.0,,,,0.0,Sonora,29.0729,-110.9559,Norte_Arido,hourly
2025-11-19 07:00:00+00:00,16.442999,88.82156,14.592999,4.2,16.368128,15.574297,1016.4,97.0,,,,0.0,Sonora,29.0729,-110.9559,Norte_Arido,hourly
2025-11-19 08:00:00+00:00,16.293,91.42474,14.893,1.1,9.252069,16.574743,1016.4,98.0,,,,0.0,Sonora,29.0729,-110.9559,Norte_Arido,hourly
2025-11-19 09:00:00+00:00,16.493,89.68882,14.792999,0.3,7.6388745,16.972172,1016.1,58.0,,,,0.0,Sonora,29.0729,-110.9559,Norte_Arido,hourly
2025-11-19 10:00:00+00:00,16.643,90.2791,15.042999,0.1,5.7852573,17.487232,1015.5,97.0,,,,0.0,Sonora,29.0729,-110.9559,Norte_Arido,hourly
2025-11-19 11:00:00+00:00,16.942999,90.88148,15.443,0.0,9.187056,17.445503,1015.1,59.0,,,,0.0,Sonora,29.0729,-110.9559,Norte_Arido,hourly
2025-11-19 12:00:00+00:00,16.643,88.267,14.693,0.1,10.004178,16.73963,1015.1,20.0,,,,0.0,Sonora,29.0729,-110.9559,Norte_Arido,hourly
2025-11-19 13:00:00+00:00,16.643,89.12445,14.842999,0.0,9.299225,16.898834,1015.4,33.0,,,,0.0,Sonora,29.0729,-110.9559,Norte_Arido,hourly
2025-11-19 14:00:00+00:00,16.593,89.69637,14.893,0.0,8.39657,16.999395,1015.8,33.0,,,,1.0,Sonora,29.0729,-110.9559,Norte_Arido,hourly
2025-11-19 15:00:00+00:00,17.643,85.28996,15.143,0.0,6.8541956,18.369226,1016.3,32.0,,,,1.0,Sonora,29.0729,-110.9559,Norte_Arido,hourly
2025-11-19 16:00:00+00:00,19.393,78.17441,15.493,0.1,4.8899083,20.540554,1016.6,55.0,,,,1.0,Sonora,29.0729,-110.9559,Norte_Arido,hourly
2025-11-19 17:00:00+00:00,20.993,71.49572,15.643,0.1,2.4216523,22.55854,1016.9,52.0,,,,1.0,Sonora,29.0729,-110.9559,Norte_Arido,hourly
2025-11-19 18:00:00+00:00,22.393,64.17621,15.292999,0.1,3.9966488,23.591064,1016.5,100.0,,,,1.0,Sonora,29.0729,-110.9559,Norte_Arido,hourly
2025-11-19 19:00:00+00:00,22.942999,58.95376,14.493,0.1,7.5105524,23.325464,1015.7,100.0,,,,1.0,Sonora,29.0729,-110.9559,Norte_Arido,hourly
2025-11-19 20:00:00+00:00,24.093,50.224728,13.092999,0.0,9.422101,23.698172,1014.4,98.0,,,,1.0,Sonora,29.0729,-110.9559,Norte_Arido,hourly
2025-11-19 21:00:00+00:00,24.543,45.78655,12.092999,0.0,11.712454,23.482084,1013.8,52.0,,,,1.0,Sonora,29.0729,-110.9559,Norte_Arido,hourly
2025-11-19 22:00:00+00:00,24.393,43.102715,11.042999,0.0,13.538345,22.73764,1013.4,100.0,,,,1.0,Sonora,29.0729,-110.9559,Norte_Arido,hourly
2025-11-19 23:00:00+00:00,23.643,42.042168,9.993,0.0,13.799087,21.641314,1013.5,92.0,,,,1.0,Sonora,29.0729,-110.9559,Norte_Arido,hourly
2025-11-20 00:00:00+00:00,22.493,45.22196,10.042999,0.0,14.178927,20.450794,1013.9,100.0,,,,1.0,Sonora,29.0729,-110.9559,Norte_Arido,hourly
2025-11-20 01:00:00+00:00,21.743,49.76375,10.792999,0.0,11.738705,20.276302,1014.4,98.0,,,,0.0,Sonora,29.0729,-110.9559,Norte_Arido,hourly
2025-11-20 02:00:00+00:00,21.093,53.002296,11.143,0.0,10.783486,19.871607,1014.7,98.0,,,,0.0,Sonora,29.0729,-110.9559,Norte_Arido,hourly
2025-11-20 03:00:00+00:00,20.343,58.32871,11.893,0.0,13.184308,19.005728,1014.8,80.0,,,,0.0,Sonora,29.0729,-110.9559,Norte_Arido,hourly
2025-11-20 04:00:00+00:00,19.243,64.32259,12.342999,0.2,16.458931,17.573997,1015.4,66.0,,,,0.0,Sonora,29.0729,-110.9559,Norte_Arido,hourly
2025-11-20 05:00:00+00:00,15.792999,89.05673,13.993,1.9,9.375563,15.724665,1016.5,100.0,,,,0.0,Sonora,29.0729,-110.9559,Norte_Arido,hourly
2025-11-12 06:00:00+00:00,20.291,76.82392,16.091,0.0,7.0223074,21.365215,1023.4,95.0,,,,0.0,Veracruz,19.1738,-96.1342,Golfo_Humedo,hourly
2025-11-12 07:00:00+00:00,19.991,76.5322,15.740999,0.0,4.8466477,21.242317,1022.8,39.0,,,,0.0,Veracruz,19.1738,-96.1342,Golfo_Humedo,hourly
2025-11-12 08:00:00+00:00,19.640999,78.46152,15.790999,0.0,4.1125174,21.019466,1022.4,55.0,,,,0.0,Veracruz,19.1738,-96.1342,Golfo_Humedo,hourly
2025-11-12 09:00:00+00:00,19.291,82.7872,16.291,0.0,3.01735,21.03132,1021.7,45.0,,,,0.0,Veracruz,19.1738,-96.1342,Golfo_Humedo,hourly
2025-11-12 10:00:00+00:00,19.091,83.825066,16.291,0.0,2.3051248,20.9353,1021.5,49.0,,,,0.0,Veracruz,19.1738,-96.1342,Golfo_Humedo,hourly
2025-11-12 11:00:00+00:00,19.041,82.75719,16.041,0.0,4.2021427,20.506998,1021.4,26.0,,,,0.0,Veracruz,19.1738,-96.1342,Golfo_Humedo,hourly
2025-11-12 12:00:00+00:00,19.991,78.26256,16.091,0.0,2.8116899,21.679445,1021.8,100.0,,,,0.0,Veracruz,19.1738,-96.1342,Golfo_Humedo,hourly
2025-11-12 13:00:00+00:00,20.291,77.56212,16.241,0.2,3.4152596,21.952244,1022.2,100.0,,,,1.0,Veracruz,19.1738,-96.1342,Golfo_Humedo,hourly
2025-11-12 14:00:00+00:00,20.640999,76.8781,16.441,0.3,4.2481523,22.262688,1022.6,100.0,,,,1.0,Veracruz,19.1738,-96.1342,Golfo_Humedo,hourly
2025-11-12 15:00:00+00:00,21.091,74.30509,16.341,0.2,5.8298883,22.44054,1022.7,100.0,,,,1.0,Veracruz,19.1738,-96.1342,Golfo_Humedo,hourly
2025-11-12 16:00:00+00:00,22.941,67.015526,16.491,0.0,5.8104043,24.353872,1022.7,97.0,,,,1.0,Veracruz,19.1738,-96.1342,Golfo_Humedo,hourly
2025-11-12 17:00:00+00:00,25.191,61.593266,17.291,0.0,2.7059932,28.267998,1021.9,99.0,,,,1.0,Veracruz,19.1738,-96.1342,Golfo_Humedo,hourly
2025-11-12 18:00:00+00:00,26.041,61.397793,18.041,0.0,5.9617786,29.157578,1021.0,100.0,,,,1.0,Veracruz,19.1738,-96.1342,Golfo_Humedo,hourly
2025-11-12 19:00:00+00:00,25.841,63.31018,18.341,0.0,7.989242,27.79404,1019.9,78.0,,,,1.0,Veracruz,19.1738,-96.1342,Golfo_Humedo,hourly
2025-11-12 20:00:00+00:00,25.640999,65.28047,18.640999,0.0,10.934166,27.249489,1019.0,73.0,,,,1.0,Veracruz,19.1738,-96.1342,Golfo_Humedo,hourly
2025-11-12 21:00:00+00:00,25.591,64.25582,18.341,0.0,11.712455,26.94732,1018.7,91.0,,,,1.0,Veracruz,19.1738,-96.1342,Golfo_Humedo,hourly
2025-11-12 22:00:00+00:00,25.291,63.588787,17.890999,0.0,10.299397,26.64986,1018.6,100.0,,,,1.0,Veracruz,19.1738,-96.1342,Golfo_Humedo,hourly
2025-11-12 23:00:00+00:00,24.640999,67.78421,18.291,0.0,8.287822,26.474812,1018.8,98.0,,,,1.0,Veracruz,19.1738,-96.1342,Golfo_Humedo,hourly
2025-11-13 00:00:00+00:00,24.941,71.094505,19.341,0.0,6.424764,27.540579,1018.9,99.0,,,,0.0,Veracruz,19.1738,-96.1342,Golfo_Humedo,hourly
2025-11-13 01:00:00+00:00,24.341,77.679924,20.191,0.0,4.0249224,27.712723,1019.6,100.0,,,,0.0,Veracruz,19.1738,-96.1342,Golfo_Humedo,hourly
2025-11-13 02:00:00+00:00,24.091,80.08034,20.441,0.0,3.745557,27.631462,1020.5,98.0,,,,0.0,Veracruz,19.1738,-96.1342,Golfo_Humedo,hourly
2025-11-13 03:00:00+00:00,23.491,81.247826,20.091,0.0,7.579261,26.294666,1021.1,98.0,,,,0.0,Veracruz,19.1738,-96.1342,Golfo_Humedo,hourly
2025-11-13 04:00:00+00:00,23.041,83.745056,20.140999,0.0,4.3536186,26.340801,1021.2,99.0,,,,0.0,Veracruz,19.1738,-96.1342,Golfo_Humedo,hourly
2025-11-13 05:00:00+00:00,22.791,87.14883,20.541,0.0,1.6981165,26.682995,1021.0,100.0,,,,0.0,Veracruz,19.1738,-96.1342,Golfo_Humedo,hourly
2025-11-13 06:00:00+00:00,21.890999,88.70178,19.941,0.0,4.0249224,25.139137,1020.8,98.0,,,,0.0,Veracruz,19.1738,-96.1342,Golfo_Humedo,hourly
2025-11-13 07:00:00+00:00,21.441,90.0525,19.741,0.0,2.968636,24.743961,1020.3,100.0,,,,0.0,Veracruz,19.1738,-96.1342,Golfo_Humedo,hourly
2025-11-13 08:00:00+00:00,21.191,89.75517,19.441,0.1,2.5455842,24.408459,1019.6,100.0,,,,0.0,Veracruz,19.1738,-96.1342,Golfo_Humedo,hourly
2025-11-13 09:00:00+00:00,21.441,87.84222,19.341,0.0,1.0948973,24.821207,1019.0,99.0,,,,0.0,Veracruz,19.1738,-96.1342,Golfo_Humedo,hourly
2025-11-13 10:00:00+00:00,21.541,86.4946,19.191,0.0,0.35999998,24.955887,1018.7,50.0,,,,0.0,Veracruz,19.1738,-96.1342,Golfo_Humedo,hourly
2025-11-13 11:00:00+00:00,21.441,85.94739,18.991,0.0,0.25455844,24.775723,1018.7,50.0,,,,0.0,Veracruz,19.1738,-96.1342,Golfo_Humedo,hourly
2025-11-13 12:00:00+00:00,20.191,88.28609,18.191,0.0,3.7585104,22.64348,1019.6,81.0,,,,0.0,Veracruz,19.1738,-96.1342,Golfo_Humedo,hourly
2025-11-13 13:00:00+00:00,20.941,85.62922,18.441,0.0,5.9834766,23.18302,1020.2,98.0,,,,1.0,Veracruz,19.1738,-96.1342,Golfo_Humedo,hourly
2025-11-13 14:00:00+00:00,22.640999,83.18227,19.640999,0.0,3.693291,25.787798,1021.1,100.0,,,,1.0,Veracruz,19.1738,-96.1342,Golfo_Humedo,hourly
2025-11-13 15:00:00+00:00,23.841,77.12552,19.591,0.0,3.4623692,26.995705,1021.6,100.0,,,,1.0,Veracruz,19.1738,-96.1342,Golfo_Humedo,hourly
2025-11-13 16:00:00+00:00,25.140999,71.13106,19.541,0.1,4.6277857,28.09985,1021.7,100.0,,,,1.0,Veracruz,19.1738,-96.1342,Golfo_Humedo,hourly
2025-11-13 17:00:00+00:00,25.390999,70.736496,19.691,0.5,8.6193495,28.238834,1021.3,100.0,,,,1.0,Veracruz,19.1738,-96.1342,Golfo_Humedo,hourly
2025-11-13 18:00:00+00:00,25.491,71.19486,19.890999,0.5,10.233123,27.828156,1020.8,99.0,,,,1.0,Veracruz,19.1738,-96.1342,Golfo_Humedo,hourly
2025-11-13 19:00:00+00:00,25.341,73.86001,20.341,0.1,8.604301,28.32201,1019.7,96.0,,,,1.0,Veracruz,19.1738,-96.1342,Golfo_Humedo,hourly
2025-11-13 20:00:00+00:00,25.741,68.85301,19.591,0.0,9.187056,28.54647,1018.8,99.0,,,,1.0,Veracruz,19.1738,-96.1342,Golfo_Humedo,hourly
2025-11-13 21:00:00+00:00,25.691,69.272194,19.640999,0.0,10.950452,27.907383,1018.5,92.0,,,,1.0,Veracruz,19.1738,-96.1342,Golfo_Humedo,hourly
2025-11-13 22:00:00+00:00,25.241,72.48526,19.941,0.0,12.157663,27.299692,1018.1,99.0,,,,1.0,Veracruz,19.1738,-96.1342,Golfo_Humedo,hourly
2025-11-13 23:00:00+00:00,24.741,74.91039,19.991,0.0,12.399113,26.7901,1018.4,98.0,,,,1.0,Veracruz,19.1738,-96.1342,Golfo_Humedo,hourly
2025-11-14 00:00:00+00:00,24.541,77.70948,20.390999,0.0,9.044888,27.282463,1018.5,83.0,,,,0.0,Veracruz,19.1738,-96.1342,Golfo_Humedo,hourly
2025-11-14 01:00:00+00:00,24.241,80.59548,20.691,0.0,8.28,27.2495,1019.0,69.0,,,,0.0,Veracruz,19.1738,-96.1342,Golfo_Humedo,hourly
2025-11-14 02:00:00+00:00,24.241,80.10047,20.591,0.0,6.8423676,27.407154,1019.6,23.0,,,,0.0,Veracruz,19.1738,-96.1342,Golfo_Humedo,hourly
2025-11-14 03:00:00+00:00,24.091,80.32773,20.491,0.1,6.6818557,27.229008,1020.2,35.0,,,,0.0,Veracruz,19.1738,-96.1342,Golfo_Humedo,hourly
2025-11-14 04:00:00+00:00,23.640999,83.297646,20.640999,0.0,4.5,27.17537,1020.4,38.0,,,,0.0,Veracruz,19.1738,-96.1342,Golfo_Humedo,hourly
2025-11-14 05:00:00+00:00,22.991,86.09945,20.541,0.0,3.6,26.605434,1020.1,100.0,,,,0.0,Veracruz,19.1738,-96.1342,Golfo_Humedo,hourly
2025-11-14 06:00:00+00:00,22.491,88.20424,20.441,0.1,0.40249225,26.520649,1019.5,100.0,,,,0.0,Veracruz,19.1738,-96.1342,Golfo_Humedo,hourly
2025-11-14 07:00:00+00:00,22.091,90.65651,20.491,0.0,2.5959969,25.826908,1019.0,90.0,,,,0.0,Veracruz,19.1738,-96.1342,Golfo_Humedo,hourly
2025-11-14 08:00:00+00:00,21.991,90.92995,20.441,0.0,4.8466477,25.373024,1018.2,98.0,,,,0.0,Veracruz,19.1738,-96.1342,Golfo_Humedo,hourly
2025-11-14 09:00:00+00:00,21.741,91.19496,20.241,0.0,3.9966488,25.14486,1017.7,39.0,,,,0.0,Veracruz,19.1738,-96.1342,Golfo_Humedo,hourly
2025-11-14 10:00:00+00:00,21.341,92.59188,20.091,0.0,2.7059932,24.857397,1017.6,20.0,,,,0.0,Veracruz,19.1738,-96.1342,Golfo_Humedo,hourly
2025-11-14 11:00:00+00:00,21.241,92.87348,20.041,0.0,2.2768397,24.794857,1017.7,86.0,,,,0.0,Veracruz,19.1738,-96.1342,Golfo_Humedo,hourly
2025-11-14 12:00:00+00:00,20.841,90.290245,19.191,0.0,5.8603754,23.454319,1018.4,100.0,,,,0.0,Veracruz,19.1738,-96.1342,Golfo_Humedo,hourly
2025-11-14 13:00:00+00:00,21.140999,89.19479,19.291,0.0,6.1437774,23.760958,1019.1,99.0,,,,1.0,Veracruz,19.1738,-96.1342,Golfo_Humedo,hourly
2025-11-14 14:00:00+00:00,22.941,83.733826,20.041,0.0,5.2416787,26.06091,1019.9,100.0,,,,1.0,Veracruz,19.1738,-96.1342,Golfo_Humedo,hourly
2025-11-14 15:00:00+00:00,24.441,76.97771,20.140999,0.0,3.8183763,27.817394,1020.4,99.0,,,,1.0,Veracruz,19.1738,-96.1342,Golfo_Humedo,hourly
2025-11-14 16:00:00+00:00,25.241,72.71004,19.991,0.2,1.659518,28.855736,1020.4,100.0,,,,1.0,Veracruz,19.1738,-96.1342,Golfo_Humedo,hourly
2025-11-14 17:00:00+00:00,25.841,69.516045,19.841,0.2,4.2021427,29.311783,1019.7,100.0,,,,1.0,Veracruz,19.1738,-96.1342,Golfo_Humedo,hourly
2025-11-14 18:00:00+00:00,26.390999,68.3416,20.091,0.2,6.384293,30.045288,1018.8,100.0,,,,1.0,Veracruz,19.1738,-96.1342,Golfo_Humedo,hourly
2025-11-14 19:00:00+00:00,26.441,68.988014,20.291,0.2,8.043805,29.658775,1017.7,97.0,,,,1.0,Veracruz,19.1738,-96.1342,Golfo_Humedo,hourly
2025-11-14 20:00:00+00:00,26.691,66.729454,19.991,0.1,8.738811,29.804596,1016.7,94.0,,,,1.0,Veracruz,19.1738,-96.1342,Golfo_Humedo,hourly
2025-11-14 21:00:00+00:00,26.491,67.31172,19.941,0.0,9.109138,28.99281,1016.0,95.0,,,,1.0,Veracruz,19.1738,-96.1342,Golfo_Humedo,hourly
2025-11-14 22:00:00+00:00,26.341,67.7,19.890999,0.0,8.557102,28.898502,1015.7,94.0,,,,1.0,Veracruz,19.1738,-96.1342,Golfo_Humedo,hourly
2025-11-14 23:00:00+00:00,25.691,70.791756,19.991,0.0,8.557102,28.299324,1015.5,89.0,,,,1.0,Veracruz,19.1738,-96.1342,Golfo_Humedo,hourly
2025-11-15 00:00:00+00:00,25.241,78.0517,21.140999,0.0,8.967541,28.385548,1016.3,92.0,,,,0.0,Veracruz,19.1738,-96.1342,Golfo_Humedo,hourly
2025-11-15 01:00:00+00:00,25.390999,76.649055,20.991,0.0,6.2145634,28.85704,1017.0,100.0,,,,0.0,Veracruz,19.1738,-96.1342,Golfo_Humedo,hourly
2025-11-15 02:00:00+00:00,25.390999,75.47951,20.741,0.0,4.7110505,28.94474,1017.8,100.0,,,,0.0,Veracruz,19.1738,-96.1342,Golfo_Humedo,hourly
2025-11-15 03:00:00+00:00,25.140999,78.51779,21.140999,0.0,3.438895,29.091927,1018.2,100.0,,,,0.0,Veracruz,19.1738,-96.1342,Golfo_Humedo,hourly
2025-11-15 04:00:00+00:00,25.341,77.11377,21.041,0.0,0.8049845,29.622528,1018.3,100.0,,,,0.0,Veracruz,19.1738,-96.1342,Golfo_Humedo,hourly
2025-11-15 05:00:00+00:00,24.541,80.6347,20.991,0.0,2.7238941,28.517109,1018.1,100.0,,,,0.0,Veracruz,19.1738,-96.1342,Golfo_Humedo,hourly
2025-11-15 06:00:00+00:00,23.691,85.116066,21.041,0.0,8.260411,26.887192,1017.8,100.0,,,,0.0,Veracruz,19.1738,-96.1342,Golfo_Humedo,hourly
2025-11-15 07:00:00+00:00,22.991,90.16255,21.291,0.0,9.172938,26.188616,1017.2,100.0,,,,0.0,Veracruz,19.1738,-96.1342,Golfo_Humedo,hourly
2025-11-15 08:00:00+00:00,22.541,91.5263,21.091,0.0,9.734987,25.54998,1016.4,100.0,,,,0.0,Veracruz,19.1738,-96.1342,Golfo_Humedo,hourly
2025-11-15 09:00:00+00:00,22.491,89.57411,20.691,0.0,7.689603,25.587442,1015.5,100.0,,,,0.0,Veracruz,19.1738,-96.1342,Golfo_Humedo,hourly
2025-11-15 10:00:00+00:00,22.341,88.73792,20.390999,0.0,5.4477882,25.609331,1015.2,100.0,,,,0.0,Veracruz,19.1738,-96.1342,Golfo_Humedo,hourly
2025-11-15 11:00:00+00:00,22.091,88.44389,20.091,0.0,5.0688457,25.262136,1015.1,100.0,,,,0.0,Veracruz,19.1738,-96.1342,Golfo_Humedo,hourly
2025-11-15 12:00:00+00:00,22.491,87.39118,20.291,0.0,1.659518,26.26047,1015.6,100.0,,,,0.0,Veracruz,19.1738,-96.1342,Golfo_Humedo,hourly
2025-11-15 13:00:00+00:00,23.091,88.797844,21.140999,0.0,4.1556225,26.93974,1016.2,100.0,,,,1.0,Veracruz,19.1738,-96.1342,Golfo_Humedo,hourly
2025-11-15 14:00:00+00:00,24.341,82.868126,21.241,0.0,7.7734165,27.71432,1016.8,100.0,,,,1.0,Veracruz,19.1738,-96.1342,Golfo_Humedo,hourly
2025-11-15 15:00:00+00:00,25.941,73.281555,20.791,0.0,6.8399997,29.20977,1017.2,86.0,,,,1.0,Veracruz,19.1738,-96.1342,Golfo_Humedo,hourly
2025-11-15 16:00:00+00:00,27.191,66.2148,20.341,0.0,1.7076298,30.97369,1017.0,58.0,,,,1.0,Veracruz,19.1738,-96.1342,Golfo_Humedo,hourly
2025-11-15 17:00:00+00:00,28.041,61.084988,19.841,0.0,3.381893,31.927795,1016.3,97.0,,,,1.0,Veracruz,19.1738,-96.1342,Golfo_Humedo,hourly
2025-11-15 18:00:00+00:00,28.640999,58.262672,19.640999,0.0,8.709098,31.997524,1014.9,59.0,,,,1.0,Veracruz,19.1738,-96.1342,Golfo_Humedo,hourly
2025-11-15 19:00:00+00:00,28.541,59.333485,19.841,0.0,11.792404,31.273327,1013.8,100.0,,,,1.0,Veracruz,19.1738,-96.1342,Golfo_Humedo,hourly
2025-11-15 20:00:00+00:00,27.890999,61.812977,19.890999,0.0,13.288341,29.756603,1013.0,100.0,,,,1.0,Veracruz,19.1738,-96.1342,Golfo_Humedo,hourly
2025-11-15 21:00:00+00:00,27.741,62.35673,19.890999,0.0,13.543131,29.569637,1012.3,99.0,,,,1.0,Veracruz,19.1738,-96.1342,Golfo_Humedo,hourly
2025-11-15 22:00:00+00:00,27.291,64.418365,19.991,0.0,13.441071,29.185135,1012.0,71.0,,,,1.0,Veracruz,19.1738,-96.1342,Golfo_Humedo,hourly
2025-11-15 23:00:00+00:00,26.390999,71.798416,20.890999,0.0,14.618837,28.57734,1012.3,85.0,,,,1.0,Veracruz,19.1738,-96.1342,Golfo_Humedo,hourly
2025-11-16 00:00:00+00:00,25.791,77.41794,21.541,0.0,13.842457,28.439884,1012.7,85.0,,,,0.0,Veracruz,19.1738,-96.1342,Golfo_Humedo,hourly
2025-11-16 01:00:00+00:00,25.491,81.500206,22.091,0.0,11.966954,28.718376,1013.3,98.0,,,,0.0,Veracruz,19.1738,-96.1342,Golfo_Humedo,hourly
2025-11-16 02:00:00+00:00,25.291,83.485535,22.291,0.0,10.966713,28.777512,1014.1,98.0,,,,0.0,Veracruz,19.1738,-96.1342,Golfo_Humedo,hourly
2025-11-16 03:00:00+00:00,25.091,85.77933,22.541,0.0,11.238113,28.681156,1014.5,100.0,,,,0.0,Veracruz,19.1738,-96.1342,Golfo_Humedo,hourly
2025-11-16 04:00:00+00:00,24.691,88.11849,22.591,0.0,8.139901,28.762325,1014.5,100.0,,,,0.0,Veracruz,19.1738,-96.1342,Golfo_Humedo,hourly
2025-11-16 05:00:00+00:00,23.941,91.61133,22.491,0.0,5.7852573,28.299076,1014.3,98.0,,,,0.0,Veracruz,19.1738,-96.1342,Golfo_Humedo,hourly
2025-11-16 06:00:00+00:00,23.140999,94.6867,22.241,0.1,6.4624763,27.258648,1013.6,76.0,,,,0.0,Veracruz,19.1738,-96.1342,Golfo_Humedo,hourly
2025-11-16 07:00:00+00:00,22.991,93.533066,21.890999,0.0,4.752136,27.161736,1013.2,99.0,,,,0.0,Veracruz,19.1738,-96.1342,Golfo_Humedo,hourly
2025-11-16 08:00:00+00:00,22.791,93.23819,21.640999,0.0,6.898956,26.51075,1012.7,100.0,,,,0.0,Veracruz,19.1738,-96.1342,Golfo_Humedo,hourly
2025-11-16 09:00:00+00:00,22.541,93.51182,21.441,0.0,6.698806,26.181025,1011.9,100.0,,,,0.0,Veracruz,19.1738,-96.1342,Golfo_Humedo,hourly
2025-11-16 10:00:00+00:00,22.291,93.499985,21.191,0.0,7.1208143,25.734898,1011.7,100.0,,,,0.0,Veracruz,19.1738,-96.1342,Golfo_Humedo,hourly
2025-11-16 11:00:00+00:00,22.140999,93.49285,21.041,0.0,5.896202,25.683594,1011.6,99.0,,,,0.0,Veracruz,19.1738,-96.1342,Golfo_Humedo,hourly
2025-11-16 12:00:00+00:00,21.841,93.47854,20.741,0.0,7.1321807,25.045477,1012.3,100.0,,,,0.0,Veracruz,19.1738,-96.1342,Golfo_Humedo,hourly
2025-11-16 13:00:00+00:00,21.841,93.19119,20.691,0.0,7.995323,24.89349,1012.9,98.0,,,,1.0,Veracruz,19.1738,-96.1342,Golfo_Humedo,hourly
2025-11-16 14:00:00+00:00,23.390999,86.4034,20.991,0.0,7.891311,26.614809,1013.3,4.0,,,,1.0,Veracruz,19.1738,-96.1342,Golfo_Humedo,hourly
2025-11-16 15:00:00+00:00,25.341,79.51419,21.541,0.0,6.945761,28.996223,1013.4,1.0,,,,1.0,Veracruz,19.1738,-96.1342,Golfo_Humedo,hourly
2025-11-16 16:00:00+00:00,27.041,72.79889,21.741,0.0,9.321845,30.463043,1013.5,38.0,,,,1.0,Veracruz,19.1738,-96.1342,Golfo_Humedo,hourly
2025-11-16 17:00:00+00:00,28.541,64.28704,21.140999,0.0,9.224011,32.42469,1012.7,89.0,,,,1.0,Veracruz,19.1738,-96.1342,Golfo_Humedo,hourly
2025-11-16 18:00:00+00:00,28.890999,62.609505,21.041,0.0,10.152064,32.57892,1011.7,79.0,,,,1.0,Veracruz,19.1738,-96.1342,Golfo_Humedo,hourly
2025-11-16 19:00:00+00:00,28.841,62.98424,21.091,0.0,11.7,31.555592,1010.3,99.0,,,,1.0,Veracruz,19.1738,-96.1342,Golfo_Humedo,hourly
2025-11-16 20:00:00+00:00,28.291,68.70992,21.991,0.0,14.2336645,31.127846,1009.8,77.0,,,,1.0,Veracruz,19.1738,-96.1342,Golfo_Humedo,hourly
2025-11-16 21:00:00+00:00,27.341,73.29595,22.140999,0.0,15.481048,30.08149,1009.4,53.0,,,,1.0,Veracruz,19.1738,-96.1342,Golfo_Humedo,hourly
2025-11-16 22:00:00+00:00,27.291,72.17841,21.841,0.0,13.684735,30.12587,1009.3,4.0,,,,1.0,Veracruz,19.1738,-96.1342,Golfo_Humedo,hourly
2025-11-16 23:00:00+00:00,26.591,74.980286,21.791,0.0,12.849528,29.520954,1009.8,2.0,,,,1.0,Veracruz,19.1738,-96.1342,Golfo_Humedo,hourly
2025-11-17 00:00:00+00:00,26.041,83.06566,22.941,0.0,9.6480665,30.094463,1010.3,51.0,,,,0.0,Veracruz,19.1738,-96.1342,Golfo_Humedo,hourly
2025-11-17 01:00:00+00:00,25.791,85.33084,23.140999,0.0,9.984729,29.91394,1011.1,89.0,,,,0.0,Veracruz,19.1738,-96.1342,Golfo_Humedo,hourly
2025-11-17 02:00:00+00:00,25.640999,85.5742,23.041,0.0,10.735306,29.59542,1012.0,73.0,,,,0.0,Veracruz,19.1738,-96.1342,Golfo_Humedo,hourly
2025-11-17 03:00:00+00:00,25.640999,82.76771,22.491,0.0,10.484903,29.31152,1012.5,70.0,,,,0.0,Veracruz,19.1738,-96.1342,Golfo_Humedo,hourly
2025-11-17 04:00:00+00:00,25.640999,83.77879,22.691,0.0,9.290511,29.60114,1012.6,11.0,,,,0.0,Veracruz,19.1738,-96.1342,Golfo_Humedo,hourly
2025-11-17 05:00:00+00:00,25.390999,86.59192,22.991,0.0,6.7397914,29.898926,1012.5,21.0,,,,0.0,Veracruz,19.1738,-96.1342,Golfo_Humedo,hourly
2025-11-17 06:00:00+00:00,24.841,90.29154,23.140999,0.0,4.846648,29.714554,1012.3,19.0,,,,0.0,Veracruz,19.1738,-96.1342,Golfo_Humedo,hourly
2025-11-17 07:00:00+00:00,24.341,92.75142,23.091,0.0,2.8856194,29.471523,1011.9,34.0,,,,0.0,Veracruz,19.1738,-96.1342,Golfo_Humedo,hourly
2025-11-17 08:00:00+00:00,24.091,93.01964,22.890999,0.0,2.6208394,29.14252,1011.3,24.0,,,,0.0,Veracruz,19.1738,-96.1342,Golfo_Humedo,hourly
2025-11-17 09:00:00+00:00,23.640999,93.5636,22.541,0.0,2.1749482,28.554695,1010.7,15.0,,,,0.0,Veracruz,19.1738,-96.1342,Golfo_Humedo,hourly
2025-11-17 10:00:00+00:00,23.341,92.69881,22.091,0.0,6.9153743,27.307709,1010.7,63.0,,,,0.0,Veracruz,19.1738,-96.1342,Golfo_Humedo,hourly
2025-11-17 11:00:00+00:00,23.091,93.537766,21.991,0.0,7.0015144,26.98936,1010.7,96.0,,,,0.0,Veracruz,19.1738,-96.1342,Golfo_Humedo,hourly
2025-11-17 12:00:00+00:00,22.640999,93.803085,21.591,0.0,6.151683,26.442488,1011.6,98.0,,,,0.0,Veracruz,19.1738,-96.1342,Golfo_Humedo,hourly
2025-11-17 13:00:00+00:00,22.691,93.23327,21.541,0.0,5.8048253,26.515682,1012.1,100.0,,,,1.0,Veracruz,19.1738,-96.1342,Golfo_Humedo,hourly
2025-11-17 14:00:00+00:00,23.741,91.04342,22.191,0.0,5.7628117,27.931694,1012.7,82.0,,,,1.0,Veracruz,19.1738,-96.1342,Golfo_Humedo,hourly
2025-11-17 15:00:00+00:00,25.841,83.04258,22.741,0.0,3.7585104,30.636665,1013.0,76.0,,,,1.0,Veracruz,19.1738,-96.1342,Golfo_Humedo,hourly
2025-11-17 16:00:00+00:00,27.591,74.23501,22.591,0.0,0.0,32.845345,1013.2,78.0,,,,1.0,Veracruz,19.1738,-96.1342,Golfo_Humedo,hourly
2025-11-17 17:00:00+00:00,28.640999,68.56826,22.291,0.0,5.2694216,33.69156,1012.5,86.0,,,,1.0,Veracruz,19.1738,-96.1342,Golfo_Humedo,hourly
2025-11-17 18:00:00+00:00,28.291,73.67929,23.140999,0.0,8.338489,32.727764,1012.1,93.0,,,,1.0,Veracruz,19.1738,-96.1342,Golfo_Humedo,hourly
2025-11-17 19:00:00+00:00,28.991,71.17496,23.241,0.0,10.474082,34.03382,1011.1,100.0,,,,1.0,Veracruz,19.1738,-96.1342,Golfo_Humedo,hourly
2025-11-17 20:00:00+00:00,28.441,72.37966,22.991,0.0,13.202726,32.259907,1010.3,70.0,,,,1.0,Veracruz,19.1738,-96.1342,Golfo_Humedo,hourly
2025-11-17 21:00:00+00:00,28.441,69.15859,22.241,0.0,11.879999,31.767101,1010.0,16.0,,,,1.0,Veracruz,19.1738,-96.1342,Golfo_Humedo,hourly
2025-11-17 22:00:00+00:00,27.890999,70.11609,21.941,0.0,10.299397,31.274284,1009.6,21.0,,,,1.0,Veracruz,19.1738,-96.1342,Golfo_Humedo,hourly
2025-11-17 23:00:00+00:00,27.140999,74.386795,22.191,0.0,10.259999,30.671387,1010.0,13.0,,,,1.0,Veracruz,19.1738,-96.1342,Golfo_Humedo,hourly
2025-11-18 00:00:00+00:00,26.541,86.17971,24.041,0.0,10.261578,31.170155,1010.6,90.0,,,,0.0,Veracruz,19.1738,-96.1342,Golfo_Humedo,hourly
2025-11-18 01:00:00+00:00,26.441,85.91155,23.890999,0.0,11.588701,30.783676,1011.1,5.0,,,,0.0,Veracruz,19.1738,-96.1342,Golfo_Humedo,hourly
2025-11-18 02:00:00+00:00,26.390999,86.42473,23.941,0.0,12.849528,30.58083,1012.1,2.0,,,,0.0,Veracruz,19.1738,-96.1342,Golfo_Humedo,hourly
2025-11-18 03:00:00+00:00,26.191,89.04061,24.241,0.0,12.224107,30.659771,1012.9,33.0,,,,0.0,Veracruz,19.1738,-96.1342,Golfo_Humedo,hourly
2025-11-18 04:00:00+00:00,26.041,89.83385,24.241,0.0,10.814989,30.715496,1013.4,15.0,,,,0.0,Veracruz,19.1738,-96.1342,Golfo_Humedo,hourly
2025-11-18 05:00:00+00:00,25.941,90.09653,24.191,0.0,8.4963045,30.922348,1013.5,10.0,,,,0.0,Veracruz,19.1738,-96.1342,Golfo_Humedo,hourly
2025-11-18 06:00:00+00:00,25.291,93.07988,24.091,0.0,6.12,30.557213,1013.3,16.0,,,,0.0,Veracruz,19.1738,-96.1342,Golfo_Humedo,hourly
2025-11-18 07:00:00+00:00,24.890999,94.75414,23.991,0.0,5.232399,30.22491,1013.0,35.0,,,,0.0,Veracruz,19.1738,-96.1342,Golfo_Humedo,hourly
2025-11-18 08:00:00+00:00,24.441,95.02283,23.591,0.1,4.896529,29.57848,1012.7,81.0,,,,0.0,Veracruz,19.1738,-96.1342,Golfo_Humedo,hourly
2025-11-18 09:00:00+00:00,24.491,94.738846,23.591,0.1,4.1556225,29.736458,1012.3,100.0,,,,0.0,Veracruz,19.1738,-96.1342,Golfo_Humedo,hourly
2025-11-18 10:00:00+00:00,24.691,93.894806,23.640999,0.0,4.542994,29.910164,1012.3,100.0,,,,0.0,Veracruz,19.1738,-96.1342,Golfo_Humedo,hourly
2025-11-18 11:00:00+00:00,24.591,95.601715,23.841,0.0,6.2483597,29.6843,1012.5,100.0,,,,0.0,Veracruz,19.1738,-96.1342,Golfo_Humedo,hourly
2025-11-18 12:00:00+00:00,23.941,94.431526,22.991,0.0,3.0758414,28.985168,1012.9,100.0,,,,0.0,Veracruz,19.1738,-96.1342,Golfo_Humedo,hourly
2025-11-18 13:00:00+00:00,24.291,93.31143,23.140999,0.0,5.0432134,29.136612,1013.8,100.0,,,,1.0,Veracruz,19.1738,-96.1342,Golfo_Humedo,hourly
2025-11-18 14:00:00+00:00,25.541,90.61173,23.890999,0.0,4.7657523,30.880035,1014.6,100.0,,,,1.0,Veracruz,19.1738,-96.1342,Golfo_Humedo,hourly
2025-11-18 15:00:00+00:00,26.890999,83.413704,23.841,0.0,4.1046314,32.293537,1015.2,100.0,,,,1.0,Veracruz,19.1738,-96.1342,Golfo_Humedo,hourly
2025-11-18 16:00:00+00:00,28.191,75.23697,23.390999,0.2,4.802999,33.21548,1015.3,100.0,,,,1.0,Veracruz,19.1738,-96.1342,Golfo_Humedo,hourly
2025-11-18 17:00:00+00:00,29.491,67.69953,22.890999,0.0,3.6,34.834583,1014.8,99.0,,,,1.0,Veracruz,19.1738,-96.1342,Golfo_Humedo,hourly
2025-11-18 18:00:00+00:00,29.841,64.95477,22.541,0.0,5.223103,35.507072,1013.9,64.0,,,,1.0,Veracruz,19.1738,-96.1342,Golfo_Humedo,hourly
2025-11-18 19:00:00+00:00,29.991,69.24266,23.741,0.1,9.708326,35.650837,1013.1,70.0,,,,1.0,Veracruz,19.1738,-96.1342,Golfo_Humedo,hourly
2025-11-18 20:00:00+00:00,29.591,71.06852,23.791,0.0,11.866355,34.25289,1012.4,18.0,,,,1.0,Veracruz,19.1738,-96.1342,Golfo_Humedo,hourly
2025-11-18 21:00:00+00:00,29.241,69.52012,23.091,0.0,14.096425,32.72932,1012.0,33.0,,,,1.0,Veracruz,19.1738,-96.1342,Golfo_Humedo,hourly
2025-11-18 22:00:00+00:00,28.341,73.910614,23.241,0.0,13.934604,31.943607,1011.8,5.0,,,,1.0,Veracruz,19.1738,-96.1342,Golfo_Humedo,hourly
2025-11-18 23:00:00+00:00,27.441,81.00818,23.890999,0.0,12.496719,31.649685,1012.2,6.0,,,,1.0,Veracruz,19.1738,-96.1342,Golfo_Humedo,hourly
2025-11-19 00:00:00+00:00,26.591,88.27576,24.491,0.0,12.043869,31.243874,1012.8,11.0,,,,0.0,Veracruz,19.1738,-96.1342,Golfo_Humedo,hourly
2025-11-19 01:00:00+00:00,26.491,87.74028,24.291,0.0,11.966953,31.028324,1013.7,16.0,,,,0.0,Veracruz,19.1738,-96.1342,Golfo_Humedo,hourly
2025-11-19 02:00:00+00:00,26.390999,87.9952,24.241,0.0,13.321216,30.69946,1014.9,12.0,,,,0.0,Veracruz,19.1738,-96.1342,Golfo_Humedo,hourly
2025-11-19 03:00:00+00:00,26.341,89.31918,24.441,0.0,11.409785,31.054886,1015.6,10.0,,,,0.0,Veracruz,19.1738,-96.1342,Golfo_Humedo,hourly
2025-11-19 04:00:00+00:00,25.991,91.45956,24.491,0.0,5.1826253,31.645416,1016.1,17.0,,,,0.0,Veracruz,19.1738,-96.1342,Golfo_Humedo,hourly
2025-11-19 05:00:00+00:00,25.241,94.20115,24.241,0.0,0.9693296,31.35252,1016.2,33.0,,,,0.0,Veracruz,19.1738,-96.1342,Golfo_Humedo,hourly
2025-11-19 06:00:00+00:00,25.191,94.48193,24.241,0.0,1.9469976,31.160019,1015.7,4.0,,,,0.0,Veracruz,19.1738,-96.1342,Golfo_Humedo,hourly
2025-11-19 07:00:00+00:00,25.091,95.90458,24.390999,0.0,3.84796,30.87778,1015.5,65.0,,,,0.0,Veracruz,19.1738,-96.1342,Golfo_Humedo,hourly
2025-11-19 08:00:00+00:00,24.591,97.34025,24.140999,0.1,6.9480934,29.768738,1015.2,72.0,,,,0.0,Veracruz,19.1738,-96.1342,Golfo_Humedo,hourly
2025-11-19 09:00:00+00:00,24.140999,97.33142,23.691,0.0,5.7964473,29.208668,1014.9,55.0,,,,0.0,Veracruz,19.1738,-96.1342,Golfo_Humedo,hourly
2025-11-19 10:00:00+00:00,24.041,96.45324,23.441,0.0,5.8769383,28.945091,1014.8,30.0,,,,0.0,Veracruz,19.1738,-96.1342,Golfo_Humedo,hourly
2025-11-19 11:00:00+00:00,24.041,96.162704,23.390999,0.0,7.16617,28.726921,1015.2,29.0,,,,0.0,Veracruz,19.1738,-96.1342,Golfo_Humedo,hourly
2025-11-19 12:00:00+00:00,23.591,98.20661,23.291,0.0,2.4014995,28.91227,1015.7,84.0,,,,0.0,Veracruz,19.1738,-96.1342,Golfo_Humedo,hourly
2025-11-19 13:00:00+00:00,24.191,99.40174,24.091,0.2,1.8792552,30.077213,1016.2,100.0,,,,1.0,Veracruz,19.1738,-96.1342,Golfo_Humedo,hourly
2025-11-19 14:00:00+00:00,25.291,94.76937,24.390999,0.1,4.379589,30.999954,1016.8,62.0,,,,1.0,Veracruz,19.1738,-96.1342,Golfo_Humedo,hourly
2025-11-19 15:00:00+00:00,26.341,88.255226,24.241,0.1,2.5959969,32.213634,1017.5,44.0,,,,1.0,Veracruz,19.1738,-96.1342,Golfo_Humedo,hourly
2025-11-19 16:00:00+00:00,27.291,80.74572,23.691,0.1,3.0811036,32.750057,1017.8,23.0,,,,1.0,Veracruz,19.1738,-96.1342,Golfo_Humedo,hourly
2025-11-19 17:00:00+00:00,28.241,75.24494,23.441,0.3,6.6405115,33.458015,1017.1,36.0,,,,1.0,Veracruz,19.1738,-96.1342,Golfo_Humedo,hourly
2025-11-19 18:00:00+00:00,28.691,72.20467,23.191,0.1,8.587338,33.79119,1016.3,13.0,,,,1.0,Veracruz,19.1738,-96.1342,Golfo_Humedo,hourly
2025-11-19 19:00:00+00:00,28.941,70.09782,22.941,0.0,11.1090765,33.777424,1015.4,17.0,,,,1.0,Veracruz,19.1738,-96.1342,Golfo_Humedo,hourly
2025-11-19 20:00:00+00:00,28.741,71.56162,23.091,0.0,11.465024,33.399296,1014.3,13.0,,,,1.0,Veracruz,19.1738,-96.1342,Golfo_Humedo,hourly
2025-11-19 21:00:00+00:00,28.390999,73.69604,23.241,0.0,12.522619,32.38265,1014.0,9.0,,,,1.0,Veracruz,19.1738,-96.1342,Golfo_Humedo,hourly
2025-11-19 22:00:00+00:00,27.890999,75.87397,23.241,0.0,12.791403,31.661045,1014.0,6.0,,,,1.0,Veracruz,19.1738,-96.1342,Golfo_Humedo,hourly
2025-11-19 23:00:00+00:00,27.291,77.6393,23.041,0.0,10.874741,31.22268,1014.3,5.0,,,,1.0,Veracruz,19.1738,-96.1342,Golfo_Humedo,hourly
2025-11-20 00:00:00+00:00,26.541,82.125565,23.241,0.0,8.12197,30.99408,1014.8,3.0,,,,0.0,Veracruz,19.1738,-96.1342,Golfo_Humedo,hourly
2025-11-20 01:00:00+00:00,26.341,84.10954,23.441,0.0,6.2145634,31.192642,1015.4,2.0,,,,0.0,Veracruz,19.1738,-96.1342,Golfo_Humedo,hourly
2025-11-20 02:00:00+00:00,26.341,83.856186,23.390999,0.0,6.391901,31.136635,1016.5,3.0,,,,0.0,Veracruz,19.1738,-96.1342,Golfo_Humedo,hourly
2025-11-20 03:00:00+00:00,26.241,83.845184,23.291,0.0,4.6834598,31.225876,1017.1,15.0,,,,0.0,Veracruz,19.1738,-96.1342,Golfo_Humedo,hourly
2025-11-20 04:00:00+00:00,25.640999,86.35393,23.191,0.0,2.1674871,30.933914,1017.3,26.0,,,,0.0,Veracruz,19.1738,-96.1342,Golfo_Humedo,hourly
2025-11-20 05:00:00+00:00,25.140999,87.62407,22.941,0.0,1.781909,30.342857,1017.0,7.0,,,,0.0,Veracruz,19.1738,-96.1342,Golfo_Humedo,hourly
2025-11-12 06:00:00+00:00,10.418,68.26015,4.818,0.0,9.172938,7.8249846,1025.4,52.0,,,,0.0,Queretaro,20.5888,-100.3899,Bajio_Templado,hourly
2025-11-12 07:00:00+00:00,9.518001,74.28596,5.1679997,0.0,7.970972,7.1741304,1024.9,24.0,,,,0.0,Queretaro,20.5888,-100.3899,Bajio_Templado,hourly
2025-11-12 08:00:00+00:00,8.718,80.05,5.468,0.0,6.7853074,6.6116,1024.6,38.0,,,,0.0,Queretaro,20.5888,-100.3899,Bajio_Templado,hourly
2025-11-12 09:00:00+00:00,8.018001,85.40588,5.718,0.0,6.4624763,6.0133715,1024.1,36.0,,,,0.0,Queretaro,20.5888,-100.3899,Bajio_Templado,hourly
2025-11-12 10:00:00+00:00,7.318,89.88949,5.768,0.0,6.1120534,5.375448,1024.1,88.0,,,,0.0,Queretaro,20.5888,-100.3899,Bajio_Templado,hourly
2025-11-12 11:00:00+00:00,6.768,93.01782,5.718,0.0,5.3699164,4.922555,1024.3,83.0,,,,0.0,Queretaro,20.5888,-100.3899,Bajio_Templado,hourly
2025-11-12 12:00:00+00:00,5.768,96.92871,5.318,0.0,3.9966488,4.035472,1025.6,72.0,,,,0.0,Queretaro,20.5888,-100.3899,Bajio_Templado,hourly
2025-11-12 13:00:00+00:00,5.818,96.25912,5.268,0.0,4.503598,4.000803,1025.8,41.0,,,,1.0,Queretaro,20.5888,-100.3899,Bajio_Templado,hourly
2025-11-12 14:00:00+00:00,8.668,82.00785,5.768,0.0,3.6,7.091919,1025.9,74.0,,,,1.0,Queretaro,20.5888,-100.3899,Bajio_Templado,hourly
2025-11-12 15:00:00+00:00,13.068001,57.91089,4.968,0.0,3.4763772,11.337095,1025.5,47.0,,,,1.0,Queretaro,20.5888,-100.3899,Bajio_Templado,hourly
2025-11-12 16:00:00+00:00,17.018,37.808487,2.518,0.0,2.9024127,14.8913,1023.9,20.0,,,,1.0,Queretaro,20.5888,-100.3899,Bajio_Templado,hourly
2025-11-12 17:00:00+00:00,20.318,26.460867,0.41799998,0.0,3.5864744,18.822922,1021.7,8.0,,,,1.0,Queretaro,20.5888,-100.3899,Bajio_Templado,hourly
2025-11-12 18:00:00+00:00,22.618,19.505997,-1.832,0.0,5.6920996,21.092033,1019.8,8.0,,,,1.0,Queretaro,20.5888,-100.3899,Bajio_Templado,hourly
2025-11-12 19:00:00+00:00,24.468,17.256004,-1.9820001,0.0,6.989936,22.881308,1017.7,3.0,,,,1.0,Queretaro,20.5888,-100.3899,Bajio_Templado,hourly
2025-11-12 20:00:00+00:00,25.318,18.043001,-0.682,0.0,5.495161,23.908012,1016.2,4.0,,,,1.0,Queretaro,20.5888,-100.3899,Bajio_Templado,hourly
2025-11-12 21:00:00+00:00,25.518,18.965897,0.16799998,0.0,6.7205353,23.32174,1015.4,5.0,,,,1.0,Queretaro,20.5888,-100.3899,Bajio_Templado,hourly
2025-11-12 22:00:00+00:00,25.018,20.184645,0.61800003,0.0,11.892265,21.254555,1015.0,4.0,,,,1.0,Queretaro,20.5888,-100.3899,Bajio_Templado,hourly
2025-11-12 23:00:00+00:00,22.968,24.355808,1.5179999,0.0,18.360882,18.410278,1015.8,8.0,,,,1.0,Queretaro,20.5888,-100.3899,Bajio_Templado,hourly
2025-11-13 00:00:00+00:00,21.268,28.196903,2.118,0.0,16.244936,17.123137,1016.9,11.0,,,,1.0,Queretaro,20.5888,-100.3899,Bajio_Templado,hourly
2025-11-13 01:00:00+00:00,19.368,35.01487,3.518,0.0,14.481893,15.738821,1018.5,13.0,,,,0.0,Queretaro,20.5888,-100.3899,Bajio_Templado,hourly
2025-11-13 02:00:00+00:00,17.768,38.160976,3.3179998,0.0,12.886039,14.3336315,1020.4,10.0,,,,0.0,Queretaro,20.5888,-100.3899,Bajio_Templado,hourly
2025-11-13 03:00:00+00:00,16.668001,36.384354,1.668,0.0,14.311981,12.727739,1021.8,5.0,,,,0.0,Queretaro,20.5888,-100.3899,Bajio_Templado,hourly
2025-11-13 04:00:00+00:00,15.618,34.922516,0.16799998,0.0,12.487641,11.698625,1022.1,0.0,,,,0.0,Queretaro,20.5888,-100.3899,Bajio_Templado,hourly
2025-11-13 05:00:00+00:00,14.468,39.410686,0.81799996,0.0,10.739833,10.907066,1022.4,0.0,,,,0.0,Queretaro,20.5888,-100.3899,Bajio_Templado,hourly
2025-11-13 06:00:00+00:00,13.168,44.610573,1.368,0.0,9.9977,9.806335,1022.7,55.0,,,,0.0,Queretaro,20.5888,-100.3899,Bajio_Templado,hourly
2025-11-13 07:00:00+00:00,12.418,50.682644,2.468,0.0,9.526405,9.316792,1022.3,99.0,,,,0.0,Queretaro,20.5888,-100.3899,Bajio_Templado,hourly
2025-11-13 08:00:00+00:00,11.618,55.352535,2.968,0.0,8.338489,8.781683,1022.2,77.0,,,,0.0,Queretaro,20.5888,-100.3899,Bajio_Templado,hourly
2025-11-13 09:00:00+00:00,10.618,60.202427,3.218,0.0,8.574123,7.7942343,1021.8,73.0,,,,0.0,Queretaro,20.5888,-100.3899,Bajio_Templado,hourly
2025-11-13 10:00:00+00:00,9.818001,63.956406,3.3179998,0.0,8.37532,7.042185,1021.6,47.0,,,,0.0,Queretaro,20.5888,-100.3899,Bajio_Templado,hourly
2025-11-13 11:00:00+00:00,9.218,68.249,3.668,0.0,8.027677,6.5601826,1021.7,83.0,,,,0.0,Queretaro,20.5888,-100.3899,Bajio_Templado,hourly
2025-11-13 12:00:00+00:00,8.818001,69.622734,3.5679998,0.0,5.8104043,6.4641314,1022.8,74.0,,,,0.0,Queretaro,20.5888,-100.3899,Bajio_Templado,hourly
2025-11-13 13:00:00+00:00,8.068,74.55081,3.8179998,0.0,8.383054,5.3875895,1023.3,94.0,,,,1.0,Queretaro,20.5888,-100.3899,Bajio_Templado,hourly
2025-11-13 14:00:00+00:00,10.568001,63.903103,4.018,0.0,8.0899935,7.9699287,1023.8,85.0,,,,1.0,Queretaro,20.5888,-100.3899,Bajio_Templado,hourly
2025-11-13 15:00:00+00:00,14.968,47.74198,3.968,0.0,8.805294,12.255392,1023.8,67.0,,,,1.0,Queretaro,20.5888,-100.3899,Bajio_Templado,hourly
2025-11-13 16:00:00+00:00,18.718,31.520754,1.4679999,0.0,11.165805,15.202122,1022.6,27.0,,,,1.0,Queretaro,20.5888,-100.3899,Bajio_Templado,hourly
2025-11-13 17:00:00+00:00,21.618,21.824553,-1.132,0.0,12.20023,18.455013,1020.8,13.0,,,,1.0,Queretaro,20.5888,-100.3899,Bajio_Templado,hourly
2025-11-13 18:00:00+00:00,23.668001,17.448551,-2.482,0.0,12.245293,20.914598,1019.2,12.0,,,,1.0,Queretaro,20.5888,-100.3899,Bajio_Templado,hourly
2025-11-13 19:00:00+00:00,25.318,15.460236,-2.782,0.0,12.397806,22.68836,1017.4,2.0,,,,1.0,Queretaro,20.5888,-100.3899,Bajio_Templado,hourly
2025-11-13 20:00:00+00:00,25.918001,14.536337,-3.132,0.0,13.523978,22.81363,1016.0,5.0,,,,1.0,Queretaro,20.5888,-100.3899,Bajio_Templado,hourly
2025-11-13 21:00:00+00:00,25.718,15.266158,-2.632,0.0,14.420235,21.91261,1015.3,0.0,,,,1.0,Queretaro,20.5888,-100.3899,Bajio_Templado,hourly
2025-11-13 22:00:00+00:00,24.918001,17.815104,-1.1819999,0.0,14.915039,20.441397,1015.0,1.0,,,,1.0,Queretaro,20.5888,-100.3899,Bajio_Templado,hourly
2025-11-13 23:00:00+00:00,23.368,21.965052,0.41799998,0.0,16.895088,18.843609,1015.6,8.0,,,,1.0,Queretaro,20.5888,-100.3899,Bajio_Templado,hourly
2025-11-14 00:00:00+00:00,21.518,26.698568,1.5680001,0.0,14.857362,17.480108,1016.4,21.0,,,,1.0,Queretaro,20.5888,-100.3899,Bajio_Templado,hourly
2025-11-14 01:00:00+00:00,19.318,38.47493,4.818,0.0,16.90563,15.596088,1018.0,27.0,,,,0.0,Queretaro,20.5888,-100.3899,Bajio_Templado,hourly
2025-11-14 02:00:00+00:00,17.768,42.543472,4.868,0.0,16.720633,14.083902,1019.8,5.0,,,,0.0,Queretaro,20.5888,-100.3899,Bajio_Templado,hourly
2025-11-14 03:00:00+00:00,16.568,43.098476,3.968,0.0,16.204998,12.776018,1021.1,4.0,,,,0.0,Queretaro,20.5888,-100.3899,Bajio_Templado,hourly
2025-11-14 04:00:00+00:00,15.418,47.700523,4.368,0.0,14.545515,11.948439,1021.6,34.0,,,,0.0,Queretaro,20.5888,-100.3899,Bajio_Templado,hourly
2025-11-14 05:00:00+00:00,14.368,54.9112,5.4179997,0.0,12.57426,11.40634,1021.8,44.0,,,,0.0,Queretaro,20.5888,-100.3899,Bajio_Templado,hourly
2025-11-14 06:00:00+00:00,13.068001,62.500473,6.068,0.0,11.481968,10.409435,1022.3,71.0,,,,0.0,Queretaro,20.5888,-100.3899,Bajio_Templado,hourly
2025-11-14 07:00:00+00:00,12.218,68.63155,6.618,0.0,9.901636,9.9160595,1022.0,72.0,,,,0.0,Queretaro,20.5888,-100.3899,Bajio_Templado,hourly
2025-11-14 08:00:00+00:00,11.468,74.11745,7.018,0.0,9.187056,9.364695,1021.8,24.0,,,,0.0,Queretaro,20.5888,-100.3899,Bajio_Templado,hourly
2025-11-14 09:00:00+00:00,10.568001,80.31103,7.318,0.0,8.891343,8.580143,1021.3,91.0,,,,0.0,Queretaro,20.5888,-100.3899,Bajio_Templado,hourly
2025-11-14 10:00:00+00:00,9.818001,85.306526,7.468,0.0,8.29173,7.9542236,1021.3,98.0,,,,0.0,Queretaro,20.5888,-100.3899,Bajio_Templado,hourly
2025-11-14 11:00:00+00:00,9.268001,89.12169,7.568,0.0,8.027677,7.4673243,1021.2,99.0,,,,0.0,Queretaro,20.5888,-100.3899,Bajio_Templado,hourly
2025-11-14 12:00:00+00:00,8.568001,92.48063,7.4179997,0.0,6.924738,6.8912544,1022.5,100.0,,,,0.0,Queretaro,20.5888,-100.3899,Bajio_Templado,hourly
2025-11-14 13:00:00+00:00,8.018001,95.01614,7.268,0.0,7.2044983,6.2638674,1023.0,100.0,,,,1.0,Queretaro,20.5888,-100.3899,Bajio_Templado,hourly
2025-11-14 14:00:00+00:00,10.218,81.64761,7.218,0.0,6.361415,8.57484,1023.4,98.0,,,,1.0,Queretaro,20.5888,-100.3899,Bajio_Templado,hourly
2025-11-14 15:00:00+00:00,14.518001,58.67531,6.518,0.0,6.114703,12.744843,1023.4,29.0,,,,1.0,Queretaro,20.5888,-100.3899,Bajio_Templado,hourly
2025-11-14 16:00:00+00:00,18.518,40.024025,4.6679997,0.0,7.596341,16.12273,1022.0,8.0,,,,1.0,Queretaro,20.5888,-100.3899,Bajio_Templado,hourly
2025-11-14 17:00:00+00:00,22.018,25.526995,1.368,0.0,8.037761,19.941982,1019.9,13.0,,,,1.0,Queretaro,20.5888,-100.3899,Bajio_Templado,hourly
2025-11-14 18:00:00+00:00,24.318,15.404717,-3.632,0.0,7.127636,22.330292,1017.7,63.0,,,,1.0,Queretaro,20.5888,-100.3899,Bajio_Templado,hourly
2025-11-14 19:00:00+00:00,25.968,13.14987,-4.432,0.0,8.400428,23.834614,1015.6,99.0,,,,1.0,Queretaro,20.5888,-100.3899,Bajio_Templado,hourly
2025-11-14 20:00:00+00:00,26.518,15.733923,-1.582,0.0,8.6193495,24.350727,1014.2,100.0,,,,1.0,Queretaro,20.5888,-100.3899,Bajio_Templado,hourly
2025-11-14 21:00:00+00:00,26.668001,15.59548,-1.582,0.0,10.337079,23.372402,1013.0,100.0,,,,1.0,Queretaro,20.5888,-100.3899,Bajio_Templado,hourly
2025-11-14 22:00:00+00:00,26.368,14.6359005,-2.6820002,0.0,13.159711,21.943127,1012.6,100.0,,,,1.0,Queretaro,20.5888,-100.3899,Bajio_Templado,hourly
2025-11-14 23:00:00+00:00,25.018,16.15243,-2.4320002,0.0,15.3264475,20.310087,1013.0,99.0,,,,1.0,Queretaro,20.5888,-100.3899,Bajio_Templado,hourly
2025-11-15 00:00:00+00:00,23.268,20.55126,-0.58199996,0.0,14.018059,19.009943,1014.2,95.0,,,,1.0,Queretaro,20.5888,-100.3899,Bajio_Templado,hourly
2025-11-15 01:00:00+00:00,20.868,30.372097,2.8179998,0.0,14.24163,17.141594,1016.0,48.0,,,,0.0,Queretaro,20.5888,-100.3899,Bajio_Templado,hourly
2025-11-15 02:00:00+00:00,18.968,39.598343,4.9179997,0.0,15.676542,15.446362,1017.8,47.0,,,,0.0,Queretaro,20.5888,-100.3899,Bajio_Templado,hourly
2025-11-15 03:00:00+00:00,17.468,42.30949,4.518,0.0,15.891054,13.832443,1019.0,27.0,,,,0.0,Queretaro,20.5888,-100.3899,Bajio_Templado,hourly
2025-11-15 04:00:00+00:00,16.368,41.551098,3.268,0.0,14.087228,12.749218,1019.4,14.0,,,,0.0,Queretaro,20.5888,-100.3899,Bajio_Templado,hourly
2025-11-15 05:00:00+00:00,15.168,48.983326,4.518,0.0,11.328566,12.1982155,1019.8,15.0,,,,0.0,Queretaro,20.5888,-100.3899,Bajio_Templado,hourly
2025-11-15 06:00:00+00:00,13.218,60.412117,5.718,0.0,9.927779,10.708008,1020.6,37.0,,,,0.0,Queretaro,20.5888,-100.3899,Bajio_Templado,hourly
2025-11-15 07:00:00+00:00,12.318001,69.12488,6.818,0.0,9.178235,10.168458,1020.3,49.0,,,,0.0,Queretaro,20.5888,-100.3899,Bajio_Templado,hourly
2025-11-15 08:00:00+00:00,11.468,76.433655,7.468,0.0,8.461914,9.579399,1020.2,30.0,,,,0.0,Queretaro,20.5888,-100.3899,Bajio_Templado,hourly
2025-11-15 09:00:00+00:00,10.518001,83.37431,7.818,0.0,8.305396,8.739051,1019.6,8.0,,,,0.0,Queretaro,20.5888,-100.3899,Bajio_Templado,hourly
2025-11-15 10:00:00+00:00,9.618,89.15019,7.9179997,0.0,7.9220443,7.9200773,1019.6,34.0,,,,0.0,Queretaro,20.5888,-100.3899,Bajio_Templado,hourly
2025-11-15 11:00:00+00:00,8.918,94.40756,8.068,0.0,7.388775,7.335802,1019.5,62.0,,,,0.0,Queretaro,20.5888,-100.3899,Bajio_Templado,hourly
2025-11-15 12:00:00+00:00,7.818,94.036896,6.9179997,0.0,6.5024605,6.0822515,1020.2,70.0,,,,0.0,Queretaro,20.5888,-100.3899,Bajio_Templado,hourly
2025-11-15 13:00:00+00:00,7.4179997,96.63669,6.9179997,0.0,6.0077944,5.754343,1020.7,86.0,,,,1.0,Queretaro,20.5888,-100.3899,Bajio_Templado,hourly
2025-11-15 14:00:00+00:00,10.218,80.81374,7.068,0.0,5.1575575,8.714305,1021.4,65.0,,,,1.0,Queretaro,20.5888,-100.3899,Bajio_Templado,hourly
2025-11-15 15:00:00+00:00,14.368,61.736782,7.118,0.0,3.7842832,13.076292,1021.4,1.0,,,,1.0,Queretaro,20.5888,-100.3899,Bajio_Templado,hourly
2025-11-15 16:00:00+00:00,18.418001,43.175552,5.6679997,0.0,2.1897945,17.024529,1020.0,0.0,,,,1.0,Queretaro,20.5888,-100.3899,Bajio_Templado,hourly
2025-11-15 17:00:00+00:00,22.118,27.738527,2.618,0.0,2.6208394,21.177706,1018.1,0.0,,,,1.0,Queretaro,20.5888,-100.3899,Bajio_Templado,hourly
2025-11-15 18:00:00+00:00,24.468,17.641386,-1.6820002,0.0,4.86,23.142044,1015.9,0.0,,,,1.0,Queretaro,20.5888,-100.3899,Bajio_Templado,hourly
2025-11-15 19:00:00+00:00,26.718,14.3903,-2.632,0.0,4.6834598,25.512722,1013.6,0.0,,,,1.0,Queretaro,20.5888,-100.3899,Bajio_Templado,hourly
2025-11-15 20:00:00+00:00,27.768,13.834875,-2.332,0.0,4.0249224,26.451551,1011.7,0.0,,,,1.0,Queretaro,20.5888,-100.3899,Bajio_Templado,hourly
2025-11-15 21:00:00+00:00,28.468,13.038536,-2.582,0.0,4.379589,26.317408,1010.1,0.0,,,,1.0,Queretaro,20.5888,-100.3899,Bajio_Templado,hourly
2025-11-15 22:00:00+00:00,28.518,12.573656,-3.032,0.0,6.122647,25.074045,1009.2,0.0,,,,1.0,Queretaro,20.5888,-100.3899,Bajio_Templado,hourly
2025-11-15 23:00:00+00:00,27.818,12.855348,-3.282,0.0,7.3094187,24.16984,1009.3,0.0,,,,1.0,Queretaro,20.5888,-100.3899,Bajio_Templado,hourly
2025-11-16 00:00:00+00:00,25.018,22.158504,1.918,0.0,0.71999997,23.10102,1010.4,0.0,,,,1.0,Queretaro,20.5888,-100.3899,Bajio_Templado,hourly
2025-11-16 01:00:00+00:00,23.118,19.275179,-1.582,0.0,11.307095,19.111658,1012.4,0.0,,,,0.0,Queretaro,20.5888,-100.3899,Bajio_Templado,hourly
2025-11-16 02:00:00+00:00,21.118,26.113928,0.918,0.0,10.360559,17.627544,1014.0,0.0,,,,0.0,Queretaro,20.5888,-100.3899,Bajio_Templado,hourly
2025-11-16 03:00:00+00:00,19.718,30.477217,1.868,0.0,10.658068,16.344526,1015.2,1.0,,,,0.0,Queretaro,20.5888,-100.3899,Bajio_Templado,hourly
2025-11-16 04:00:00+00:00,18.518,35.515896,2.968,0.0,8.0899935,15.717052,1015.9,0.0,,,,0.0,Queretaro,20.5888,-100.3899,Bajio_Templado,hourly
2025-11-16 05:00:00+00:00,16.618,42.065266,3.668,0.0,5.48631,14.33028,1016.3,0.0,,,,0.0,Queretaro,20.5888,-100.3899,Bajio_Templado,hourly
2025-11-16 06:00:00+00:00,14.868,48.05031,3.968,0.0,3.8856654,12.87285,1017.0,0.0,,,,0.0,Queretaro,20.5888,-100.3899,Bajio_Templado,hourly
2025-11-16 07:00:00+00:00,13.268001,53.112827,3.918,0.0,3.7064266,11.289271,1016.6,0.0,,,,0.0,Queretaro,20.5888,-100.3899,Bajio_Templado,hourly
2025-11-16 08:00:00+00:00,12.268001,56.905403,3.968,0.0,1.8,10.5772505,1016.5,0.0,,,,0.0,Queretaro,20.5888,-100.3899,Bajio_Templado,hourly
2025-11-16 09:00:00+00:00,11.818001,57.79847,3.768,0.0,2.4482646,9.993357,1016.1,0.0,,,,0.0,Queretaro,20.5888,-100.3899,Bajio_Templado,hourly
2025-11-16 10:00:00+00:00,11.218,59.29645,3.5679998,0.0,0.8049845,9.59413,1016.3,0.0,,,,0.0,Queretaro,20.5888,-100.3899,Bajio_Templado,hourly
2025-11-16 11:00:00+00:00,10.968,59.86456,3.468,0.0,2.36753,9.096998,1016.6,0.0,,,,0.0,Queretaro,20.5888,-100.3899,Bajio_Templado,hourly
2025-11-16 12:00:00+00:00,10.568001,58.926105,2.868,0.0,2.5772076,8.553331,1017.8,0.0,,,,0.0,Queretaro,20.5888,-100.3899,Bajio_Templado,hourly
2025-11-16 13:00:00+00:00,9.918,65.57583,3.768,0.0,1.484318,8.23395,1018.5,0.0,,,,1.0,Queretaro,20.5888,-100.3899,Bajio_Templado,hourly
2025-11-16 14:00:00+00:00,12.818001,55.08257,4.018,0.0,2.4014995,11.049419,1018.9,0.0,,,,1.0,Queretaro,20.5888,-100.3899,Bajio_Templado,hourly
2025-11-16 15:00:00+00:00,17.218,42.68357,4.418,0.0,2.5455842,15.50828,1019.0,0.0,,,,1.0,Queretaro,20.5888,-100.3899,Bajio_Templado,hourly
2025-11-16 16:00:00+00:00,20.718,37.169224,5.568,0.0,6.489992,18.674828,1018.1,0.0,,,,1.0,Queretaro,20.5888,-100.3899,Bajio_Templado,hourly
2025-11-16 17:00:00+00:00,23.318,30.744387,5.118,0.0,8.461914,21.841501,1016.2,0.0,,,,1.0,Queretaro,20.5888,-100.3899,Bajio_Templado,hourly
2025-11-16 18:00:00+00:00,25.618,24.376274,3.768,0.0,8.11798,24.550032,1014.1,0.0,,,,1.0,Queretaro,20.5888,-100.3899,Bajio_Templado,hourly
2025-11-16 19:00:00+00:00,27.368,20.560247,2.8179998,0.0,5.426933,26.805265,1011.8,0.0,,,,1.0,Queretaro,20.5888,-100.3899,Bajio_Templado,hourly
2025-11-16 20:00:00+00:00,28.318,19.658787,2.968,0.0,5.0688457,27.568943,1010.1,0.0,,,,1.0,Queretaro,20.5888,-100.3899,Bajio_Templado,hourly
2025-11-16 21:00:00+00:00,28.868,18.247395,2.368,0.0,6.2067385,27.09662,1008.7,0.0,,,,1.0,Queretaro,20.5888,-100.3899,Bajio_Templado,hourly
2025-11-16 22:00:00+00:00,28.818,17.471397,1.7179999,0.0,8.863972,25.677376,1008.2,2.0,,,,1.0,Queretaro,20.5888,-100.3899,Bajio_Templado,hourly
2025-11-16 23:00:00+00:00,28.268,17.217142,1.0680001,0.0,7.486788,25.21905,1008.3,69.0,,,,1.0,Queretaro,20.5888,-100.3899,Bajio_Templado,hourly
2025-11-17 00:00:00+00:00,25.468,22.355251,2.418,0.0,1.4058449,23.539255,1009.6,38.0,,,,1.0,Queretaro,20.5888,-100.3899,Bajio_Templado,hourly
2025-11-17 01:00:00+00:00,24.368,21.519995,0.968,0.0,12.886039,20.516546,1011.5,25.0,,,,0.0,Queretaro,20.5888,-100.3899,Bajio_Templado,hourly
2025-11-17 02:00:00+00:00,22.368,24.544283,1.118,0.0,8.669949,19.156666,1012.7,4.0,,,,0.0,Queretaro,20.5888,-100.3899,Bajio_Templado,hourly
2025-11-17 03:00:00+00:00,20.768,29.284357,2.218,0.0,9.6480665,17.603,1014.0,1.0,,,,0.0,Queretaro,20.5888,-100.3899,Bajio_Templado,hourly
2025-11-17 04:00:00+00:00,19.518,32.89884,2.768,0.0,8.133928,16.67344,1014.3,0.0,,,,0.0,Queretaro,20.5888,-100.3899,Bajio_Templado,hourly
2025-11-17 05:00:00+00:00,18.018,36.132027,2.768,0.0,5.441838,15.566362,1014.9,0.0,,,,0.0,Queretaro,20.5888,-100.3899,Bajio_Templado,hourly
2025-11-17 06:00:00+00:00,16.068,42.80383,3.418,0.0,1.6981165,14.28459,1015.7,0.0,,,,0.0,Queretaro,20.5888,-100.3899,Bajio_Templado,hourly
2025-11-17 07:00:00+00:00,14.768001,43.964806,2.618,0.0,1.7076298,12.834015,1015.7,0.0,,,,0.0,Queretaro,20.5888,-100.3899,Bajio_Templado,hourly
2025-11-17 08:00:00+00:00,13.818001,46.25588,2.468,0.0,2.5772078,11.730118,1015.4,0.0,,,,0.0,Queretaro,20.5888,-100.3899,Bajio_Templado,hourly
2025-11-17 09:00:00+00:00,12.968,48.370613,2.318,0.0,4.198285,10.616847,1015.1,0.0,,,,0.0,Queretaro,20.5888,-100.3899,Bajio_Templado,hourly
2025-11-17 10:00:00+00:00,12.318001,50.47526,2.318,0.0,2.907989,10.155054,1014.9,0.0,,,,0.0,Queretaro,20.5888,-100.3899,Bajio_Templado,hourly
2025-11-17 11:00:00+00:00,12.118,53.179855,2.868,0.0,0.25455844,10.442015,1015.1,0.0,,,,0.0,Queretaro,20.5888,-100.3899,Bajio_Templado,hourly
2025-11-17 12:00:00+00:00,10.968,55.773823,2.468,0.0,1.6981165,9.008464,1016.8,0.0,,,,0.0,Queretaro,20.5888,-100.3899,Bajio_Templado,hourly
2025-11-17 13:00:00+00:00,10.718,58.340702,2.868,0.0,2.1749482,8.761994,1017.9,0.0,,,,1.0,Queretaro,20.5888,-100.3899,Bajio_Templado,hourly
2025-11-17 14:00:00+00:00,13.418,51.679787,3.668,0.0,2.4014995,11.580569,1018.6,0.0,,,,1.0,Queretaro,20.5888,-100.3899,Bajio_Templado,hourly
2025-11-17 15:00:00+00:00,17.618,41.32875,4.318,0.0,2.7534704,15.857576,1018.8,0.0,,,,1.0,Queretaro,20.5888,-100.3899,Bajio_Templado,hourly
2025-11-17 16:00:00+00:00,20.768,41.655136,7.268,0.0,6.310277,19.142477,1018.0,0.0,,,,1.0,Queretaro,20.5888,-100.3899,Bajio_Templado,hourly
2025-11-17 17:00:00+00:00,23.418001,35.081596,7.118,0.0,7.7734165,22.457561,1016.5,0.0,,,,1.0,Queretaro,20.5888,-100.3899,Bajio_Templado,hourly
2025-11-17 18:00:00+00:00,25.168001,28.885315,5.818,0.0,8.287822,24.456059,1014.7,1.0,,,,1.0,Queretaro,20.5888,-100.3899,Bajio_Templado,hourly
2025-11-17 19:00:00+00:00,26.968,23.476065,4.368,0.0,7.256032,26.309238,1012.9,13.0,,,,1.0,Queretaro,20.5888,-100.3899,Bajio_Templado,hourly
2025-11-17 20:00:00+00:00,27.518,20.452795,2.868,0.0,6.5693827,26.111933,1011.3,7.0,,,,1.0,Queretaro,20.5888,-100.3899,Bajio_Templado,hourly
2025-11-17 21:00:00+00:00,27.868,18.266836,1.5680001,0.0,7.0223074,25.624086,1010.2,9.0,,,,1.0,Queretaro,20.5888,-100.3899,Bajio_Templado,hourly
2025-11-17 22:00:00+00:00,27.468,17.975393,1.018,0.0,8.101999,24.321398,1009.6,13.0,,,,1.0,Queretaro,20.5888,-100.3899,Bajio_Templado,hourly
2025-11-17 23:00:00+00:00,26.818,18.143866,0.61800003,0.0,8.461914,23.554235,1009.9,3.0,,,,1.0,Queretaro,20.5888,-100.3899,Bajio_Templado,hourly
2025-11-18 00:00:00+00:00,24.668001,23.866863,2.668,0.0,4.542994,22.327297,1011.0,3.0,,,,1.0,Queretaro,20.5888,-100.3899,Bajio_Templado,hourly
2025-11-18 01:00:00+00:00,23.818,25.38336,2.8179998,0.0,5.3699164,21.384495,1011.4,2.0,,,,0.0,Queretaro,20.5888,-100.3899,Bajio_Templado,hourly
2025-11-18 02:00:00+00:00,22.418001,28.218674,3.118,0.0,8.863972,19.531193,1012.6,1.0,,,,0.0,Queretaro,20.5888,-100.3899,Bajio_Templado,hourly
2025-11-18 03:00:00+00:00,21.018,32.294052,3.8179998,0.0,9.109138,18.23021,1014.4,1.0,,,,0.0,Queretaro,20.5888,-100.3899,Bajio_Templado,hourly
2025-11-18 04:00:00+00:00,18.818,42.40093,5.768,0.0,1.1384199,17.59981,1015.7,1.0,,,,0.0,Queretaro,20.5888,-100.3899,Bajio_Templado,hourly
2025-11-18 05:00:00+00:00,17.218,47.869152,6.068,0.0,1.9881649,15.943287,1016.6,0.0,,,,0.0,Queretaro,20.5888,-100.3899,Bajio_Templado,hourly
2025-11-18 06:00:00+00:00,15.468,57.516304,7.118,0.0,2.968636,14.295061,1016.9,0.0,,,,0.0,Queretaro,20.5888,-100.3899,Bajio_Templado,hourly
2025-11-18 07:00:00+00:00,15.018001,62.73691,7.968,0.0,2.7943513,14.080109,1016.7,0.0,,,,0.0,Queretaro,20.5888,-100.3899,Bajio_Templado,hourly
2025-11-18 08:00:00+00:00,14.618,70.29132,9.268001,0.0,2.8856194,14.008743,1016.8,0.0,,,,0.0,Queretaro,20.5888,-100.3899,Bajio_Templado,hourly
2025-11-18 09:00:00+00:00,13.768001,81.29072,10.618,0.0,2.226477,13.639099,1016.7,0.0,,,,0.0,Queretaro,20.5888,-100.3899,Bajio_Templado,hourly
2025-11-18 10:00:00+00:00,13.418,83.9966,10.768001,0.0,0.40249225,13.599741,1017.0,0.0,,,,0.0,Queretaro,20.5888,-100.3899,Bajio_Templado,hourly
2025-11-18 11:00:00+00:00,12.668,87.92119,10.718,0.0,2.1674871,12.57753,1017.5,0.0,,,,0.0,Queretaro,20.5888,-100.3899,Bajio_Templado,hourly
2025-11-18 12:00:00+00:00,11.818001,92.97321,10.718,0.0,2.7534704,11.642146,1018.5,0.0,,,,0.0,Queretaro,20.5888,-100.3899,Bajio_Templado,hourly
2025-11-18 13:00:00+00:00,11.218,92.94115,10.118,0.0,1.9386592,10.985471,1019.4,0.0,,,,1.0,Queretaro,20.5888,-100.3899,Bajio_Templado,hourly
2025-11-18 14:00:00+00:00,13.918,78.12289,10.168,0.0,2.4216523,13.629169,1020.2,0.0,,,,1.0,Queretaro,20.5888,-100.3899,Bajio_Templado,hourly
2025-11-18 15:00:00+00:00,18.218,57.230225,9.618,0.0,0.25455844,18.088171,1020.3,0.0,,,,1.0,Queretaro,20.5888,-100.3899,Bajio_Templado,hourly
2025-11-18 16:00:00+00:00,21.218,49.955086,10.368,0.0,1.835647,21.070307,1019.2,1.0,,,,1.0,Queretaro,20.5888,-100.3899,Bajio_Templado,hourly
2025-11-18 17:00:00+00:00,23.968,36.580982,8.218,0.0,1.9134263,24.181849,1017.7,5.0,,,,1.0,Queretaro,20.5888,-100.3899,Bajio_Templado,hourly
2025-11-18 18:00:00+00:00,25.618,28.415956,5.968,0.0,2.968636,25.822977,1015.8,1.0,,,,1.0,Queretaro,20.5888,-100.3899,Bajio_Templado,hourly
2025-11-18 19:00:00+00:00,27.718,22.624458,4.468,0.0,2.2768397,27.918663,1014.0,5.0,,,,1.0,Queretaro,20.5888,-100.3899,Bajio_Templado,hourly
2025-11-18 20:00:00+00:00,28.468,20.331425,3.5679998,0.0,2.4014995,28.080273,1012.6,38.0,,,,1.0,Queretaro,20.5888,-100.3899,Bajio_Templado,hourly
2025-11-18 21:00:00+00:00,28.618,19.114904,2.8179998,0.0,2.5071096,27.01926,1011.7,15.0,,,,1.0,Queretaro,20.5888,-100.3899,Bajio_Templado,hourly
2025-11-18 22:00:00+00:00,28.318,19.245255,2.668,0.0,2.1674871,26.32232,1011.1,23.0,,,,1.0,Queretaro,20.5888,-100.3899,Bajio_Templado,hourly
2025-11-18 23:00:00+00:00,27.218,20.377213,2.5679998,0.0,3.572898,24.999632,1011.7,33.0,,,,1.0,Queretaro,20.5888,-100.3899,Bajio_Templado,hourly
2025-11-19 00:00:00+00:00,25.418001,23.897795,3.3179998,0.0,9.567131,22.465391,1012.7,53.0,,,,1.0,Queretaro,20.5888,-100.3899,Bajio_Templado,hourly
2025-11-19 01:00:00+00:00,22.968,33.770782,6.1679997,0.1,1.4512063,21.792385,1015.2,48.0,,,,0.0,Queretaro,20.5888,-100.3899,Bajio_Templado,hourly
2025-11-19 02:00:00+00:00,22.418001,33.73055,5.6679997,0.0,11.431063,19.675585,1016.8,13.0,,,,0.0,Queretaro,20.5888,-100.3899,Bajio_Templado,hourly
2025-11-19 03:00:00+00:00,21.418001,38.810616,6.818,0.0,10.337079,19.097414,1017.5,5.0,,,,0.0,Queretaro,20.5888,-100.3899,Bajio_Templado,hourly
2025-11-19 04:00:00+00:00,20.268,45.059456,7.968,0.0,11.032987,18.127207,1018.2,3.0,,,,0.0,Queretaro,20.5888,-100.3899,Bajio_Templado,hourly
2025-11-19 05:00:00+00:00,19.018,51.75662,8.868,0.0,10.272623,17.222301,1018.4,0.0,,,,0.0,Queretaro,20.5888,-100.3899,Bajio_Templado,hourly
2025-11-19 06:00:00+00:00,17.918001,53.242435,8.268001,0.0,9.243311,16.115503,1018.6,1.0,,,,0.0,Queretaro,20.5888,-100.3899,Bajio_Templado,hourly
2025-11-19 07:00:00+00:00,16.618,59.792698,8.768001,0.0,6.5024605,15.346228,1018.8,0.0,,,,0.0,Queretaro,20.5888,-100.3899,Bajio_Templado,hourly
2025-11-19 08:00:00+00:00,15.368,66.75512,9.218,0.0,4.8899083,14.452663,1019.0,3.0,,,,0.0,Queretaro,20.5888,-100.3899,Bajio_Templado,hourly
2025-11-19 09:00:00+00:00,14.368,72.89045,9.568001,0.0,5.9427266,13.395683,1018.9,15.0,,,,0.0,Queretaro,20.5888,-100.3899,Bajio_Templado,hourly
2025-11-19 10:00:00+00:00,13.518001,78.32425,9.818001,0.0,6.5024605,12.534256,1018.9,1.0,,,,0.0,Queretaro,20.5888,-100.3899,Bajio_Templado,hourly
2025-11-19 11:00:00+00:00,12.768001,83.362434,10.018001,0.0,7.102591,11.7536335,1019.0,3.0,,,,0.0,Queretaro,20.5888,-100.3899,Bajio_Templado,hourly
2025-11-19 12:00:00+00:00,11.918,87.26811,9.868,0.0,7.562142,10.794019,1020.0,27.0,,,,0.0,Queretaro,20.5888,-100.3899,Bajio_Templado,hourly
2025-11-19 13:00:00+00:00,11.218,91.09393,9.818001,0.0,7.208994,10.131414,1020.4,21.0,,,,1.0,Queretaro,20.5888,-100.3899,Bajio_Templado,hourly
2025-11-19 14:00:00+00:00,13.668,74.50065,9.218,0.0,5.3305535,12.688696,1021.1,34.0,,,,1.0,Queretaro,20.5888,-100.3899,Bajio_Templado,hourly
2025-11-19 15:00:00+00:00,18.218,48.47608,7.1679997,0.0,5.1575575,16.737236,1021.5,80.0,,,,1.0,Queretaro,20.5888,-100.3899,Bajio_Templado,hourly
2025-11-19 16:00:00+00:00,21.768,36.704845,6.318,0.0,8.338489,19.622604,1020.3,92.0,,,,1.0,Queretaro,20.5888,-100.3899,Bajio_Templado,hourly
2025-11-19 17:00:00+00:00,24.668001,25.886106,3.8179998,0.0,10.658068,22.477951,1018.6,74.0,,,,1.0,Queretaro,20.5888,-100.3899,Bajio_Templado,hourly
2025-11-19 18:00:00+00:00,26.768,16.98723,-0.33200002,0.0,13.681183,23.962753,1016.5,27.0,,,,1.0,Queretaro,20.5888,-100.3899,Bajio_Templado,hourly
2025-11-19 19:00:00+00:00,27.968,14.719075,-1.332,0.0,13.5012,25.23791,1014.9,0.0,,,,1.0,Queretaro,20.5888,-100.3899,Bajio_Templado,hourly
2025-11-19 20:00:00+00:00,28.518,13.048952,-2.532,0.0,12.483749,25.58274,1013.1,7.0,,,,1.0,Queretaro,20.5888,-100.3899,Bajio_Templado,hourly
2025-11-19 21:00:00+00:00,28.468,12.704317,-2.9320002,0.0,12.487641,24.836193,1012.4,35.0,,,,1.0,Queretaro,20.5888,-100.3899,Bajio_Templado,hourly
2025-11-19 22:00:00+00:00,27.918001,13.663645,-2.382,0.0,14.178928,23.383247,1012.2,44.0,,,,1.0,Queretaro,20.5888,-100.3899,Bajio_Templado,hourly
2025-11-19 23:00:00+00:00,26.618,18.030218,0.368,0.0,14.637663,22.413942,1012.5,42.0,,,,1.0,Queretaro,20.5888,-100.3899,Bajio_Templado,hourly
2025-11-20 00:00:00+00:00,23.518,26.965971,3.418,0.0,17.782686,19.38704,1014.3,58.0,,,,1.0,Queretaro,20.5888,-100.3899,Bajio_Templado,hourly
2025-11-20 01:00:00+00:00,20.868,38.123627,6.068,0.0,15.978486,17.551998,1015.9,70.0,,,,0.0,Queretaro,20.5888,-100.3899,Bajio_Templado,hourly
2025-11-20 02:00:00+00:00,19.668001,45.50852,7.568,0.0,14.357185,16.942724,1017.5,16.0,,,,0.0,Queretaro,20.5888,-100.3899,Bajio_Templado,hourly
2025-11-20 03:00:00+00:00,18.418001,55.762913,9.418,0.0,12.961249,16.379581,1018.7,1.0,,,,0.0,Queretaro,20.5888,-100.3899,Bajio_Templado,hourly
2025-11-20 04:00:00+00:00,17.368,64.33535,10.568001,0.0,11.126562,15.925543,1019.3,0.0,,,,0.0,Queretaro,20.5888,-100.3899,Bajio_Templado,hourly
2025-11-20 05:00:00+00:00,16.518,69.4951,10.918,0.0,8.490582,15.56455,1019.9,4.0,,,,0.0,Queretaro,20.5888,-100.3899,Bajio_Templado,hourly
